Ortsname,PLZ,Latitude,Longitude,
Sörenberg,6174,46.8076044,8.0054691,
Bäriswil,3323,47.0178152,7.534117299999999,
Aarburg,4663,47.3189236,7.9044835,
St-Prex,1162,46.818188,8.227511999999999,
Meinier,1252,46.2455524,6.2341039,
Kaltbrunn,8722,47.2161875,9.0242024,
Siblingen,8225,47.7195387,8.5183119,
Sempach,6204,47.14074189999999,8.201868,
Gasel,3144,46.899072,7.4087902,
Semsales,1623,46.818188,8.227511999999999,
Unterentfelden,5035,47.37084309999999,8.042295,
Rüschegg-Ganbach,3153,46.7671853,7.3774193,
Chêne-Bourg,1225,46.818188,8.227511999999999,
Schwanden,3657,46.74716859999999,7.752802699999998,
Genève,1209,46.818188,8.227511999999999,
Steinen,6422,47.0519276,8.6087668,
Rupperswil,5102,47.4014197,8.1324421,
Bettlach,2544,47.2039878,7.4206019,
Renens,1020,46.53643779999999,6.5909099,
Sennwald,9466,47.2655237,9.5073787,
Rodels,7415,46.7393124,9.4385579,
Weingarten,9508,47.527648,8.9851508,
Holziken,5043,47.3173282,8.0331485,
Arlesheim,4144,47.4953285,7.628910799999999,
Aïre,1219,46.818188,8.227511999999999,
Ausserberg,3938,46.3284987,7.8541999,
Ittigen,3063,46.9824346,7.4776246,
Wattwil,9630,47.2901615,9.0845857,
Appenzell,9050,47.32678900000001,9.4228294,
Contra,6646,46.191417,8.8367582,
Aarau,5004,47.40030729999999,8.0612079,
Donat,7433,46.6243833,9.3852359,
Castel San Pietro,6874,45.8655773,9.0111518,
Säriswil,3049,46.991434,7.3388638,
Plan-les-Ouates,1228,46.1655214,6.116018,
Mettmenstetten,8932,47.2437564,8.4626854,
Bernex,1233,46.818188,8.227511999999999,
Gebenstorf,5412,47.4794177,8.2488104,
Lenzerheide,7078,46.7283044,9.5412767,
Blumenstein,3638,46.7243621,7.5122297,
Egerkingen,4622,47.3261978,7.798637200000001,
Schwendibach,3624,46.7651516,7.6666345,
Giebenach,4304,47.5238396,7.737236500000001,
Lenggenwil,9525,47.4730205,9.1434593,
Hämikon,6289,47.2422948,8.291543899999999,
Werthenstein,6106,47.0497303,8.1038793,
Eischoll,3943,46.2866395,7.761415700000001,
Basadingen,8254,47.6625646,8.747026,
Buch,8524,47.5864622,8.8342485,
Sörenberg,6174,46.8076044,8.0054691,
Matten,3773,46.5145991,7.4570245,
Kerns,6064,46.9040003,8.2946543,
Grossaffoltern,3257,47.0705883,7.362277299999999,
Les Bois,2336,47.1728237,6.9006476,
Steinmaur,8162,47.4975846,8.4396233,
Ormalingen,4466,47.4710544,7.877688000000001,
Schüpfen,3054,47.030614,7.375456199999999,
Windisch,5210,47.4767224,8.217699,
Hörhausen,8507,47.635113,8.9729502,
Obfelden,8912,47.2625202,8.4182852,
Horw,6048,47.0249599,8.3121008,
Binningen,4102,47.5379528,7.570991899999999,
Wil,9500,47.4604542,9.0530887,
Ganterschwil,9608,47.37766149999999,9.100402899999999,
Gunzgen,4617,47.3111104,7.8393871,
Marbach,9437,47.3851158,9.581794300000002,
Schneisingen,5425,47.5196737,8.3607803,
Basel,4053,47.54061230000001,7.5975674,
Grenchen,2540,47.1966015,7.383175499999999,
Raron,3942,46.3367598,7.804152599999998,
Uettligen,3043,46.99141729999999,7.377042599999999,
Paradiso,6900,46.009366,8.9507851,
Staffelbach,5053,47.280119,8.0376329,
Steinmaur,8162,47.4975846,8.4396233,
Oensingen,4702,47.2923526,7.7176406,
Balgach,9436,47.4054637,9.6042275,
Oeschgen,5072,47.5253673,8.0196605,
Künten,5444,47.3851291,8.3243283,
Spiez,3700,46.6901725,7.6610777,
Vuissens,1486,46.818188,8.227511999999999,
Duillier,1266,46.818188,8.227511999999999,
Oberhasli,8156,47.4610873,8.498793899999999,
Sonvico,6968,46.0687736,9.0197193,
Werthenstein,6106,47.0497303,8.1038793,
Schönenberg,8824,47.196726,8.6407173,
Muhen,5037,47.3371722,8.0658539,
Steinmaur,8162,47.4975846,8.4396233,
Detligen,3036,46.9980831,7.2730819,
Burgdorf,3400,46.818188,8.227511999999999,
Kaltbrunn,8722,47.2161875,9.0242024,
Lichtensteig,9620,47.3216359,9.0916199,
Corcelles-sur-Chavornay,1374,32.5717118,-117.0923022,
Ranflüh,3439,46.98904049999999,7.7450378,
Gisikon,6038,47.1283648,8.405650399999999,
La Roche,1634,46.6967683,7.138061599999999,
Massagno,6900,46.009366,8.9507851,
Hemberg,9633,47.3005308,9.1757408,
Schangnau,6197,46.8276597,7.8607874,
Li Curt,7745,46.3011983,10.0438912,
Gommiswald,8737,47.22842079999999,9.0250434,
Fahy,2916,47.41999269999999,6.955028,
Corban,2826,47.357806,7.4728131,
Freidorf,9306,47.4854814,9.3858009,
Erstfeld,6472,46.8033393,8.5994797,
Erstfeld,6472,46.8033393,8.5994797,
Gsteig b. Gstaad,3785,46.37278449999999,7.2585836,
Valeyres-sous-Ursins,1412,32.5709259,-117.0921643,
L'Auberson,1454,46.818188,8.227511999999999,
Tann,8632,47.2669166,8.8478624,
Bätterkinden,3315,47.1377716,7.533422099999999,
Basel,4053,47.54061230000001,7.5975674,
Cadro,6965,46.0441296,8.9971402,
Tenna,7106,46.7416885,9.3210091,
Ried-Mörel,3986,46.3526497,8.027042,
Ürikon,8713,47.2397042,8.7541192,
Röthenbach i.E.,3538,46.8598762,7.742323799999999,
Alpnach Dorf,6055,46.949044,8.212256199999999,
Guggisberg,3158,46.7613108,7.3175743,
Egg,8132,47.3015966,8.6849217,
Degersheim,9113,47.36995830000001,9.1964005,
Guemlingen,3073,46.9336127,7.5147658,
Lohn,7433,46.6243833,9.3852359,
Detligen,3036,46.9980831,7.2730819,
Busswil bei Büren,3292,47.0994094,7.321120299999999,
Beckenried,6375,46.9651892,8.465459,
Ostermundigen,3072,46.9543249,7.4967031,
Gunzwil,6222,47.1921984,8.1686856,
Walde,8727,47.2747446,9.030630799999999,
Wauwil,6242,47.18212949999999,8.033870799999999,
Confignon,1232,46.818188,8.227511999999999,
Werthenstein,6106,47.0497303,8.1038793,
Andwil,9204,47.43244929999999,9.2785092,
Rafz,8197,47.6083878,8.546168999999999,
Wil,9500,47.4604542,9.0530887,
Rebeuvelier,2832,47.3221627,7.4158902,
Grossdietwil,6146,47.16306400000001,7.885055500000001,
Ortschwaben,3042,46.9936184,7.399657700000001,
Frauenfeld,8500,47.5624565,8.8883133,
Meyrin,1217,46.2349075,6.074979099999999,
Minusio,6648,46.188948,8.8064646,
Brüttelen,3237,46.818188,8.227511999999999,
Hellbühl,6016,47.0726649,8.194188,
Rosshäusern,3204,46.9293689,7.278932999999999,
Rothrist,4852,47.30043149999999,7.8873473,
Gwatt,3645,46.71234519999999,7.620188300000001,
Eysins,1262,46.818188,8.227511999999999,
Ringoldswil,3656,46.72938800000001,7.6921847,
Kriessern,9451,47.3660196,9.6032566,
Lauperswil,3438,46.9588417,7.722027400000001,
Pfäffikon,8330,47.3722412,8.7921111,
Herznach,5027,47.4742592,8.0506391,
Ruswil,6017,47.08397739999999,8.1263259,
Gonten,9108,47.3135227,9.3443465,
Wasen,3457,47.0344778,7.8316072,
Pignia,7443,46.6028594,9.468848699999999,
Hellbühl,6016,47.0726649,8.194188,
Bernex,1233,46.818188,8.227511999999999,
Gähwil,9534,47.3974541,9.0015436,
Bubendorf,4416,47.4486514,7.7362564,
Ennetbürgen,6373,46.9884748,8.4092693,
Kottwil,6217,47.1620584,8.0401603,
Muri,5630,47.2782305,8.3382955,
Wohlen,5610,47.3508817,8.2870507,
Frutigen,3714,46.5992099,7.6424435,
Niederrohrdorf,5443,47.4215186,8.2986299,
Rieden,5415,47.490481,8.3006155,
Oensingen,4702,47.2923526,7.7176406,
Aadorf,8355,47.4893862,8.905344099999999,
Hohentannen,9216,47.5163837,9.2193455,
Lanzenneunforn,8506,47.6256197,8.935959,
Egg SZ,8847,47.1617695,8.783147699999999,
Altstätten,9450,47.3700789,9.5549856,
Oberhofen,3653,46.7353271,7.6761901,
Egnach,9322,47.5458023,9.374761999999999,
Menznau,6122,47.0738989,8.0390977,
Müntschemier,3225,46.9964702,7.1438031,
Affoltern,8910,47.27914759999999,8.4595489,
Heldswil,9216,47.5163837,9.2193455,
Hosenruck,9515,47.4910994,9.1338625,
Altnau,8595,47.6119373,9.2629667,
Bätterkinden,3315,47.1377716,7.533422099999999,
Les Brenets,2416,47.0710985,6.7187969,
Cureglia,6944,46.037554,8.943466299999999,
Meyrin,1217,46.2349075,6.074979099999999,
Obernau,6012,47.0300664,8.2417184,
Hombrechtikon,8634,47.25584,8.7682378,
Châbles,1474,46.818188,8.227511999999999,
Hallau,8215,47.70546969999999,8.4404425,
Speicherschwendi,9037,47.4265519,9.4406143,
Uetikon am See,8707,47.269647,8.6842566,
Neu St. Johann,9652,47.2400076,9.1880199,
Steinmaur,8162,47.4975846,8.4396233,
Wangen,3380,47.2345991,7.663238499999999,
Mariastein,4115,47.4729513,7.482270799999999,
Schmidigen-Mühleweg,3464,47.0948831,7.7353482,
Oberentfelden,5332,47.5679197,8.3233312,
La-Chaux-De-Fonds,2300,47.11767829999999,6.8405667,
Chénens,1744,46.818188,8.227511999999999,
Arzier,1273,46.818188,8.227511999999999,
Kappel,4616,47.3221701,7.8574229,
Zermatt,3920,46.0040669,7.747888,
Scuol,7550,46.7291199,10.3141052,
Küsnacht,8700,47.3184279,8.5927209,
Sarnen,6060,46.9038736,8.2289979,
Utzenstorf,3427,47.125834,7.5657815,
Barzheim,8241,47.7604087,8.717081,
Ebnat-Kappel,9642,47.2522495,9.1275795,
Niederrohrdorf,5443,47.4215186,8.2986299,
Saas i. P.,7247,46.9169669,9.850702499999999,
La Chaux-de-Fonds,2300,47.11767829999999,6.8405667,
St. Stephan,3772,46.5000164,7.383668399999999,
Gossau,9200,47.4151524,9.248133600000001,
Obbürgen NW,6363,46.9888868,8.370418899999999,
Langenthal,4900,47.2140396,7.7857711,
Vallamand,1586,46.93231249999999,7.037316199999999,
Rumisberg,4539,47.268896,7.6278124,
Hüttwilen,8536,47.613619,8.867386999999999,
Mézières VD,1083,46.818188,8.227511999999999,
Frümsen,9467,47.2493512,9.4649106,
Canobbio,6952,46.0357426,8.9664719,
Sutz,2572,47.0898133,7.214277,
Grüningen,8627,47.2759848,8.762288999999999,
Hedingen,8908,47.2992865,8.4534407,
Glarus,8750,47.0279738,8.982672299999999,
Bettwil,5618,47.2904038,8.2724122,
Mitlödi,8756,47.0130513,9.078192999999999,
Horgen,8810,47.2483725,8.6079058,
Walenstadt,8880,47.124147,9.312686099999999,
Menzberg,6125,47.0423485,8.000362299999999,
Seewen,6423,47.0309883,8.626532599999999,
Vaz/Obervaz,7082,46.6956105,9.524194999999999,
Frümsen,9467,47.2493512,9.4649106,
Hinterfultigen,3089,46.8408157,7.405328,
Pfeffingen,4148,47.4566783,7.579612399999999,
Menznau,6122,47.0738989,8.0390977,
Arlesheim,4144,47.4953285,7.628910799999999,
Riken,4853,47.2731037,7.855814400000001,
Cully,1096,46.48975249999999,6.7283917,
Thayngen,8240,47.7447496,8.7107153,
Nennigkofen,4574,47.1890209,7.4995943,
Frauenfeld,8500,47.5624565,8.8883133,
Oberneunforn,8526,47.6091861,8.7643759,
Maur,8124,47.3344719,8.673678299999999,
Gruesch,7214,46.9692138,9.6412028,
Willisau,6130,47.1208406,7.998617100000001,
Aegerten,2558,47.1172684,7.283035300000001,
Einsiedeln,8840,47.1109258,8.735636399999999,
Kirchlindach,3038,46.99878020000001,7.414235100000001,
Basel,4057,47.574259,7.5930664,
Bichwil,9248,47.4210766,9.1352906,
Ettiswil,6218,47.1462565,8.0207316,
Cossonay-Ville,1304,46.818188,8.227511999999999,
Bannwil,4913,47.232873,7.725324599999999,
Gunzgen,4617,47.3111104,7.8393871,
Rafz,8197,47.6083878,8.546168999999999,
Vordemwald,4803,47.2706747,7.8910541,
Trub,3556,46.9720887,7.885568899999999,
Winistorf,4558,47.1604805,7.6343538,
Mellingen,5507,47.4210412,8.271213699999999,
Steinmaur,8162,47.4975846,8.4396233,
Yverdon Le Bains,1400,46.818188,8.227511999999999,
Thun,3608,46.7407213,7.595570500000001,
Uettligen,3043,46.99141729999999,7.377042599999999,
Basel,4055,47.5612569,7.565574300000001,
Schafhausen,3415,47.0027027,7.6511386,
Bitsch,3982,46.3392569,8.0115878,
Eggersriet,9034,47.43948169999999,9.463542499999999,
Hugelshofen,8565,47.5963223,9.118331,
St.Moritz,7500,46.818188,8.227511999999999,
Lenk im Simmental,3775,46.4092951,7.441034999999999,
Cham,6330,47.200425,8.4602565,
Hettlingen,8442,47.5464124,8.7112097,
Meikirch,3045,47.0113851,7.370467400000001,
Oberwil im Simmental,3765,46.6509856,7.446252400000001,
Ftan,7551,46.8451715,10.2202199,
Waltenschwil,5622,47.3329265,8.2969192,
Lenzburg,5600,47.3778731,8.1860746,
Gräslikon,8415,47.5651662,8.5943448,
Hinterkappelen,3032,46.9692427,7.380097900000001,
Raron,3942,46.3367598,7.804152599999998,
Wangen an der Aare,3380,47.2345991,7.663238499999999,
Hofstetten b. Brienz,3858,46.7546227,8.076198399999999,
Pfäffikon,8330,47.3722412,8.7921111,
Triengen,6234,47.2374115,8.0855523,
Hemberg,9633,47.3005308,9.1757408,
Ennetmoos,6372,46.9405596,8.329259200000001,
Scharnachtal,3722,46.6187782,7.712012799999998,
Neu St. Johann,9652,47.2400076,9.1880199,
Rüdtligen,3422,47.08242329999999,7.592681699999999,
Langenthal,4900,47.2140396,7.7857711,
Erstfeld,6472,46.8033393,8.5994797,
Sonvilier,2615,47.130022,6.960442599999999,
Uettligen,3043,46.99141729999999,7.377042599999999,
Lütisburg / Unterrindal,9604,47.39691269999999,9.1065939,
Ebnat-Kappel,9642,47.2522495,9.1275795,
Wolfenschiessen,6386,46.9015041,8.395495799999999,
Alten,8453,47.5985223,8.6443471,
Uettligen,3043,46.99141729999999,7.377042599999999,
Neukirch,9315,47.52385719999999,9.3705949,
Nidfurn,8772,46.9862732,9.045321399999999,
Morbio Inferiore,6834,45.850209,9.0238835,
Scherz,5246,47.4472086,8.1818971,
Zürich,8004,47.3807562,8.517289,
Villars-sur-Fontenais,2903,47.3830538,7.075870399999999,
Plan-les-Ouates,1228,46.1655214,6.116018,
Uetikon am See,8707,47.269647,8.6842566,
Fislisbach,5442,47.436874,8.2909952,
Ittigen,3063,46.9824346,7.4776246,
Rosshäusern,3204,46.9293689,7.278932999999999,
Steinmaur,8162,47.4975846,8.4396233,
Furna,7232,46.9333514,9.6596705,
Egg,8847,47.1617695,8.783147699999999,
Pailly,1416,32.5709437,-117.0924401,
Kesswil,8593,47.58552539999999,9.3133194,
Bottmingen,4103,47.52087239999999,7.57879,
Teufen,9053,47.3927275,9.401474499999999,
Siviriez,1678,46.818188,8.227511999999999,
Gasel,3144,46.899072,7.4087902,
Thayngen,8240,47.7447496,8.7107153,
Rapperswil,3255,47.0638504,7.4104389,
Trimbach,4632,47.3688467,7.894377,
Muhen,5037,47.3371722,8.0658539,
Nyon,1260,46.3805092,6.2298735,
Schocherswil,8581,47.5353988,9.2596241,
Müntschemier,3225,46.9964702,7.1438031,
Rüschegg Heubach,3154,46.7892444,7.412360199999999,
Trüllikon,8466,47.6389086,8.6997237,
Einsiedeln,8840,47.1109258,8.735636399999999,
St. Gallen,9010,47.44214849999999,9.3714336,
Oberdorf,4436,47.3916064,7.7416841,
Basel,4056,47.5705771,7.5740645,
Gsteig,3785,46.37278449999999,7.2585836,
Giswil,6074,46.828877,8.118184399999999,
Wettingen,5430,47.4650388,8.344792,
Wiesenberg,6383,46.917998,8.370464,
Münsingen,3110,46.8722757,7.5572966,
Glovelier,2855,47.3273761,7.1801473,
Rona,7454,46.55763150000001,9.6596835,
Ebikon,6030,47.08164499999999,8.3407354,
Tenna,7106,46.7416885,9.3210091,
Zell,6144,47.139762,7.938244600000001,
Schüpfheim,6170,46.9431775,8.019995999999999,
Kümmertshausen,8586,47.5456562,9.2161258,
Collombey,1868,46.818188,8.227511999999999,
Mühledorf,3116,46.8148227,7.542035999999999,
Willisau,6130,47.1208406,7.998617100000001,
Lützelflüh,3432,47.0055543,7.681473,
Staufen,5603,47.3821933,8.160136699999999,
St-Imier,2610,47.162034,6.9975882,
Yverdon,1400,46.818188,8.227511999999999,
Gruenenmatt,3452,47.0276039,7.717045100000001,
Unterwasser,9657,47.1931277,9.3108287,
Hildisrieden,6024,47.14866010000001,8.228173,
Kaltbrunn,8722,47.2161875,9.0242024,
Davos,7260,46.7757476,9.8997731,
Gunzwil,6222,47.1921984,8.1686856,
Lenzerheide,7078,46.7283044,9.5412767,
Törbel,3923,46.2433627,7.830723300000001,
Wuppenau,9514,47.4961569,9.1015365,
Höchstetten,3429,47.1430412,7.638568100000001,
Glashütten,4856,47.253813,7.850476299999999,
Rüti bei Büren,3295,47.1531739,7.4102938,
Zweisimmen,3770,46.5761908,7.4034662,
Lyssach,3421,47.0657849,7.585278299999999,
Neuchâtel,2002,46.818188,8.227511999999999,
Lenzerheide,7078,46.7283044,9.5412767,
Zetzwil,5732,47.288418,8.1633046,
Buttisholz,6018,47.114231,8.0923935,
Willadingen,3425,47.1427726,7.605866400000001,
Goldiwil,3624,46.7651516,7.6666345,
Beinwil,5637,47.2303776,8.3458451,
Le Mont,1052,46.818188,8.227511999999999,
St. Peter,7028,46.8509816,9.649968399999999,
Präz,7424,46.7453548,9.3950169,
Utzigen,3068,46.818188,8.227511999999999,
Ruswil,6017,47.08397739999999,8.1263259,
Bargen,8233,47.7936422,8.589948099999999,
Blumenstein,3638,46.7243621,7.5122297,
Hinwil,8340,47.2993227,8.8427233,
Gsteig,3785,46.37278449999999,7.2585836,
Bonaduz,7402,46.7967526,9.3634378,
Nassen,9123,47.3834435,9.151499,
Saignelégier,2350,47.2489725,7.0190267,
Montfaucon,2875,47.2855129,7.0633997,
Faoug,1595,46.9006664,7.0760673,
Menzingen,6313,47.1758438,8.5919634,
Langnau,3550,46.9349318,7.7864583,
Ammerzwil,3257,47.0705883,7.362277299999999,
Belp,3123,46.895252,7.5046295,
Otelfingen,8112,47.4615504,8.3923945,
Bichwil,9248,47.4210766,9.1352906,
Ueberstorf,3182,46.8681291,7.321717899999999,
Marbach,9437,47.3851158,9.581794300000002,
Steffisburg,3613,46.7734044,7.6160391,
Gonten,9108,47.3135227,9.3443465,
Degen,7145,46.707833,9.167802499999999,
Cressier,1785,46.818188,8.227511999999999,
Cressier,1785,46.818188,8.227511999999999,
Flühli,6173,46.8840955,8.0270584,
Aigle,1860,46.818188,8.227511999999999,
Jonschwil,9243,47.42772,9.0918706,
Rubigen,3113,46.90255519999999,7.5418266,
Weinfelden,8570,47.569994,9.1067558,
Wila,8492,47.4070894,8.851922000000002,
Villarlod,1695,46.818188,8.227511999999999,
Niederbüren,9246,47.4619009,9.220146699999999,
Ehrendingen,5420,47.4949173,8.341430299999999,
Lützelflüh-Goldbach,3432,47.0055543,7.681473,
Klosters,7250,46.8390202,9.9588438,
Azmoos,9478,47.0909084,9.418216,
Interlaken,3800,46.6871831,7.848015299999999,
Aesch,6287,47.2583926,8.2389682,
Au,9434,47.4295975,9.6404297,
Dürrenroth,3465,47.0813037,7.791030399999999,
Donzhausen,8583,47.5386004,9.189432,
Heitenried,1714,46.8305302,7.300363,
Chiasso,6830,45.8357536,9.0251586,
Euthal,8844,47.09837539999999,8.8348247,
Wilchingen,8217,47.6648801,8.4528505,
Altendorf,8852,47.1769241,8.8350098,
Ebnat-Kappel,9642,47.2522495,9.1275795,
Saillon,1913,46.818188,8.227511999999999,
Niederönz,3362,47.1888575,7.686580999999999,
Gümmenen,3205,46.9411674,7.2468286,
Finsterwald,6162,46.9748961,8.124259499999999,
Schlossrued,5044,47.2855978,8.099298,
Kriessern,9451,47.3660196,9.6032566,
Brugg,5200,47.4824134,8.2072208,
Ennetbürgen,6373,46.9884748,8.4092693,
Münchenstein,4142,47.51813110000001,7.620042300000001,
Wald,8636,47.2832038,8.9231923,
Hergiswil b. Willisau,6133,47.0648206,7.959008,
Häggenschwil,9312,47.48944789999999,9.337500100000002,
Aeschlen,3656,46.72938800000001,7.6921847,
Mönchaltorf,8617,47.308497,8.7235821,
Tentlingen,1734,46.766384,7.1995146,
Arlesheim,4144,47.4953285,7.628910799999999,
Allschwil,4123,47.5411636,7.533236499999999,
Gossau,9201,46.818188,8.227511999999999,
Frauenfeld,8500,47.5624565,8.8883133,
Reichenbach,3713,46.6211024,7.6775531,
Rüttenen,4522,47.24536819999999,7.5382485,
Steinach,9323,47.4985985,9.436729099999999,
Euthal,8844,47.09837539999999,8.8348247,
Le Cerneux-Veusil,2345,47.2123237,7.003925600000001,
Ganterschwil,9608,47.37766149999999,9.100402899999999,
Tenna,7106,46.7416885,9.3210091,
Döttingen,5312,47.5581466,8.253506699999999,
Delémont,2800,47.3668919,7.3324722,
Eichberg,9453,47.3459394,9.518951999999999,
Oschwand,3476,47.13494739999999,7.722492,
Murten,3280,46.92848,7.1384139,
Hellsau,3429,47.1430412,7.638568100000001,
Altstätten,9450,47.3700789,9.5549856,
Grandvaux,1091,46.5069328,6.723880299999999,
Bottenwil,4814,47.2852171,8.0000429,
Plan-les-Ouates,1228,46.1655214,6.116018,
Plan-les-Ouates,1228,46.1655214,6.116018,
Luzern,6014,47.0588407,8.2500796,
Bern,3018,46.9400266,7.390333200000001,
Samnaun-Compatsch,7562,46.97131100000001,10.3965963,
Genf,1203,46.818188,8.227511999999999,
Thunstetten,4922,47.2023671,7.740851399999999,
Gais,9056,47.3675181,9.4673559,
Hessigkofen,4577,47.1390244,7.458312200000001,
Oberthal,3531,46.922051,7.688424299999999,
Neuenegg,3176,46.9087039,7.297048099999999,
Zizers,7205,46.9335139,9.5708253,
Thierrens,1410,46.818188,8.227511999999999,
Madiswil,4934,47.1582636,7.812176999999999,
Oberwil bei Zug,6317,47.1401305,8.5116703,
Niederurnen,8867,47.1262043,9.0537406,
Engelburg,9032,47.444623,9.3412872,
Herznach,5027,47.4742592,8.0506391,
Appenzell,9050,47.32678900000001,9.4228294,
Rheinklingen,8259,47.656076,8.831321599999999,
Oberbütschel,3088,46.8304487,7.452386,
Rüeggisberg,3088,46.8304487,7.452386,
Biezwil,4585,47.1157248,7.4211917,
Les Brenets,2416,47.0710985,6.7187969,
Bergdietikon,8962,47.3860478,8.3791652,
Donat,7433,46.6243833,9.3852359,
Thörishaus,3174,46.8954172,7.3521695,
Säriswil,3049,46.991434,7.3388638,
Ernetschwil,8725,47.2451799,8.9998043,
Basel,4057,47.574259,7.5930664,
Avers-Puent,7447,46.4574928,9.5229094,
Engishofen,8586,47.5456562,9.2161258,
Lützelflüh,3432,47.0055543,7.681473,
Zimmerwald,3086,46.8835199,7.460444999999999,
Knutwil,6213,47.19889329999999,8.0745829,
Schänis,8718,47.1582369,9.072896499999999,
Willadingen,3425,47.1427726,7.605866400000001,
Altikon,8479,47.5804992,8.783165499999999,
Schlatt,8252,47.6662411,8.6988943,
Unterägeri,6314,47.1226008,8.5818864,
Nebikon,6244,47.1932598,7.9801423,
Sternenberg,8499,47.3927963,8.908723,
Kreuzlingen,8280,47.6400624,9.1603602,
Bözberg,5224,46.818188,8.227511999999999,
Mühlrüti,9613,47.3679063,8.974447999999999,
Steffisburg,3612,46.7792265,7.6381387,
Guntalingen,8468,47.6316606,8.7621018,
Hellbühl,6016,47.0726649,8.194188,
Schleitheim,8226,47.7513569,8.4909999,
Alpnachstad,6053,46.96917819999999,8.2718593,
Schuders,7228,47.0034293,9.7574876,
Altbüron,6147,47.1919482,7.893083400000001,
Furna,7232,46.9333514,9.6596705,
Les Vieux-Prés,2054,46.818188,8.227511999999999,
Bern,3027,46.9522511,7.378622,
Braunau,9502,47.4990318,9.065437,
Abtwil,5646,47.1763608,8.353566899999999,
Bottenwil,4814,47.2852171,8.0000429,
Aesch,6287,47.2583926,8.2389682,
Oberdiessbach,3672,46.8373954,7.6420254,
Aeschi,4556,47.1781859,7.6628849,
Opfershofen,8584,47.5615339,9.1813979,
Ardez,7546,46.7751134,10.2036595,
La Chaux-de-Fonds,2300,47.11767829999999,6.8405667,
Crissier,1023,46.818188,8.227511999999999,
Münchenstein,4142,47.51813110000001,7.620042300000001,
Kueblis,7240,46.9178837,9.7833466,
Dänikon,8114,47.4431086,8.4082107,
Winterthur,8400,47.485687,8.7292922,
Innerberg,3044,46.9980911,7.311224299999999,
Lourtier,1948,46.818188,8.227511999999999,
Müntschemier,3225,46.9964702,7.1438031,
Freidorf,9306,47.4854814,9.3858009,
Deitingen,4543,47.2198713,7.6265451,
Schüpfheim bei Windlach,8175,47.5450692,8.4659907,
Gurzelen,3663,46.7757953,7.5434028,
Chalais,3966,46.2625791,7.5092826,
Trey,1552,46.818188,8.227511999999999,
Wölflinswil,5063,47.460628,7.9923183,
Veltheim,5106,47.42956849999999,8.1526128,
Vuissens,1486,46.818188,8.227511999999999,
Steffisburg,3612,46.7792265,7.6381387,
Kloten,8302,47.45265089999999,8.5785757,
Schangnau,6197,46.8276597,7.8607874,
Schangnau,6197,46.8276597,7.8607874,
Brig,3900,46.3060531,7.9539715,
Eichberg,9453,47.3459394,9.518951999999999,
Thierachern,3634,46.7543877,7.5728572,
Appenzell,9050,47.32678900000001,9.4228294,
Fontenais,2902,47.4001963,7.0771849,
Siselen,2577,47.0327785,7.1880903,
Küblis,7240,46.9178837,9.7833466,
Kernenried,3309,47.06886189999999,7.538801599999999,
Winterthur,8408,47.5086606,8.6873516,
Hinterforst,9452,47.3550386,9.528211299999999,
Gunzwil,6222,47.1921984,8.1686856,
Selzach,2545,47.2121208,7.446418599999999,
Hombrechtikon,8634,47.25584,8.7682378,
Hergiswil b. Willisau,6133,47.0648206,7.959008,
Seedorf,3267,47.0239748,7.3266996,
Plan-les-Ouates,1228,46.1655214,6.116018,
Le Lignon,1219,46.818188,8.227511999999999,
Gelfingen,6284,47.2156126,8.286759199999999,
Rothenburg,6023,47.1024566,8.2567703,
Lechelles,1773,46.818188,8.227511999999999,
Zimmerwald,3086,46.8835199,7.460444999999999,
Sulz,5085,47.532246,8.0972936,
Gohl (BE),3553,46.9812891,7.8228805,
Wattenwil,3665,46.7641056,7.499330700000001,
Kreuzlingen,8280,47.6400624,9.1603602,
Gutenburg,4932,47.1887526,7.7967202,
Grasswil,3365,47.1485054,7.666756,
Gerlafingen,4563,47.171782,7.5750654,
Gümmenen,3205,46.9411674,7.2468286,
Zürich,8055,47.3627973,8.4936631,
Münsingen,3110,46.8722757,7.5572966,
Wölflinswil,5063,47.460628,7.9923183,
Murzelen,3034,46.9759147,7.314321100000001,
Burgdorf,3400,46.818188,8.227511999999999,
Wil,9500,47.4604542,9.0530887,
Spiegel b.Bern,3095,46.92543149999999,7.434743099999999,
Sarnen,6060,46.9038736,8.2289979,
Gonten,9108,47.3135227,9.3443465,
Oberdiessbach,3672,46.8373954,7.6420254,
Cudrefin,1588,46.9548174,7.028313,
Gams,9473,47.2077199,9.432517599999999,
Waldkirch,9205,47.4613393,9.2879882,
Mellikon,5465,47.561336,8.345768699999999,
Naters,3904,46.3386976,7.9851752,
Provence,1428,32.5706201,-117.0920723,
Sigigen,6019,47.0568262,8.141764499999999,
Luzein,7242,46.9220575,9.7632718,
Röthenbach,3373,47.21516769999999,7.696684500000001,
Muttenz,4132,47.5236348,7.6485345,
Spiez,3700,46.6901725,7.6610777,
Schmidrüti,8495,47.4229427,8.9128229,
Ilanz,7130,46.7712522,9.197411599999999,
Kilchberg,8802,47.3198115,8.5414899,
Tenna,7106,46.7416885,9.3210091,
Ayent,1966,46.818188,8.227511999999999,
Eschenbach,6274,47.1226199,8.316711699999999,
Vattiz,7146,46.7106708,9.132503999999999,
Läufelfingen,4448,47.391428,7.8526024,
Wittnau,5064,47.4824671,7.9622572,
Wollerau,8832,47.1934879,8.7155642,
Mörschwil,9402,47.4697047,9.4270931,
Etoy,1163,46.4856009,6.4228406,
Waldkirch,9205,47.4613393,9.2879882,
Elsau,8352,47.49947969999999,8.8071463,
Freidorf,9306,47.4854814,9.3858009,
Gland,1196,46.818188,8.227511999999999,
Recherswil,4565,47.1602107,7.6016374,
Unterstammheim,8476,47.6491791,8.7921751,
Arnegg,9212,47.4418731,9.2537805,
Niederbüren,9246,47.4619009,9.220146699999999,
Mühlrüti,9613,47.3679063,8.974447999999999,
Davos Clavadel,7272,46.7209578,9.856140199999999,
Küttigen,5024,47.4274549,8.0432782,
Thalheim,5112,47.4434508,8.0961387,
Seewis Dorf,7212,47.0136232,9.637891699999999,
Sissach,4450,47.4736973,7.8031928,
Kappel am Albis,8926,47.2235656,8.512538,
Oberhof,5062,47.43962,8.010523000000001,
Dornach,4143,47.4759407,7.6236993,
St. Gallen,9014,47.4082855,9.332389,
Oberdiessbach,3672,46.8373954,7.6420254,
Heitenried,1714,46.8305302,7.300363,
Trübbach,9477,47.07754080000001,9.4904919,
Leuk-Stadt,3953,46.3352558,7.612349,
Horw,6048,47.0249599,8.3121008,
Gränichen,5722,47.3487239,8.111316000000002,
Goldau,6410,47.0415487,8.5513689,
Eschenbach,6274,47.1226199,8.316711699999999,
Saint-Livres,1176,46.818188,8.227511999999999,
Illighausen,8574,47.6168339,9.202468699999999,
Buttenried,3203,46.9596448,7.263253799999999,
Zweisimmen,3770,46.5761908,7.4034662,
Grosswangen,6022,47.1367735,8.0509437,
Aesch LU,6287,47.2583926,8.2389682,
Heiden,9410,47.441412,9.5293867,
Meyrin,1217,46.2349075,6.074979099999999,
Grub,9036,47.4552059,9.5122833,
Sargans,7320,47.0540051,9.4488629,
Enggistein,3077,46.9304589,7.5992916,
Menzberg,6125,47.0423485,8.000362299999999,
Birwinken,8585,47.5849202,9.2293009,
Berg,9305,47.4883057,9.4115634,
Staad,9422,47.4772439,9.5445799,
Murzelen,3034,46.9759147,7.314321100000001,
Rüti,8630,47.258089,8.8664545,
Schwanden,3433,46.9803822,7.6924017,
Krattigen,3704,46.6561235,7.7338674,
Schönengrund,9105,47.3276201,9.2318877,
Möriken,5103,47.4162233,8.1827578,
Reckingen,3998,46.4592672,8.2598737,
Les Mosses,1862,46.818188,8.227511999999999,
Grandson,1422,46.818188,8.227511999999999,
Uettligen,3043,46.99141729999999,7.377042599999999,
Chur,7000,46.84823,9.5084689,
Volketswil,8604,47.391014,8.675747699999999,
Schöftland,5040,47.30601919999999,8.053993499999999,
Bettlach,2544,47.2039878,7.4206019,
Sirnach,8370,47.4642575,9.005042399999999,
Marthalen,8460,47.621445,8.6359969,
Hundwil,9064,47.3399971,9.3222332,
Dussnang,8374,47.4285271,8.9568145,
Meilen,8706,47.28415680000001,8.6552506,
Kriessern,9451,47.3660196,9.6032566,
Mühlrüti,9613,47.3679063,8.974447999999999,
Röthenbach i. E.,3538,46.8598762,7.742323799999999,
Dielsdorf,8157,47.4764856,8.4577034,
Thörigen,3367,47.1630398,7.742035699999999,
Erstfeld,6472,46.8033393,8.5994797,
Giubiasco,6512,46.1735877,9.0027063,
Calfreisen,7027,46.8444975,9.6110587,
Recherswil,4565,47.1602107,7.6016374,
Lützelflüh-Goldbach,3432,47.0055543,7.681473,
Hoffeld,9114,47.3516903,9.1781557,
Flumserberg Bergheim,8896,47.097108,9.3129846,
Engelberg,6390,46.80517,8.444592199999999,
Opfershofen,8584,47.5615339,9.1813979,
Bischofszell,9220,47.4963339,9.2530361,
Gossau,9200,47.4151524,9.248133600000001,
St. Gallen,9016,47.4408258,9.417473,
St. Gallen,9016,47.4408258,9.417473,
Dussnang,8374,47.4285271,8.9568145,
Buch bei Frauenfeld,8524,47.5864622,8.8342485,
Stierva,7459,46.6661893,9.5264546,
Malters,6102,47.03428479999999,8.1831137,
Hölstein,4434,47.4260906,7.778102100000001,
Menznau,6122,47.0738989,8.0390977,
Ittigen,3063,46.9824346,7.4776246,
Neuenegg,3176,46.9087039,7.297048099999999,
Münsingen,3110,46.8722757,7.5572966,
Bern,3008,46.942621,7.414277599999998,
Kriens,6010,47.0223002,8.2813683,
Châtelaine,1219,46.818188,8.227511999999999,
Lyssach,3421,47.0657849,7.585278299999999,
Bonstetten,8906,47.3176744,8.4710539,
Lutzenberg,9426,47.4586875,9.5740813,
Cudrefin,1588,46.9548174,7.028313,
Buchen,7223,46.9351528,9.724760999999999,
Homburg,8508,47.6322613,9.0091503,
Engwang,8556,47.6003865,9.0360949,
Pfäffikon,8330,47.3722412,8.7921111,
Turtmann,3946,46.2981741,7.697909999999999,
Yverdon les Bains,1400,46.818188,8.227511999999999,
Corbeyrier,1856,46.818188,8.227511999999999,
Lignières,2523,47.0902682,7.050162900000001,
Ortschwaben,3042,46.9936184,7.399657700000001,
Au-Wädenswil,8804,47.2430517,8.6457423,
Lupsingen,4419,47.4439729,7.695993099999999,
Wynigen,3472,47.09881540000001,7.6770722,
Jonschwil,9243,47.42772,9.0918706,
Horw,6048,47.0249599,8.3121008,
Brugg,5200,47.4824134,8.2072208,
Erschwil,4228,47.3725382,7.5482251,
Reichenbach im Kandertal,3713,46.6211024,7.6775531,
Rosshäusern,3204,46.9293689,7.278932999999999,
Aigle,1860,46.818188,8.227511999999999,
Stäfa,8712,47.248963,8.729599499999999,
Flühli,6173,46.8840955,8.0270584,
Waltensburg,7158,46.8102009,9.0768934,
Niedergesteln,3942,46.3367598,7.804152599999998,
Uettligen,3043,46.99141729999999,7.377042599999999,
Mümliswil,4717,47.3571309,7.705361799999999,
Graltshausen,8572,47.579162,9.177825499999999,
Berneck,9442,47.4246872,9.6107587,
Gümmenen,3205,46.818188,8.227511999999999,
Lyssach,3421,47.0657849,7.585278299999999,
Donat,7433,46.6243833,9.3852359,
Winterthur,8406,47.4875152,8.705355899999999,
Lohn-Ammannsegg,4573,47.1700441,7.5271691,
Urnäsch,9107,47.3001966,9.2660226,
Chevroux,1545,46.818188,8.227511999999999,
Härkingen,4624,47.3026642,7.819096600000001,
Walliswil,3377,47.2282053,7.685328999999999,
Ebnat-Kappel,9642,47.2522495,9.1275795,
Gysenstein,3503,46.89172629999999,7.5948248,
La Comballaz,1862,46.818188,8.227511999999999,
Binningen,4102,47.5379528,7.570991899999999,
Altstätten,9450,47.3700789,9.5549856,
Teufen,9053,47.3927275,9.401474499999999,
Küttigen,5024,47.4274549,8.0432782,
Oberegg,9413,47.4174975,9.5492752,
Ennetbürgen,6373,46.9884748,8.4092693,
Schenkon,6214,47.1850966,8.130626,
Oberegg,9413,47.4174975,9.5492752,
Niederbuchsiten,4626,47.2883757,7.776294799999999,
Zollikon,8702,47.3412216,8.5844266,
Pfaffnau,6264,47.2304846,7.903808,
Lausanne,1010,46.818188,8.227511999999999,
Malters,6102,47.03428479999999,8.1831137,
Gross,8841,47.1038613,8.7637544,
Oberbüren,9245,47.4518136,9.161289199999999,
Birri,5628,47.2861314,8.364799,
Neftenbach,8413,47.5307206,8.6573543,
Sent,7554,46.8131893,10.357203,
Meikirch,3045,47.0113851,7.370467400000001,
Schüpfheim,6170,46.9431775,8.019995999999999,
Wislikofen,5463,47.5547483,8.3682055,
Mauensee,6216,47.1669948,8.0744959,
Renens,1020,46.53643779999999,6.5909099,
Bürglen,6463,46.8752672,8.6629247,
Arlesheim,4144,47.4953285,7.628910799999999,
Egg b. Einsiedeln,8847,47.1617695,8.783147699999999,
Grône,3979,46.2429599,7.478195299999999,
Jenins,7307,47.0112621,9.5787176,
Ostermundigen,3072,46.9543249,7.4967031,
Zweisimmen,3770,46.5761908,7.4034662,
Wölflinswil,5063,47.460628,7.9923183,
Gorduno,6518,46.2245608,8.9981203,
Urnäsch,9107,47.3001966,9.2660226,
Inkwil,3375,47.2048856,7.667119400000001,
Disentis,7180,46.7264799,8.8396253,
Kappel,4616,47.3221701,7.8574229,
Les Vieux-Prés,2054,47.078038,6.9302062,
Obfelden,8912,47.2625202,8.4182852,
Stansstad,6362,46.9762413,8.3427323,
Näfels,8752,47.0853812,9.0008873,
Malix,7074,46.8134705,9.515097899999999,
Full-Reuenthal,5324,47.6038445,8.2028956,
Aigle,1860,46.818188,8.227511999999999,
Hugelshofen,8565,47.5963223,9.118331,
Lüchingen,9450,47.3700789,9.5549856,
Wald,8636,47.2832038,8.9231923,
Wettingen,5430,47.4650388,8.344792,
Glattfelden,8192,47.5626514,8.4956909,
Guntalingen,8468,47.6316606,8.7621018,
Tenna,7106,46.7416885,9.3210091,
Grindelwald,3818,46.6000582,8.0530537,
Rickenbach,6221,47.2227566,8.1534441,
Bellach,4512,47.2112945,7.496582499999999,
Matzingen,9548,47.5297165,8.9272765,
Hägendorf,4614,47.3439097,7.827473599999999,
Rebstein,9445,47.3942155,9.5910894,
Oberriet,9463,47.320266,9.567072999999999,
Staufen,5603,47.3821933,8.160136699999999,
Ossingen,8475,47.6150567,8.7200582,
Goldiwil,3624,46.7651516,7.6666345,
Schmitten,3185,46.85504479999999,7.248840500000001,
Les Charbonnières,1343,32.5717705,-117.0915207,
Realp,6491,46.5698572,8.4696935,
Scuol,7550,46.7291199,10.3141052,
Horgenberg,8815,47.2479787,8.5804862,
Erlinsbach,5018,47.420277,8.005061099999999,
Krauchthal,3326,47.008117,7.569896300000001,
Untervaz,7204,46.9263513,9.5102575,
Bonau,8554,47.5832323,9.0337081,
Uetendorf,3661,46.7735068,7.577952199999999,
Trun,7166,46.7396941,8.982044,
Wünnewil,3184,46.87106929999999,7.275707499999999,
Längenbühl,3636,46.7600121,7.524581699999999,
Unterhörstetten,8508,47.6322613,9.0091503,
Maseltrangen,8723,47.182677,9.074615699999999,
Kleinandelfingen,8451,47.6081205,8.6810521,
Luzein,7242,46.9220575,9.7632718,
Dietfurt,9615,47.337967,9.072300199999999,
Klosters,7250,46.8390202,9.9588438,
Huttwil,4950,47.1061468,7.857353000000001,
Reichenbach,3713,46.6211024,7.6775531,
Berg,8572,47.579162,9.177825499999999,
Gland,1196,46.818188,8.227511999999999,
Oberkulm,5727,47.2935638,8.1256447,
Rivera,6802,46.1256931,8.907761299999999,
Rivera,6802,46.1256931,8.907761299999999,
Rifferswil,8911,47.2467522,8.498305799999999,
Schüpfheim,6170,46.9431775,8.019995999999999,
Müllheim,8555,47.6032456,8.9999158,
Brünisried,1719,46.7561515,7.2842054,
Wyssachen,4954,47.0692994,7.823384099999999,
Attiswil,4536,47.2503721,7.610934299999999,
Le Mont-sur-Lausanne,1052,46.818188,8.227511999999999,
Muttenz,4132,47.5236348,7.6485345,
Grasswil,3365,47.1485054,7.666756,
Embrach,8424,47.51062049999999,8.5961496,
Sax,9468,47.2311775,9.4465031,
Amden,8873,47.1697672,9.174439699999999,
Grabs,9472,47.1713913,9.3958216,
Kriessern,9451,47.3660196,9.6032566,
Waldkirch,9205,47.4613393,9.2879882,
Wolfwil,4628,47.2700883,7.792196300000001,
Bioggio,6934,46.0125238,8.910569899999999,
Weinfelden,8570,47.569994,9.1067558,
Wettingen,5430,47.4650388,8.344792,
Wettingen,5430,47.4650388,8.344792,
Homburg,8508,47.6322613,9.0091503,
Gossau,9200,47.4151524,9.248133600000001,
Grabs,9472,47.1713913,9.3958216,
Oberriet,9463,47.320266,9.567072999999999,
Flums,8890,47.0925191,9.3390396,
Auw,5644,47.2170135,8.368566699999999,
Wohlen bei Bern,3033,46.9736918,7.348957200000001,
Küssnacht am Rigi,6403,47.0738515,8.4466485,
Neuenkirch,6206,47.1014681,8.202509599999999,
Wilen,6062,46.873845,8.2054127,
Zuzwil,9524,47.4759087,9.1073638,
Dussnang,8374,47.4285271,8.9568145,
Oberstammheim,8477,47.6288852,8.7981926,
Köniz,3098,46.91087400000001,7.4148002,
Basel,4057,47.574259,7.5930664,
Villarlod,1695,46.818188,8.227511999999999,
Ruswil,6017,47.08397739999999,8.1263259,
Hinterrhein,7438,46.5242087,9.1836626,
Mosen,6295,47.2395576,8.2274767,
Fischbach-Göslikon,5525,47.3709809,8.3081426,
Unterägeri,6314,47.1226008,8.5818864,
Vicques,2824,47.35118000000001,7.423473099999999,
Egnach,9322,47.5458023,9.374761999999999,
Wettswil,8907,47.3351994,8.467191,
Tenero,6598,46.17596229999999,8.8496653,
Mühlethurnen,3127,46.8145192,7.509710999999999,
Kägiswil,6056,46.9191374,8.2543049,
Brigels,7165,46.7896862,9.0280612,
Brislach,4225,47.42171200000001,7.5493641,
Oeschenbach,4943,47.1111228,7.7486852,
Hinwil,8340,47.2993227,8.8427233,
Beromünster,6215,47.219381,8.200569999999999,
Mühlrüti,9613,47.3679063,8.974447999999999,
Dreien,9612,47.3528081,9.0095269,
Kirchberg,9533,47.4175617,9.033230999999999,
Eschlikon,8360,47.4600973,8.9637335,
Meyrin,1217,46.2349075,6.074979099999999,
Häfelfingen,4445,47.4125796,7.8674743,
Henggart,8444,47.5610128,8.6819537,
Beatenberg,3803,46.7189711,7.8097435,
Esslingen,8133,47.2918838,8.7154242,
Orbe,1350,46.818188,8.227511999999999,
Hefenhofen,8580,47.5500718,9.292343299999999,
Genolier,1272,46.818188,8.227511999999999,
Wattwil,9630,47.2901615,9.0845857,
Bischofszell,9220,47.4963339,9.2530361,
Holziken,5043,47.3173282,8.0331485,
Dierikon,6036,47.0964991,8.372155,
Kaufdorf,3126,46.8436201,7.5115367,
Wichtrach,3114,46.84201270000001,7.5727407,
Grüsch,7214,46.9692138,9.6412028,
S-chanf,7525,46.5866833,10.0537755,
Schiers,7220,46.9725548,9.6884213,
Sent,7554,46.8131893,10.357203,
Laufenburg,5080,47.5571986,8.0589588,
Buochs,6374,46.9684622,8.415329,
Chandolin-près-Saviese,1965,46.818188,8.227511999999999,
Ebnat-Kappel,9642,47.2522495,9.1275795,
Kaisten,5082,47.53560179999999,8.0497939,
Untersiggenthal,5417,47.510648,8.2609423,
Balgach,9436,47.4054637,9.6042275,
Renan,2616,47.109051,6.9027075,
Dürnten,8635,47.2800886,8.836721599999999,
Wil,9500,47.4604542,9.0530887,
Gunten,3654,46.72113,7.6884839,
Benken,8717,47.1892867,8.991218,
Bertschikon,8543,47.526602,8.8401683,
Moudon,1510,46.818188,8.227511999999999,
Niederglatt,8172,47.4931606,8.4992699,
Oberegg,9413,47.4174975,9.5492752,
Cumpadials,7176,46.71578479999999,8.9143499,
Genève,1205,46.1902742,6.146484099999999,
Fahrni,3617,46.7975777,7.6548203,
Melchnau,4917,47.1751116,7.8525961,
Rünenberg,4497,47.4315217,7.878744699999999,
Muhen,5037,47.3371722,8.0658539,
Schöftland,5040,47.30601919999999,8.053993499999999,
Eriswil,4952,47.0668953,7.858390600000001,
Schiers,7220,46.9725548,9.6884213,
Helsighausen,8558,47.63907,9.048458799999999,
Alterswilen,8573,47.61008899999999,9.1630577,
Besenbüren,5627,47.3145799,8.3459672,
Baldingen,5333,47.5564638,8.3108317,
Thierachern,3634,46.7543877,7.5728572,
Thierachern,3634,46.7543877,7.5728572,
Teufen,9053,47.3927275,9.401474499999999,
Ascharina,7245,46.9443659,9.817126799999999,
Praden,7063,46.8179928,9.577639099999999,
Meggen,6045,47.0502862,8.3675336,
Löhningen,8224,47.7071391,8.5514417,
Tuggen,8856,47.20307570000001,8.941439899999999,
Rotkreuz,6343,47.1427744,8.4430747,
Visp,3930,46.2874952,7.8893635,
Wiler,3428,47.1532831,7.558277500000001,
Riniken,5223,47.4937943,8.1862591,
Zweisimmen,3770,46.5761908,7.4034662,
Valchava,7535,46.5996682,10.3963014,
Kirchberg,9533,47.4175617,9.033230999999999,
Bavois,1372,32.5717256,-117.0921987,
Weinfelden,8570,47.569994,9.1067558,
Bernhardzell,9304,47.4670306,9.3393955,
Oberwil b. Bueren,3298,47.1357446,7.414608199999999,
Vordemwald,4803,47.2706747,7.8910541,
Saanen,3792,46.4560734,7.2394805,
Glovelier,2855,47.3273761,7.1801473,
Bischofszell,9220,47.4963339,9.2530361,
Dallenwil,6383,46.917998,8.370464,
Lömmenschwil,9308,47.4949419,9.361019899999999,
Echandens,1026,46.5371222,6.5369124,
La Chaux-de-Fonds,2300,47.11767829999999,6.8405667,
Ramsen,8262,47.7073214,8.8102584,
Subingen,4553,47.1979814,7.623639,
Wisen,4634,47.3960399,7.892931699999999,
Baar,6340,47.2003879,8.526752799999999,
Neuendorf,4623,47.2964278,7.802422200000001,
Bärau,3552,46.9325494,7.821303699999999,
Le Lignon,1219,46.818188,8.227511999999999,
Aetigkofen,4583,47.1319591,7.4727155,
Hellsau,3429,47.1430412,7.638568100000001,
Oberriet,9463,47.320266,9.567072999999999,
Trasadingen,8219,47.6692974,8.4266051,
Kriessern,9451,47.3660196,9.6032566,
Rorschacherberg,9404,47.4636842,9.4995988,
Heldswil,9216,47.5163837,9.2193455,
Benken,8463,47.6592908,8.6598474,
Genève,1202,46.818188,8.227511999999999,
Frauenfeld,8501,46.818188,8.227511999999999,
Avry-devant-Pont,1644,46.818188,8.227511999999999,
Märstetten,8560,47.5878496,9.069190299999999,
Neuenkirch,6206,47.1014681,8.202509599999999,
Stehrenberg,9503,47.524371,9.0889954,
Luzern,6003,47.0484552,8.2920023,
Schwarzenbach,6215,47.219381,8.200569999999999,
Zürich,8055,47.3627973,8.4936631,
Pusserein,7228,47.0034293,9.7574876,
Seeberg,3365,47.1485054,7.666756,
Anwil,4469,47.4542491,7.942283100000001,
Pieterlen,2542,47.1714011,7.317576,
Madiswil,4934,47.1582636,7.812176999999999,
Thörigen,3367,47.1630398,7.742035699999999,
Schüpfen,3054,47.030614,7.375456199999999,
Küssnacht am Rigi,6403,47.0738515,8.4466485,
Herisau,9100,47.3823758,9.286793,
Dettighofen (Lengwil),8574,47.6168339,9.202468699999999,
Frutigen,3714,46.5992099,7.6424435,
Hellbühl,6016,47.0726649,8.194188,
Ellighausen,8566,47.6129949,9.1268051,
Wiliberg,5058,47.2679996,8.017692,
Corgémont,2606,47.18240549999999,7.1436021,
Rüti,8630,47.258089,8.8664545,
Krummenau,9643,47.2601658,9.1822847,
Unterseen,3800,46.6871831,7.848015299999999,
Amden,8873,47.1697672,9.174439699999999,
Appenzell,9050,47.32678900000001,9.4228294,
Surcuolm,7138,46.7550921,9.1558896,
Mosnang,9607,47.3631793,9.0343127,
Wölflinswil,5063,47.460628,7.9923183,
Graben,3376,47.22141269999999,7.7132694,
Chavannes-Sous-Orsonnens,1694,46.7034132,7.0011483,
Säriswil,3049,46.991434,7.3388638,
Kirchlindach,3038,46.99878020000001,7.414235100000001,
Langnau,3550,46.9349318,7.7864583,
Ufhusen,6153,47.1037285,7.892416300000001,
Gasel,3144,46.899072,7.4087902,
Schaffhausen,8200,47.7114176,8.626544899999999,
Dottikon,5605,47.3762402,8.2430298,
Ettingen,4107,47.4709326,7.5505014,
Erstfeld,6472,46.8033393,8.5994797,
Gähwil,9534,47.3974541,9.0015436,
Waldkirch,9205,47.4613393,9.2879882,
Jona,8645,47.2301899,8.8455398,
Sempach,6204,47.14074189999999,8.201868,
Zofingen,4800,47.28588860000001,7.955228599999999,
Burgdorf,3401,46.818188,8.227511999999999,
Thierachern,3634,46.7543877,7.5728572,
Schaffhausen,8200,47.7114176,8.626544899999999,
Thayngen,8240,47.7447496,8.7107153,
Oberwil b. Büren,3298,47.1357446,7.414608199999999,
Grossaffoltern,3257,47.0705883,7.362277299999999,
Hellsau,3429,47.1430412,7.638568100000001,
Remigen,5236,47.5157263,8.1891195,
Dietlikon,8305,47.4227353,8.615258899999999,
Commugny,1291,46.818188,8.227511999999999,
Bösingen,3178,46.88358059999999,7.232165500000001,
Küsnacht,8700,47.3184279,8.5927209,
Altstätten,9450,47.3700789,9.5549856,
Selzach,2545,47.2121208,7.446418599999999,
Hellbühl,6016,47.0726649,8.194188,
Lengnau,5426,47.5256823,8.3261442,
Hirschthal,5042,47.3148342,8.068528299999999,
Winterthur,8400,47.485687,8.7292922,
Wattwil,9630,47.2901615,9.0845857,
Château d'Oex,1660,46.818188,8.227511999999999,
Mittelhäusern,3147,46.8747542,7.3702421,
L'Orient,1341,46.818188,8.227511999999999,
Bigenthal,3513,46.9746787,7.6317862,
Heiligkreuz,8888,47.0696525,9.408082799999999,
Heiligkreuz,8888,47.0696525,9.408082799999999,
Holderbank,4718,47.3301917,7.739896099999999,
Rorbas,8427,47.5361434,8.5855418,
Rorbas,8427,47.5361434,8.5855418,
Frauenfeld,8500,47.5624565,8.8883133,
Rafz,8197,47.6083878,8.546168999999999,
Urtenen-Schönbühl,3322,47.0223166,7.5028673,
Buttisholz,6018,47.114231,8.0923935,
Halten,4566,47.1742749,7.6113397,
Bretzwil,4207,47.3953234,7.649900199999999,
Inwil,6034,47.1287795,8.366640199999999,
Buttikon,8863,47.1633222,8.946409599999999,
Nesslau,9650,47.2081104,9.1868699,
Kiesen,3629,46.811766,7.5881589,
Pfyn,8505,47.6070377,8.9517001,
Ayent,1966,46.818188,8.227511999999999,
Oberentfelden,5036,47.3559405,8.0440911,
Uttwil,8592,47.5760587,9.3381631,
Ruswil,6017,47.08397739999999,8.1263259,
Rheinfelden,4310,47.5520509,7.812721,
Romanel-Sur-Lausanne,1032,46.5644263,6.6088103,
Attelwil,5056,47.262211,8.04757,
Pfeffingen,4148,47.4566783,7.579612399999999,
Siblingen,8225,47.7195387,8.5183119,
Romoos,6113,47.002329,8.0129018,
Höchstetten,3429,47.1430412,7.638568100000001,
Wallenbuch,3206,46.9426262,7.2237957,
Berg,8572,47.579162,9.177825499999999,
Stein am Rhein,8260,47.6665494,8.856196599999999,
Langenbruck,4438,47.3523546,7.775877299999999,
Rottenschwil,8919,47.315906,8.3614839,
Krummenau,9643,47.2601658,9.1822847,
Horw,6048,47.0249599,8.3121008,
Basel,4053,47.54061230000001,7.5975674,
Hägendorf,4614,47.3439097,7.827473599999999,
Hüttwilen,8536,47.613619,8.867386999999999,
Burgdorf,3400,46.818188,8.227511999999999,
Burgdorf,3400,46.818188,8.227511999999999,
Mettmenstetten,8932,47.2437564,8.4626854,
Häggenschwil,9312,47.48944789999999,9.337500100000002,
Züberwangen,9523,47.4650562,9.0884573,
Zollbrück,3436,46.9748736,7.7737278,
Heiden,9410,47.441412,9.5293867,
Schüpfheim,6170,46.9431775,8.019995999999999,
Küsnacht,8700,47.3184279,8.5927209,
Noflen,3116,46.8148227,7.542035999999999,
Ormalingen,4466,47.4710544,7.877688000000001,
Dreifachturnhalle Maihof,8834,47.1721108,8.7059603,
Trub,3556,46.9720887,7.885568899999999,
Aarberg,3270,47.0461703,7.2853974,
Selzach,2545,47.2121208,7.446418599999999,
Kriegstetten,4566,47.1742749,7.6113397,
Büren zum Hof,3313,47.0974263,7.513861200000001,
Niederurnen,8867,47.1262043,9.0537406,
Meierskappel,6344,47.1157175,8.4440606,
Salez,9465,47.23676769999999,9.497722,
Tschugg,3233,47.0225938,7.0772321,
Deitingen,4543,47.2198713,7.6265451,
Ulisbach,9631,47.28513359999999,9.1167071,
Affoltern,3416,47.06603870000001,7.7274954,
Härkingen,4624,47.3026642,7.819096600000001,
Corcelles,2747,47.29672919999999,7.5043034,
Sumiswald,3454,47.028436,7.744630199999999,
Riehen,4125,47.58265900000001,7.652434,
Scherz,5246,47.4472086,8.1818971,
Eschenz,8264,47.6329746,8.873453999999999,
Eschenz,8264,47.6329746,8.873453999999999,
Entlebuch,6162,46.9748961,8.124259499999999,
Lanzenhäusern,3148,46.8434208,7.3650479,
Grasswil,3365,47.1485054,7.666756,
Hondrich,3702,46.6717358,7.682454999999999,
Gipf-Oberfrick,5073,47.5001816,7.991391399999999,
Bowil,3533,46.8917395,7.7038103,
Ebersecken,6245,47.1790691,7.937291399999999,
Fieschertal,3984,46.4827768,8.0668078,
Schlatt,8252,47.6662411,8.6988943,
Meinisberg,2554,47.1621198,7.347645399999999,
Vernier,1214,46.2153264,6.0819838,
Frick,5070,47.5082066,8.0178304,
Recherswil,4565,47.1602107,7.6016374,
Aeschi,3703,46.6156611,7.757983599999999,
Osterfingen,8218,47.6613214,8.500813599999999,
Grosswangen,6022,47.1367735,8.0509437,
Gunzwil,6222,47.1921984,8.1686856,
Brig,3900,46.3060531,7.9539715,
Römerswil,6027,47.1670368,8.2455246,
Ohmstal,6143,47.1607981,7.9530917,
Hergiswil,6133,47.0648206,7.959008,
Hergiswil,6133,47.0648206,7.959008,
Essertines-sur-Yverdon,1417,46.818188,8.227511999999999,
Zeiningen,4314,47.5427335,7.876497899999999,
Langnau,3550,46.9349318,7.7864583,
Ruswil,6017,47.08397739999999,8.1263259,
Orpund,2552,47.1406218,7.3008107,
Berneck,9442,47.4246872,9.6107587,
Seewil,3256,47.0557112,7.440894,
Rengg,6162,46.9748961,8.124259499999999,
Rehetobel,9038,47.4262023,9.474608,
Itingen,4452,47.4625964,7.785113000000001,
Grossaffoltern,3257,47.0705883,7.362277299999999,
Ruswil,6017,47.08397739999999,8.1263259,
Heimenhausen,3373,47.21516769999999,7.696684500000001,
Kriens,6010,47.0223002,8.2813683,
Rheinfelden,4310,47.5520509,7.812721,
Densbüren,5026,47.45563689999999,8.0633576,
Ennetbühl,9651,47.2406607,9.271133299999999,
Schenkon,6214,47.1850966,8.130626,
Quartino,6572,46.153111,8.8956863,
Allenwinden,6319,47.1667278,8.5498824,
Wilihof,6236,47.2215961,8.066045899999999,
Gams,9473,47.2077199,9.432517599999999,
Dietikon,8953,47.4018479,8.399013799999999,
Stein,4332,47.5448771,7.9525948,
Wil,8196,47.6110714,8.510228099999999,
Schwellbrunn,9103,47.346843,9.2381596,
Niederbuchsiten,4626,47.2883757,7.776294799999999,
Wauwil,6242,47.18212949999999,8.033870799999999,
Stans,6370,46.95191089999999,8.374485199999999,
Ennetmoos,6372,46.9405596,8.329259200000001,
Urswil,6280,47.15401180000001,8.2898259,
Schüpfheim,6170,46.9431775,8.019995999999999,
Haslen,9054,47.3676515,9.368072399999999,
Nottwil,6207,47.1257257,8.137588,
Hagenwil b. Amriswil,8580,47.5500718,9.292343299999999,
Merzligen,3274,47.0779876,7.246523199999999,
Au,9434,47.4295975,9.6404297,
Kloten,8302,47.45265089999999,8.5785757,
Frauenfeld,8500,47.5624565,8.8883133,
Ortschwaben,3042,46.9936184,7.399657700000001,
Lumbrein,7148,46.6852656,9.1152836,
Ruswil,6017,47.08397739999999,8.1263259,
Hägglingen,5607,47.3920655,8.2627638,
Marbach,9437,47.3851158,9.581794300000002,
Menznau,6122,47.0738989,8.0390977,
Wolhusen,6110,47.0618181,8.0714915,
Boudry,2017,46.818188,8.227511999999999,
Uettligen,3043,46.99141729999999,7.377042599999999,
Suberg,3262,47.0550515,7.3376573,
Schongau,6288,47.2632675,8.2735466,
Poliez-Pittet,1041,46.818188,8.227511999999999,
Hinwil,8340,47.2993227,8.8427233,
L'Isle,1148,46.6365129,6.4056372,
Basel,4058,47.5656032,7.611773100000001,
Weissenburg,3764,46.67297079999999,7.481164199999999,
Wyssachen,4954,47.0692994,7.823384099999999,
Pratteln,4133,47.52046790000001,7.695735300000001,
Villy,1867,46.818188,8.227511999999999,
Eggersriet,9034,47.43948169999999,9.463542499999999,
Schötz,6247,47.1661745,7.9814981,
Selzach,2545,47.2121208,7.446418599999999,
Gadmen,3863,46.6942435,8.3641156,
Rothrist,4852,47.30043149999999,7.8873473,
Rickenbach,6432,47.00646889999999,8.6914415,
Gasel,3144,46.899072,7.4087902,
Bursins,1183,46.818188,8.227511999999999,
Ebersecken,6245,47.1790691,7.937291399999999,
Sins,5643,47.19909879999999,8.3783604,
Etziken,4554,47.1893868,7.6421293,
Cresta (Avers),7447,46.4574928,9.5229094,
Dornach,4143,47.4759407,7.6236993,
Rapperswil,3255,47.0638504,7.4104389,
Abtwil SG,9030,47.4227854,9.317473399999999,
Schlierbach,6231,47.2252741,8.118118100000002,
Affoltern im Emmental,3416,47.06603870000001,7.7274954,
Russikon,8332,47.3955327,8.777935900000001,
Sempach-Station,6203,47.1198329,8.2198171,
Uffikon,6253,47.21044010000001,8.017634,
Basel,4053,47.54061230000001,7.5975674,
Egliswil,5704,47.3480654,8.1895463,
Kaisten,5082,47.53560179999999,8.0497939,
Opfikon,8152,47.4289624,8.5653092,
Aubonne,1170,46.818188,8.227511999999999,
Neuendorf,4623,47.2964278,7.802422200000001,
Cugy,1053,46.5911157,6.649315499999999,
Mettlen,9517,47.5364443,9.123776699999999,
Mühleberg,3203,46.9596448,7.263253799999999,
Gurzelen,3663,46.7757953,7.5434028,
Lupfig,5242,47.4349868,8.214691499999999,
Lanzenhäusern,3148,46.8434208,7.3650479,
Uettligen,3043,46.99141729999999,7.377042599999999,
Ziegelbrücke,8866,47.1369139,9.0630186,
Füllinsdorf,4414,47.5106069,7.7321246,
Schüpfheim,6170,46.9431775,8.019995999999999,
Buchs,9470,47.16972879999999,9.4752513,
Basel,4058,47.5656032,7.611773100000001,
Präz / Plaun,7424,46.7453548,9.3950169,
Abtwil,9030,47.4227854,9.317473399999999,
Küblis,7240,46.9178837,9.7833466,
Laufenburg,5080,47.5571986,8.0589588,
Kriens,6010,47.0223002,8.2813683,
Zug,6300,47.15582999999999,8.5314882,
Aesch,6287,47.2583926,8.2389682,
Surrein,7173,46.677464,8.968366500000002,
Walenstadt,8880,47.124147,9.312686099999999,
Zürich,8055,47.3627973,8.4936631,
Unterägeri,6314,47.1226008,8.5818864,
Eich,6205,47.1603059,8.1685081,
Zug,6300,47.15582999999999,8.5314882,
Lajoux,2718,47.2811887,7.1330711,
Eriswil,4952,47.0668953,7.858390600000001,
Rougemont,1659,46.818188,8.227511999999999,
Gossau,9200,47.4151524,9.248133600000001,
Arlesheim,4144,47.4953285,7.628910799999999,
Pignia,7443,46.6028594,9.468848699999999,
Trübbach,9477,47.07754080000001,9.4904919,
Ebikon,6030,47.08164499999999,8.3407354,
Bergdietikon,8962,47.3860478,8.3791652,
Sent,7554,46.8131893,10.357203,
Ebersecken,6245,47.1790691,7.937291399999999,
Ebnet,6163,47.0217758,8.0839699,
Hendschiken,5604,47.3858289,8.2125518,
Ebnet,6163,47.0217758,8.0839699,
Waltenschwil,5622,47.3329265,8.2969192,
Egolzwil,6243,47.1819903,8.0009062,
Bern,3006,46.9462427,7.4710474,
Basel,4052,47.5484185,7.610165400000001,
Zeiningen,4314,47.5427335,7.876497899999999,
Hüswil,6152,47.1295662,7.908548199999999,
Degersheim,9113,47.36995830000001,9.1964005,
Hämikon,6289,47.2422948,8.291543899999999,
Liestal,4410,47.4889962,7.7232323,
Kallern,5625,47.3136422,8.291278199999999,
Rickenbach,6221,47.2227566,8.1534441,
Zürich,8055,47.3627973,8.4936631,
Zürich,8055,47.3627973,8.4936631,
Frutigen,3714,46.5992099,7.6424435,
Thun,3600,46.818188,8.227511999999999,
Azmoos,9478,47.0909084,9.418216,
Oberbalm,3096,46.86735239999999,7.4093145,
Mettmenstetten,8932,47.2437564,8.4626854,
Luzern,6002,46.818188,8.227511999999999,
Full-Reuenthal,5324,47.6038445,8.2028956,
St.Gallen,9015,47.4080948,9.3045072,
Taegerwilen,8274,47.647322,9.1316841,
Eriswil,4952,47.0668953,7.858390600000001,
Schwendibach,3624,46.7651516,7.6666345,
Sempach,6204,47.14074189999999,8.201868,
Jegenstorf,3303,47.0519193,7.498883799999999,
Seigneux,1525,46.818188,8.227511999999999,
Finsterwald,6162,46.9748961,8.124259499999999,
Ufhusen,6153,47.1037285,7.892416300000001,
Zug,6300,47.15582999999999,8.5314882,
Guntmadingen,8223,47.6771345,8.5546624,
Basel,4058,47.5656032,7.611773100000001,
Basel,4058,47.5656032,7.611773100000001,
Arlesheim,4144,47.4953285,7.628910799999999,
Carouge,1227,46.818188,8.227511999999999,
Hohenrain,6276,47.1811341,8.3218395,
Finsterwald,6162,46.9748961,8.124259499999999,
Genève,1209,46.818188,8.227511999999999,
Villmergen,5612,47.3446612,8.236875,
Grosswangen,6022,47.1367735,8.0509437,
Oberiberg,8843,47.030662,8.759293999999999,
Kaltacker,3413,47.0803604,7.660232000000001,
Birsfelden,4127,47.5520922,7.6291704,
Birsfelden,4127,47.5520922,7.6291704,
Aigle,1860,46.818188,8.227511999999999,
Penthalaz,1305,46.818188,8.227511999999999,
Wisen,4634,47.3960399,7.892931699999999,
Lausanne,1005,46.52013909999999,6.6427496,
Eschenbach,6274,47.1226199,8.316711699999999,
Vuisternens-en-Ogoz,1696,46.6999066,7.0581245,
Waldkirch,9205,47.4613393,9.2879882,
Littau,6014,47.0588407,8.2500796,
Nidau,2560,47.1246634,7.243721299999999,
Romanshorn,8590,47.5644239,9.3591783,
Meyrin,1217,46.2349075,6.074979099999999,
Altwis,6286,47.2426683,8.2524742,
Geiss,6123,47.09145609999999,8.067970599999999,
Wilchingen,8217,47.6648801,8.4528505,
Emmen,6032,47.0938162,8.308271999999999,
Ebikon,6030,47.08164499999999,8.3407354,
Zürich,8055,47.3627973,8.4936631,
Schaffhausen,8200,47.7114176,8.626544899999999,
Muhen,5037,47.3371722,8.0658539,
Ittigen,3063,46.9824346,7.4776246,
Wolfwil,4628,47.2700883,7.792196300000001,
Zweisimmen,3770,46.5761908,7.4034662,
Gelfingen,6284,47.2156126,8.286759199999999,
Ormalingen,4466,47.4710544,7.877688000000001,
Lausanne,1000,46.818188,8.227511999999999,
Lenzburg,5600,47.3778731,8.1860746,
Rüti,8630,47.258089,8.8664545,
Unterstammheim,8476,47.6491791,8.7921751,
Trübbach,9477,47.07754080000001,9.4904919,
Steinach,9323,47.4985985,9.436729099999999,
Etziken,4554,47.1893868,7.6421293,
Choulex,1244,46.818188,8.227511999999999,
San Carlo,7741,46.3502217,10.091699,
Wittnau,5064,47.4824671,7.9622572,
Wetzikon,8621,46.818188,8.227511999999999,
Develier,2802,47.3601962,7.2832671,
Grabs,9472,47.1713913,9.3958216,
Schüpfheim,6170,46.9431775,8.019995999999999,
Dürrenroth,3465,47.0813037,7.791030399999999,
Arosa,7050,46.77722869999999,9.6554,
Wünnewil,3184,46.87106929999999,7.275707499999999,
Grosswangen,6022,47.1367735,8.0509437,
Rickenbach,6221,47.2227566,8.1534441,
Neudorf,CH-6025,47.1791998,8.2129935,
Etziken,4554,47.1893868,7.6421293,
Choulex,1244,46.818188,8.227511999999999,
San Carlo,7741,46.3502217,10.091699,
Wittnau,5064,47.4824671,7.9622572,
Wetzikon,8621,46.818188,8.227511999999999,
Develier,2802,47.3601962,7.2832671,
Grabs,9472,47.1713913,9.3958216,
Schüpfheim,6170,46.9431775,8.019995999999999,
Dürrenroth,3465,47.0813037,7.791030399999999,
Arosa,7050,46.77722869999999,9.6554,
Wünnewil,3184,46.87106929999999,7.275707499999999,
Grosswangen,6022,47.1367735,8.0509437,
Rickenbach,6221,47.2227566,8.1534441,
Pratteln,4133,47.52046790000001,7.695735300000001,
Buchs,9470,47.16972879999999,9.4752513,
Les Ponts de Martel,2316,46.9926719,6.7234913,
Saanenmöser,3777,46.5190587,7.313343099999999,
Champvent,1443,46.818188,8.227511999999999,
Lenzburg,5600,47.3778731,8.1860746,
Heimisbach,3453,47.0132616,7.784241499999999,
Gersau,6442,47.00934789999999,8.5236174,
Illnau,8308,47.4075705,8.7174687,
Davos Clavadel,7272,46.7209578,9.856140199999999,
Egg,8847,47.1617695,8.783147699999999,
Wölflinswil,5063,47.460628,7.9923183,
Wolfisberg,4704,47.2641852,7.698057399999999,
Bellinzona,6500,46.818188,8.227511999999999,
Meilen,8706,47.28415680000001,8.6552506,
Tenna,7106,46.7416885,9.3210091,
Bargen,3282,47.0387536,7.248265099999998,
Chavannes sur Moudon,1512,46.818188,8.227511999999999,
Schmiedrued,5046,47.26548220000001,8.1055792,
Ried-Mörel,3986,46.3526497,8.027042,
Rolle,1180,46.4594462,6.3291453,
Horgen,8810,47.2483725,8.6079058,
Attelwil,5056,47.262211,8.04757,
Schwarzenberg,6103,46.99072080000001,8.176533899999999,
Poliez-Le-Grand,1041,46.6350262,6.685364799999999,
Günsberg,4524,47.2631299,7.566750799999999,
Widen,8967,47.3728777,8.357085999999999,
Stels,7226,46.9620988,9.7247981,
Tenna,7106,46.7416885,9.3210091,
Uzwil,9240,47.4354501,9.1376811,
Ettingen,4107,47.4709326,7.5505014,
Lenggenwil,9525,47.4730205,9.1434593,
Ennenda,8755,47.037679,9.1073954,
Attiswil,4536,47.2503721,7.610934299999999,
Interlaken,3800,46.6871831,7.848015299999999,
Romanshorn,8590,47.5644239,9.3591783,
Basel,4020,46.818188,8.227511999999999,
Homburg,8508,47.6322613,9.0091503,
Langnau,3550,46.9349318,7.7864583,
Monthey,1870,46.818188,8.227511999999999,
Ruswil,6017,47.08397739999999,8.1263259,
Jegenstorf,3303,47.0519193,7.498883799999999,
Chézard-Saint-Martin,2054,47.078038,6.9302062,
Ebikon,6030,47.08164499999999,8.3407354,
Oberkirch,6208,47.15790860000001,8.0988664,
Seehof,2747,47.29672919999999,7.5043034,
Tenna,7106,46.7416885,9.3210091,
Alvaneu Dorf,7492,46.7203163,9.636018499999999,
Schafisheim,5503,47.3774707,8.1428446,
Eich,6205,47.1603059,8.1685081,
Jegenstorf,3303,47.0519193,7.498883799999999,
Rohrbachgraben,4938,47.1197698,7.8015921,
Staffelbach,5053,47.280119,8.0376329,
Sulz,5085,47.532246,8.0972936,
Flaach,8416,47.5845233,8.6002216,
Zürich,8055,47.3627973,8.4936631,
Givisiez,1762,46.8148649,7.1244891,
Seeberg,3365,47.1485054,7.666756,
Euthal,8844,47.09837539999999,8.8348247,
Mollis,8753,47.0926627,9.0945884,
Pany,7243,46.9368425,9.762223299999999,
Muri,5630,47.2782305,8.3382955,
Kräiligen,3315,47.1377716,7.533422099999999,
Sempach,6204,47.14074189999999,8.201868,
Oberwil bei Zug,6317,47.1401305,8.5116703,
Hasliberg Wasserwendi,6084,46.7545631,8.2036312,
Wünnewil,3184,46.87106929999999,7.275707499999999,
Mauensee,6216,47.1669948,8.0744959,
Neftenbach,8413,47.5307206,8.6573543,
Mollis,8753,47.0926627,9.0945884,
Schenkon,6214,47.1850966,8.130626,
Rossrüti,9512,47.478784,9.071283099999999,
St. Peterzell,9127,47.319723,9.1770198,
Lausanne,1004,46.818188,8.227511999999999,
Basel,4056,47.5705771,7.5740645,
Leutwil,5725,47.3072787,8.174762399999999,
Böbikon,5334,47.5520876,8.3369529,
Baar,6340,47.2003879,8.526752799999999,
Lienz,9464,47.29429460000001,9.5170511,
Obergesteln,3988,46.51280939999999,8.322657999999999,
Ganterschwil,9608,47.37766149999999,9.100402899999999,
La Chaux-de-Fonds,2300,47.11767829999999,6.8405667,
Sennwald,9466,47.2655237,9.5073787,
Haslen,9054,47.3676515,9.368072399999999,
Mühleberg,3203,46.9596448,7.263253799999999,
Finsterwald bei Entlebuch,6162,46.9748961,8.124259499999999,
Steinebrunn,9314,47.5333216,9.345786799999999,
Basel,4053,47.54061230000001,7.5975674,
Müllheim,8554,47.5832323,9.0337081,
Herznach,5027,47.4742592,8.0506391,
Herbligen,3671,46.8197981,7.613793800000001,
Schwarzenburg,3150,46.8091666,7.329899500000001,
Reute,9411,47.4020654,9.5564831,
Scheuren - Forch,8127,47.3235637,8.6551185,
Liestal,4410,47.4889962,7.7232323,
Untersteckholz,4916,47.2026044,7.8452789,
Engelburg,9032,47.444623,9.3412872,
Schafisheim,5503,47.3774707,8.1428446,
Pfäffikon,8330,47.3722412,8.7921111,
Weinfelden,8570,47.569994,9.1067558,
Rütihof,5406,47.4372804,8.2683749,
Préverenges,1028,46.818188,8.227511999999999,
Furna,7232,46.9333514,9.6596705,
Hofstetten,4114,47.4732561,7.5152288,
Krummenau,9643,47.2601658,9.1822847,
Rubigen,3113,46.90255519999999,7.5418266,
Guntmadingen,8223,47.6771345,8.5546624,
Rotkreuz,6343,47.1427744,8.4430747,
Gohl,3553,46.9812891,7.8228805,
Riehen,4125,47.58265900000001,7.652434,
Säriswil,3049,46.991434,7.3388638,
Entlebuch,6162,46.9748961,8.124259499999999,
Villars-sur-Glâne,1752,46.7934868,7.116231,
Pierrafortscha,1723,46.818188,8.227511999999999,
Klosters,7250,46.8390202,9.9588438,
Kreuzlingen,8280,47.6400624,9.1603602,
Kerzers,3210,46.9780711,7.2035307,
Locarno,6600,46.1663212,8.787654999999999,
Griesenberg,8514,47.5564231,9.0282404,
Wattwil,9630,47.2901615,9.0845857,
Rudolfstetten,8964,47.3658781,8.3853302,
Scuol,7550,46.7291199,10.3141052,
Zürich,8055,47.3627973,8.4936631,
Zürich,8055,47.3627973,8.4936631,
Diemtigen,3754,46.64598729999999,7.5643548,
Wetzikon,8620,47.32225469999999,8.801023599999999,
Limpach,3317,47.1023102,7.476735299999999,
Alpnach Dorf,6055,46.949044,8.212256199999999,
Mettmenstetten,8932,47.2437564,8.4626854,
Hohenrain,6276,47.1811341,8.3218395,
Aesch bei Neftenbach,8412,47.5500604,8.663269,
Schwyz,6430,47.0326445,8.6692757,
Lausanne,1007,46.516054,6.608998000000001,
Büren zum Hof,3313,47.0974263,7.513861200000001,
Lenggenwil,9525,47.4730205,9.1434593,
Murzelen,3034,46.9759147,7.314321100000001,
Satigny,1242,46.818188,8.227511999999999,
Worb,3076,46.9305584,7.561035299999999,
Fehren,4232,47.3974032,7.5817155,
Amriswil,8580,47.5500718,9.292343299999999,
Froideville,1055,46.818188,8.227511999999999,
Ebikon,6030,47.08164499999999,8.3407354,
Sünikon,8162,47.4975846,8.4396233,
Hohenrain,6276,47.1811341,8.3218395,
Biberist,4562,47.1859517,7.5462127,
Trimmis,7203,46.8865473,9.576373499999999,
Chur,7000,46.84823,9.5084689,
Montricher,1147,46.818188,8.227511999999999,
Bellach,4512,47.2112945,7.496582499999999,
Dussnang,8374,47.4285271,8.9568145,
Zug,6300,47.15582999999999,8.5314882,
Riedholz,4533,47.233402,7.5707169,
Oberthal,3531,46.922051,7.688424299999999,
Belp,3123,46.895252,7.5046295,
Pfaffnau,6264,47.2304846,7.903808,
Grabs,9472,47.1713913,9.3958216,
Ottoberg,8561,47.5885852,9.091079599999999,
Ottoberg,8561,47.5885852,9.091079599999999,
Lohn,7433,46.6243833,9.3852359,
Hedingen,8908,47.2992865,8.4534407,
Mathon,7433,46.6243833,9.3852359,
Arbon,9320,47.5172117,9.4211878,
Kerns,6064,46.9040003,8.2946543,
Gstaad,3780,46.4722047,7.289759900000001,
Kirchlindach,3038,46.99878020000001,7.414235100000001,
Ibach,6438,47.0074386,8.6464977,
Domdidier,1564,46.818188,8.227511999999999,
Herznach,5027,47.4742592,8.0506391,
Oberburg,3414,47.0294342,7.616943099999999,
Fankhaus,3557,46.9836486,7.930345699999998,
Oberbipp,4538,47.2561103,7.6720267,
Sumiswald,3454,47.028436,7.744630199999999,
Kreuzlingen,8280,47.6400624,9.1603602,
Grünenmatt,3452,47.0276039,7.717045100000001,
Kienberg,4468,47.4429267,7.9632162,
Hausen am Albis,8915,47.2546056,8.5248932,
Li Curt,7745,46.3011983,10.0438912,
Huttwil,4950,47.1061468,7.857353000000001,
Worb,3076,46.9305584,7.561035299999999,
Walperswil,3272,47.05057,7.2160578,
Gossau,9200,47.4151524,9.248133600000001,
Frieswil,3035,46.9943922,7.2926684,
Otelfingen,8112,47.4615504,8.3923945,
Ilanz,7130,46.7712522,9.197411599999999,
CH-Bettenhausen,3366,47.16762079999999,7.710562899999999,
Trub,3556,46.9720887,7.885568899999999,
Hemmental,8231,47.7353581,8.5722759,
Büron,6233,47.21470009999999,8.094083699999999,
Les Bioux,1346,46.6089604,6.2913815,
Stadel,8174,47.5257175,8.460209299999999,
Tobel,9555,47.5153147,9.0325316,
Wilen-Gottshaus,9225,47.4912275,9.285418,
Tuggen,8856,47.20307570000001,8.941439899999999,
Mex,1031,46.818188,8.227511999999999,
Esslingen,8133,47.2918838,8.7154242,
Basel,4053,47.54061230000001,7.5975674,
Buttisholz,6018,47.114231,8.0923935,
Berneck,9442,47.4246872,9.6107587,
Monthey,1870,46.818188,8.227511999999999,
Entlebuch,6162,46.9748961,8.124259499999999,
Merlischachen,6402,47.0694849,8.4062542,
Affeltrangen,9556,47.531803,9.026558699999999,
Renens,1020,46.53643779999999,6.5909099,
Altstätten,9450,47.3700789,9.5549856,
Büren zum Hof,3313,47.0974263,7.513861200000001,
Schüpfheim,6170,46.9431775,8.019995999999999,
Wattwil,9630,47.2901615,9.0845857,
Rosshäusern,3204,46.9293689,7.278932999999999,
Steffisburg,3613,46.7734044,7.6160391,
Horn,9326,47.4944364,9.4570861,
Muttenz,4132,47.5236348,7.6485345,
Stuls/Stugl,7482,46.6199306,9.784457,
Oberhelfenschwil,9621,47.3478411,9.1031113,
Hornussen,5075,47.5048684,8.065268699999999,
Oeschgen,5072,47.5253673,8.0196605,
Wildberg,8489,47.4195088,8.8190441,
Sent,7554,46.8131893,10.357203,
Salez,9465,47.23676769999999,9.497722,
Zwillikon,8909,47.2887811,8.4291134,
Oeschseite,3776,46.5271177,7.338569,
Häusernmoos,3463,47.0814797,7.752473299999999,
Zell LU,6144,47.139762,7.938244600000001,
Wilen,8832,47.1934879,8.7155642,
Steckborn,8266,47.6616993,8.977273799999999,
Schocherswil,8581,47.5353988,9.2596241,
Kägiswil,6056,46.9191374,8.2543049,
Longirod,1261,46.818188,8.227511999999999,
Aarberg,3270,47.0461703,7.2853974,
Oberbalm,3096,46.86735239999999,7.4093145,
Courtaman,1791,46.818188,8.227511999999999,
Bondo,7606,46.3177331,9.5722497,
Oetwil am See,8618,47.2691032,8.7236329,
Würenlingen,5303,47.5308686,8.2546816,
Lützelflüh-Goldbach,3432,47.0055543,7.681473,
Quartino,6572,46.153111,8.8956863,
Fulenbach,4629,47.2843652,7.8349936,
Chailly-Montreux,1816,46.818188,8.227511999999999,
Ganterschwil,9608,47.37766149999999,9.100402899999999,
Eschenbach,6274,47.1226199,8.316711699999999,
Wäldi,8564,47.6168492,9.078491399999999,
Montezillon,2037,46.818188,8.227511999999999,
Stierva,7459,46.6661893,9.5264546,
Rudolfingen,8465,47.6455813,8.6771721,
La Lecherette,1660,46.818188,8.227511999999999,
Bassecourt,2854,47.3333812,7.2408492,
Castelrotto,6980,45.9929637,8.838320699999999,
Segnas,7186,46.6841514,8.8204538,
Nufenen,7437,46.5393362,9.2366653,
Baechli,9633,47.3005308,9.1757408,
Büttenhardt,8236,47.7568402,8.649650099999999,
Fanas,7215,47.0095626,9.685711399999999,
Auswil,4944,47.1366103,7.841953199999999,
Niederuzwil,9244,47.4457939,9.1439182,
Oberriet,9463,47.320266,9.567072999999999,
Lützelflüh,3432,47.0055543,7.681473,
Uster,8610,47.3479211,8.723527599999999,
Oberbalm,3096,46.86735239999999,7.4093145,
Schiers,7220,46.9725548,9.6884213,
Vattiz,7146,46.7106708,9.132503999999999,
Mauren,8576,47.5683028,9.1588198,
Bubikon,8608,47.2723166,8.8099052,
Selzach,2545,47.2121208,7.446418599999999,
Däniken,4658,47.3534546,7.9741975,
Bösingen,3178,46.88358059999999,7.232165500000001,
Torny-le-Grand,1748,46.818188,8.227511999999999,
Crissier,1023,46.818188,8.227511999999999,
Wallenwil,8360,47.4600973,8.9637335,
Dagmersellen,6252,47.214311,7.995047800000001,
Urdorf,8902,47.3896332,8.4254552,
Baden,5400,46.818188,8.227511999999999,
Neftenbach,8413,47.5307206,8.6573543,
Frauenfeld,8500,47.5624565,8.8883133,
Blonay,1807,46.818188,8.227511999999999,
Uettligen,3043,46.99141729999999,7.377042599999999,
Trüllikon,8466,47.6389086,8.6997237,
Spreitenbach,8957,47.4141202,8.3662195,
Brugg,5200,47.4824134,8.2072208,
Regensdorf-Watt,8105,47.4360745,8.469988599999999,
Knonau,8934,47.2222792,8.4637564,
Basel,4058,47.5656032,7.611773100000001,
Basel,4058,47.5656032,7.611773100000001,
Baar,6340,47.2003879,8.526752799999999,
Wilen bei Wil,9535,47.4447745,9.032686199999999,
Semsales,1623,46.818188,8.227511999999999,
Bennau,8836,47.15019700000001,8.7356141,
Alosen,6315,47.1373251,8.6468372,
Sumiswald,3454,47.028436,7.744630199999999,
St. Gallen,9011,47.41196180000001,9.4078687,
Eschenbach,6274,47.1226199,8.316711699999999,
Rüthi,9464,47.29429460000001,9.5170511,
Wil bei Turgi,5300,47.4939287,8.2530348,
Luven,7141,46.7522426,9.191246,
Gais,9056,47.3675181,9.4673559,
Affoltern am Albis,8910,47.27914759999999,8.4595489,
Tamins,7015,46.8423435,9.4028679,
Detligen,3036,46.9980831,7.2730819,
Basel,4058,47.5656032,7.611773100000001,
Basel,4058,47.5656032,7.611773100000001,
Satigny,1242,46.818188,8.227511999999999,
Giswil,6074,46.828877,8.118184399999999,
Wuppenau,9514,47.4961569,9.1015365,
Sempach,6204,47.14074189999999,8.201868,
Oerlingen,8461,47.6209086,8.6757569,
Oberstetten,9249,47.4448209,9.0942843,
Lützelflüh,3432,47.0055543,7.681473,
Bätterkinden,3315,47.1377716,7.533422099999999,
Porrentruy,2900,46.818188,8.227511999999999,
Seewen,6423,47.0309883,8.626532599999999,
Les Bois,2336,47.1728237,6.9006476,
Arth,6415,47.076418,8.5437967,
Sion,1950,46.818188,8.227511999999999,
Bolken,4556,47.1781859,7.6628849,
Bellach,4512,47.2112945,7.496582499999999,
Collonge Bellerive,1245,46.2568613,6.202908499999999,
Thalwil,8800,47.2913265,8.5602201,
Rotkreuz,6343,47.1427744,8.4430747,
Münchenstein,4142,47.51813110000001,7.620042300000001,
Bellinzona,6500,46.818188,8.227511999999999,
Grüsch,7214,46.9692138,9.6412028,
Schwyz,6430,47.0326445,8.6692757,
Widnau,9443,47.4024006,9.64049,
Wildhaus,9658,47.213651,9.360623499999999,
Murzelen,3034,46.9759147,7.314321100000001,
Onex,1213,46.1945732,6.1110751,
Tenniken,4456,47.4333559,7.81613,
Eggiwil,3537,46.8603217,7.8073467,
Rickenbach SZ,6432,47.00646889999999,8.6914415,
Lumbrein,7148,46.6852656,9.1152836,
Bern,3013,46.9551403,7.446927199999999,
Lausanne,1010,46.818188,8.227511999999999,
Märstetten,8560,47.5878496,9.069190299999999,
Oulens-Sur-Lucens,1522,46.7041737,6.8282004,
Niederuzwil,9244,47.4457939,9.1439182,
Wagen,8646,47.234386,8.8864775,
St. Gallenkappel,8735,47.26580209999999,8.988006,
Basel,4058,47.5656032,7.611773100000001,
Rain,6026,47.1365002,8.2606764,
Steinach,9323,47.4985985,9.436729099999999,
Oetwil am See,8618,47.2691032,8.7236329,
Marthalen,8460,47.621445,8.6359969,
Basel,4018,46.818188,8.227511999999999,
Uettligen,3043,46.99141729999999,7.377042599999999,
Zernez,7530,46.6663975,10.14355,
Brissago,6614,46.12379929999999,8.6833242,
Biel-Benken,4105,47.5098182,7.5219248,
Lengwil,8574,47.6168339,9.202468699999999,
Altishofen,6246,47.1975095,7.9544123,
Schwyz,6430,47.0326445,8.6692757,
Les Hauts-Geneveys,2208,47.0429629,6.8633766,
Kleinlützel,4245,47.4301596,7.420307,
Andwil,8586,47.5456562,9.2161258,
Tscherlach,8881,47.1442646,9.3070382,
Zäziwil,3532,46.89485579999999,7.6574936,
Porrentruy,2900,46.818188,8.227511999999999,
Büsserach,4227,47.3926666,7.541642100000001,
Schinznach-Dorf,5107,47.4602684,8.137235800000001,
Uttigen,3628,46.7955982,7.5750455,
Mathod,1438,32.5706077,-117.0923022,
Adelboden,3715,46.4793126,7.552188999999999,
Rickenbach,6221,47.2227566,8.1534441,
Saules,2732,47.2359631,7.2278627,
Cartigny,1236,46.818188,8.227511999999999,
Berg am Irchel,8415,47.5651662,8.5943448,
Moosseedorf,3302,47.01125460000001,7.485212499999999,
Zuchwil,4528,47.2044642,7.563005599999999,
Morges,1110,46.5129601,6.494382,
Rhäzüns,7403,46.7843232,9.395788,
Port,2562,47.1139246,7.258634799999999,
Yverdon-les-Bains,1400,46.818188,8.227511999999999,
Lenzerheide,7078,46.7283044,9.5412767,
Bassins,1269,46.818188,8.227511999999999,
Cham,6330,47.200425,8.4602565,
Wabern,3084,46.925596,7.450935799999999,
Schwanden,3657,46.74716859999999,7.752802699999998,
Herisau,9100,47.3823758,9.286793,
Schinznach-Dorf,5107,47.4602684,8.137235800000001,
Lungern,6078,46.7960715,8.168128099999999,
Liebefeld,3097,46.9313554,7.4186774,
Schneisingen,5425,47.5196737,8.3607803,
Yverdon-les-bains,1400,46.818188,8.227511999999999,
Uesslingen,8524,47.5864622,8.8342485,
Oberegg,9413,47.4174975,9.5492752,
Grimisuat,1971,46.818188,8.227511999999999,
Riazzino,6595,46.1650866,8.8964841,
Bärschwil,4252,47.3876041,7.4687426,
Thundorf,8512,47.5452593,8.9814925,
Dieterswil,3256,47.0557112,7.440894,
Wil,9500,47.4604542,9.0530887,
Lyss,3250,47.0735637,7.3159537,
Baar,6340,47.2003879,8.526752799999999,
Güttingen,8594,47.6003094,9.2840059,
Emmenbrücke,6020,47.0771818,8.2674067,
Luzern,6003,47.0484552,8.2920023,
Arth,6415,47.076418,8.5437967,
Selzach,2545,47.2121208,7.446418599999999,
Tägerwilen,8274,47.647322,9.1316841,
Hofstatt,6154,47.083696,7.8987574,
Hüttwilen,8536,47.613619,8.867386999999999,
Erlenbach,8703,47.3052713,8.603926099999999,
Rafz,8197,47.6083878,8.546168999999999,
Suchy,1433,46.818188,8.227511999999999,
Bedigliora,6981,46.0033943,8.8430359,
Endingen,5304,47.5282817,8.2904051,
Buch am Irchel,8414,47.5474927,8.631845499999999,
Thônex,1226,46.1964722,6.209378999999999,
Baar,6340,47.2003879,8.526752799999999,
Wünnewil,3184,46.87106929999999,7.275707499999999,
Ebnat-Kappel,9642,47.2522495,9.1275795,
Thayngen,8240,47.7447496,8.7107153,
Surcuolm,7138,46.7550921,9.1558896,
Zug,6300,47.15582999999999,8.5314882,
Granges,1614,46.5225288,6.8277192,
Wildhaus,9658,47.213651,9.360623499999999,
St. Gallen,9015,47.4080948,9.3045072,
Gähwil,9534,47.3974541,9.0015436,
Zuckenriet,9526,47.4886845,9.163965600000001,
Gossau,9200,47.4151524,9.248133600000001,
Grenchen,2540,47.1966015,7.383175499999999,
Schangnau I.E.,6197,46.8276597,7.8607874,
Sempach,6204,47.14074189999999,8.201868,
Zürich,8055,47.3627973,8.4936631,
Camorino,6528,46.163593,9.005196999999999,
Madiswil,4934,47.1582636,7.812176999999999,
Dätwil,8452,47.5794485,8.6998866,
Wohlenschwil,5512,47.4148688,8.254268999999999,
Renens,1020,46.53643779999999,6.5909099,
Neuenegg,3176,46.9087039,7.297048099999999,
Langenthal,4900,47.2140396,7.7857711,
Le Mont-sur-Lausanne,1052,46.818188,8.227511999999999,
Bözen,5076,47.4961396,8.0839609,
Maienfeld,7304,47.0050365,9.5300158,
Horw,6048,47.0249599,8.3121008,
Basel,4054,47.551158,7.568881299999999,
Thalheim,5112,47.4434508,8.0961387,
Gams,9473,47.2077199,9.432517599999999,
Ebnat-Kappel,9642,47.2522495,9.1275795,
Haslen,9054,47.3676515,9.368072399999999,
Beringen,8222,47.705337,8.575483799999999,
Wäldi,8564,47.6168492,9.078491399999999,
La Ferrière,2333,47.1476435,6.9120839,
Hünenberg See,6333,47.1698457,8.4420855,
Deitingen,4543,47.2198713,7.6265451,
Saint-Pierre-de-Clage / Chamoson,1955,46.818188,8.227511999999999,
Herznach,5027,47.4742592,8.0506391,
Wängi,9545,47.4969835,8.9661862,
Genève,1203,46.818188,8.227511999999999,
Castel S. Pietro,6874,45.8655773,9.0111518,
Bern,3006,46.9462427,7.4710474,
Kleinwangen,6277,47.195681,8.2958498,
Abtwil,5646,47.1763608,8.353566899999999,
Savigny,1073,46.818188,8.227511999999999,
Geuensee,6232,47.20518149999999,8.1243759,
Lupsingen,4419,47.4439729,7.695993099999999,
Frutigen,3714,46.5992099,7.6424435,
Willisau,6130,47.1208406,7.998617100000001,
Selzach,2545,47.2121208,7.446418599999999,
Cresta (Avers),7447,46.4574928,9.5229094,
Mont-Crosin,2610,47.162034,6.9975882,
Muolen,9313,47.5181777,9.3190716,
Hildisrieden,6024,47.14866010000001,8.228173,
Luzern,6005,47.0419512,8.3140814,
Sennwald,9466,47.2655237,9.5073787,
Valendas,7122,46.7688162,9.2874795,
Oberthal,3531,46.922051,7.688424299999999,
Emmen,6032,47.0938162,8.308271999999999,
Gonten,9108,47.3135227,9.3443465,
Samstagern,8833,47.19402609999999,8.6762813,
Hörhausen,8507,47.635113,8.9729502,
Pigniu,7156,46.8254657,9.1301918,
Männedorf,8708,47.2613018,8.6969006,
Meilen,8706,47.28415680000001,8.6552506,
Rebévelier,2717,47.28571420000001,7.178482100000001,
Abtwil,5646,47.1763608,8.353566899999999,
Diessbach,3264,47.10021589999999,7.358168999999999,
Sumiswald,3454,47.028436,7.744630199999999,
Schwyz,6430,47.0326445,8.6692757,
Neuendorf,4623,47.2964278,7.802422200000001,
Ried bei Kerzers,3216,46.9544109,7.1916897,
Tavanasa,7162,46.7590812,9.07563,
Erlen,8586,47.5456562,9.2161258,
Knonau,8934,47.2222792,8.4637564,
Lausanne,1004,46.818188,8.227511999999999,
Trimmis,7203,46.8865473,9.576373499999999,
Zizers,7205,46.9335139,9.5708253,
Zug,6300,47.15582999999999,8.5314882,
Ins,3232,46.9986247,7.1092545,
Freidorf,9306,47.4854814,9.3858009,
Güttingen,8594,47.6003094,9.2840059,
Lenzburg,5600,47.3778731,8.1860746,
Basel,4056,47.5705771,7.5740645,
Nussbaumen,8537,47.6164182,8.831277799999999,
Neuenkirch,6206,47.1014681,8.202509599999999,
Wohlen bei Bern,3033,46.9736918,7.348957200000001,
Uerikon,8713,47.2397042,8.7541192,
Basel,4003,46.818188,8.227511999999999,
Basel,4052,47.5484185,7.610165400000001,
Wegenstetten,4317,47.4946202,7.929461599999999,
Frauenfeld,8503,46.818188,8.227511999999999,
Küblis,7240,46.9178837,9.7833466,
Gempen,4145,47.4735793,7.6590327,
Meienried,3294,47.1393833,7.374698100000001,
Mendrisio,6850,45.8729655,8.9782727,
Schenkon,6214,47.1850966,8.130626,
Flueelen,6454,46.9109262,8.6291459,
Beromuenster,6215,47.219381,8.200569999999999,
Oberuzwil,9242,47.4279701,9.1196722,
Grandson,1422,32.5706112,-117.0919344,
Sonnental,9245,47.4518136,9.161289199999999,
Wängi,9545,47.4969835,8.9661862,
Guntershausen b. Aadorf,8357,47.4708587,8.921025,
Uitikon,8142,47.3702671,8.459451699999999,
Jonen,8916,47.300598,8.4023513,
Zuzwil,9524,47.4759087,9.1073638,
Merlischachen,6402,47.0694849,8.4062542,
Mühleberg,3203,46.9596448,7.263253799999999,
Detligen,3036,46.9980831,7.2730819,
Ebnet,6163,47.0217758,8.0839699,
Trübbach,9477,47.07754080000001,9.4904919,
Wittenbach,9300,47.4630655,9.3876654,
Elgg,8353,47.4948363,8.8671066,
Schüpfen,3054,47.030614,7.375456199999999,
Belp,3123,46.895252,7.5046295,
Oschwand,3476,47.13494739999999,7.722492,
Davos Dorf,7260,46.7757476,9.8997731,
Hofstetten,4114,47.4732561,7.5152288,
Oensingen,4702,47.2923526,7.7176406,
Chiasso,6830,45.8357536,9.0251586,
Wilchingen,8217,47.6648801,8.4528505,
Erstfeld,6472,46.8033393,8.5994797,
Wuppenau,9514,47.4961569,9.1015365,
Surcuolm,7138,46.7550921,9.1558896,
Bern,3003,46.818188,8.227511999999999,
Russikon,8332,47.3955327,8.777935900000001,
Uster,8610,47.3479211,8.723527599999999,
Ruswil,6017,47.08397739999999,8.1263259,
Niederbipp,4704,47.2641852,7.698057399999999,
Lausen,4415,47.4664221,7.7651305,
Rheinfelden,4310,47.5520509,7.812721,
Rheinfelden,4310,47.5520509,7.812721,
Hirzel,8816,47.21952779999999,8.5991509,
Entlebuch,6161,46.818188,8.227511999999999,
Herisau,9100,47.3823758,9.286793,
Frauenfeld,8500,47.5624565,8.8883133,
Andwil,9204,47.43244929999999,9.2785092,
Mümliswil-Ramiswil,4719,47.3558467,7.651214,
Benzenschwil,5636,47.2456529,8.3634334,
Bonstetten,8906,47.3176744,8.4710539,
Trogen,9043,47.4080759,9.464447,
Escholzmatt,6182,46.9289069,7.944727100000001,
Aigle,1860,46.818188,8.227511999999999,
Mümliswil,4717,47.3571309,7.705361799999999,
Lyssach,3421,47.0657849,7.585278299999999,
Bachs,8164,47.5274835,8.4363356,
Laufen,4242,47.40620149999999,7.4855641,
Hünenberg,6331,47.20392080000001,8.412978899999999,
Kriens,6010,47.0223002,8.2813683,
Trub,3556,46.9720887,7.885568899999999,
St-George,1188,46.52802459999999,6.2678695,
La Comballaz,1862,46.818188,8.227511999999999,
Gähwil,9534,47.3974541,9.0015436,
Hilfikon,5613,47.331535,8.2481627,
Benken,8717,47.1892867,8.991218,
Furna,7232,46.9333514,9.6596705,
Naters,3904,46.3386976,7.9851752,
Ersigen,3423,47.0938683,7.604623500000001,
Hüttwilen,8536,47.613619,8.867386999999999,
Gipf-Oberfrick,5073,47.5001816,7.991391399999999,
Arezen,7104,46.7692155,9.3422036,
Démoret,1415,46.818188,8.227511999999999,
Schleitheim,8226,47.7513569,8.4909999,
Appenzell,9050,47.32678900000001,9.4228294,
Hindelbank,3324,47.0488621,7.5453082,
Hinterfultigen,3089,46.8408157,7.405328,
Schwadernau,2556,47.1224589,7.3167662,
Itingen,4452,47.4625964,7.785113000000001,
Itingen,4452,47.4625964,7.785113000000001,
Rabius,7172,46.76241539999999,8.9410569,
Messen,3254,47.09420110000001,7.4509812,
Hüttikon,8115,47.439591,8.3889323,
Steckborn,8266,47.6616993,8.977273799999999,
Aeschi,4556,47.1781859,7.6628849,
Hilfikon,5613,47.331535,8.2481627,
Bernex,1233,46.818188,8.227511999999999,
Grenchen,2540,47.1966015,7.383175499999999,
Le Grand-Saconnex,1218,46.818188,8.227511999999999,
Kaltbrunn,8722,47.2161875,9.0242024,
Sumiswald,3454,47.028436,7.744630199999999,
Wittenbach,9300,47.4630655,9.3876654,
Remetschwil,5453,47.4070684,8.3277415,
Muri,5630,47.2782305,8.3382955,
Hohenrain,6276,47.1811341,8.3218395,
Ormalingen,4466,47.4710544,7.877688000000001,
Hauenstein,4633,47.3686646,7.8613062,
Dättlikon,8421,47.5259604,8.6222245,
Sempach,6204,47.14074189999999,8.201868,
Basel,4054,47.551158,7.568881299999999,
Bonaduz,7402,46.7967526,9.3634378,
Wolhusen,6110,47.0618181,8.0714915,
Kloten,8302,47.45265089999999,8.5785757,
Kirchberg,9533,47.4175617,9.033230999999999,
Trogen,9043,47.4080759,9.464447,
Eichberg,9453,47.3459394,9.518951999999999,
Amriswil,8580,47.5500718,9.292343299999999,
Sax,9468,47.2311775,9.4465031,
Fislisbach,5442,47.436874,8.2909952,
Obernau,6012,47.0300664,8.2417184,
Zug,6300,47.15582999999999,8.5314882,
Kleindietwil,4936,47.1424171,7.792933700000001,
Kägiswil,6056,46.9191374,8.2543049,
Eggiwil,3537,46.8603217,7.8073467,
Schwanden,8762,46.98465059999999,9.0964464,
Spreitenbach,8957,47.4141202,8.3662195,
Aigle,1860,46.818188,8.227511999999999,
Leibstadt,5325,47.5883706,8.1771356,
Sissach,4450,47.4736973,7.8031928,
Obersaxen,7134,46.7303576,9.0996145,
Zell,6144,47.139762,7.938244600000001,
Selzach,2545,47.2121208,7.446418599999999,
Basel,4053,47.54061230000001,7.5975674,
Oberegg,9413,47.4174975,9.5492752,
Oberried am Brienzersee,3854,46.75710609999999,7.961722499999999,
Basel,4002,46.818188,8.227511999999999,
Ins,3232,46.9986247,7.1092545,
Krinau,9622,47.3131873,9.0428982,
Lenggenwil,9525,47.4730205,9.1434593,
Maschwanden,8933,47.234526,8.4311306,
Glarus,8750,47.0279738,8.982672299999999,
Rheinfelden,4310,47.5520509,7.812721,
Buchs,9470,47.16972879999999,9.4752513,
Frauenfeld,8500,47.5624565,8.8883133,
Genthod,1294,46.818188,8.227511999999999,
Sempach,6204,47.14074189999999,8.201868,
Mühleberg,3203,46.9596448,7.263253799999999,
Hermetschwil-Staffeln,5626,47.3294732,8.3443004,
Herdern,8535,47.60986680000001,8.9155559,
Rueun,7156,46.8254657,9.1301918,
Ueberstorf,3182,46.8681291,7.321717899999999,
Ftan,7551,46.8451715,10.2202199,
Wiedlisbach,4537,47.2480297,7.64602,
Egnach,9322,47.5458023,9.374761999999999,
Oberriet,9463,47.320266,9.567072999999999,
Wangs,7323,47.0125249,9.4166632,
Naters,3904,46.3386976,7.9851752,
La Chaux-de-Fonds,2300,47.11767829999999,6.8405667,
Wittnau,5064,47.4824671,7.9622572,
Wernetshausen,8342,47.294371,8.8747631,
Thun,3601,46.818188,8.227511999999999,
Baar,6340,47.2003879,8.526752799999999,
Seeberg,3365,47.1485054,7.666756,
Hörhausen,8507,47.635113,8.9729502,
Schötz,6247,47.1661745,7.9814981,
Trogne,1969,46.818188,8.227511999999999,
Düdingen,3186,46.8422421,7.1925093,
Ichertswil,4571,47.16193819999999,7.5013284,
Dallenwil,6383,46.917998,8.370464,
Le Brassus,1348,46.818188,8.227511999999999,
Lotzwil,4932,47.1887526,7.7967202,
Moerschwil,9402,47.4697047,9.4270931,
Wetzikon,8620,47.32225469999999,8.801023599999999,
Beggingen,8228,47.7671998,8.5449772,
Rüegsbach,3418,47.0483896,7.6989902,
Veltheim,5106,47.42956849999999,8.1526128,
Lavin,7543,46.77578760000001,10.1211752,
Rickenbach,6221,47.2227566,8.1534441,
Vernier,1214,46.2153264,6.0819838,
Zollikofen,3052,46.9926405,7.456979099999999,
Niederuzwil,9244,47.4457939,9.1439182,
Fanas,7215,47.0095626,9.685711399999999,
Laax,7031,46.8140077,9.2719477,
Breitenbach,4226,47.40902639999999,7.554948800000001,
Edlibach,6313,47.1758438,8.5919634,
Gommiswald,8737,47.22842079999999,9.0250434,
Tafers,1712,46.818188,8.227511999999999,
Flawil,9230,47.4103868,9.1848747,
Bex,1880,46.818188,8.227511999999999,
Sent,7554,46.8131893,10.357203,
Ebnat-Kappel,9642,47.2522495,9.1275795,
Rafz,8197,47.6083878,8.546168999999999,
Mühlau,5642,47.2353884,8.386068999999999,
Cadro,6965,46.0441296,8.9971402,
Wald,8636,47.2832038,8.9231923,
Mellikon,5465,47.561336,8.345768699999999,
Vaz/Obervaz,7082,46.6956105,9.524194999999999,
Rohrbach,4938,47.1197698,7.8015921,
Rüeggisberg,3088,46.8304487,7.452386,
Menznau,6122,47.0738989,8.0390977,
Pfäffikon,8330,47.3722412,8.7921111,
Marbach,6196,46.85393639999999,7.900123400000001,
Rohrbach,4938,47.1197698,7.8015921,
Tuttwil,9546,47.4786271,8.9480706,
Zollikerberg,8125,47.3446955,8.6037319,
Perly-Certoux,1258,46.818188,8.227511999999999,
Haslen,9054,47.3676515,9.368072399999999,
Leibstadt,5325,47.5883706,8.1771356,
Troistorrents,1872,46.818188,8.227511999999999,
Wichtrach,3114,46.84201270000001,7.5727407,
Bubendorf,4416,47.4486514,7.7362564,
Mörschwil,9402,47.4697047,9.4270931,
Lanzenhäusern,3148,46.8434208,7.3650479,
Ipsach,2563,47.1157594,7.229687800000001,
Homburg,8508,47.6322613,9.0091503,
Ramsen,8262,47.7073214,8.8102584,
Malters,6102,47.03428479999999,8.1831137,
Zürich,8055,47.3627973,8.4936631,
Untersiggenthal,5417,47.510648,8.2609423,
Zunzgen,4455,47.4446465,7.795205299999999,
Marin-Epagnier,2074,47.007248,7.0091756,
Romanel-sur-Lausanne,1032,46.5644263,6.6088103,
Küblis,7240,46.9178837,9.7833466,
Ebersecken,6245,47.1790691,7.937291399999999,
Arezen,7104,46.7692155,9.3422036,
Puidoux,1070,46.818188,8.227511999999999,
Ftan,7551,46.8451715,10.2202199,
Winterthur,8408,47.5086606,8.6873516,
Ballwil,6275,47.1505786,8.3369485,
Schlieren,8952,47.3983398,8.446563099999999,
Ernen,3995,46.4014185,8.190234499999999,
Goldingen,8638,47.2794582,8.9709262,
Eriswil,4952,47.0668953,7.858390600000001,
Ebnat-Kappel,9642,47.2522495,9.1275795,
Schönried,3778,46.5219664,7.2678235,
Samedan,7503,46.5507328,9.7970753,
Matzendorf,4713,47.30830599999999,7.6264821,
Flumserberg,8896,47.097108,9.3129846,
Mötschwil,3324,47.0488621,7.5453082,
Hagendorn,6332,47.2100425,8.4298939,
Ziegelbrücke,8866,47.1369139,9.0630186,
Altstätten,9450,47.3700789,9.5549856,
Ballwil,6275,47.1505786,8.3369485,
Le Noirmont,2340,47.2100662,6.9331423,
Elsau,8352,47.49947969999999,8.8071463,
Hildisrieden,6024,47.14866010000001,8.228173,
Au,9434,47.4295975,9.6404297,
Adligenswil,6043,47.07123439999999,8.3657653,
Rheinfelden,4310,47.5520509,7.812721,
Rheinfelden,4310,47.5520509,7.812721,
Belfaux,1782,46.818188,8.227511999999999,
Sünikon,8162,47.4975846,8.4396233,
Andhausen,8572,47.579162,9.177825499999999,
Ernetschwil,8725,47.2451799,8.9998043,
Weite,9476,47.0987906,9.500691900000001,
Gossau,9200,47.4151524,9.248133600000001,
Uetendorf,3661,46.7735068,7.577952199999999,
Bachs,8164,47.5274835,8.4363356,
Lyss,3250,47.0735637,7.3159537,
Thayngen,8240,47.7447496,8.7107153,
Goldingen,8638,47.2794582,8.9709262,
Bremgarten,3047,46.9802762,7.435868999999999,
Bischofszell,9220,47.4963339,9.2530361,
Heiden,9410,47.441412,9.5293867,
Schattdorf,6467,46.8526903,8.6564526,
Marly,1723,46.818188,8.227511999999999,
Aetigkofen,4583,47.1319591,7.4727155,
Seelisberg,6377,46.9614316,8.5753299,
Thalwil,8800,47.2913265,8.5602201,
Effretikon,8307,47.42868439999999,8.6995151,
Dättlikon,8421,47.5259604,8.6222245,
Mamishaus,3152,46.8157814,7.378346700000001,
Ennetmoos,6372,46.9405596,8.329259200000001,
Buchs,9470,47.16972879999999,9.4752513,
Hatswil,8580,47.5500718,9.292343299999999,
Heitenried,1714,46.8305302,7.300363,
Gossau,9200,47.4151524,9.248133600000001,
Rüthi,9464,47.29429460000001,9.5170511,
Gals,3238,47.0317689,7.0473592,
Diepoldsau,9444,47.382165,9.646025,
Wildhaus,9658,47.213651,9.360623499999999,
Longirod,1261,46.818188,8.227511999999999,
Mattstetten,3322,47.0223166,7.5028673,
Kölliken,5742,47.330842,8.015926,
Berg TG,8572,47.579162,9.177825499999999,
Oberuzwil,9242,47.4279701,9.1196722,
Utzenstorf,3427,47.125834,7.5657815,
Kirchberg,9533,47.4175617,9.033230999999999,
Aesch,6287,47.2583926,8.2389682,
Oppligen,3629,46.811766,7.5881589,
Auswil,4944,47.1366103,7.841953199999999,
Cottens,1741,47.4254273,9.3785621,
Muri,5630,47.2782305,8.3382955,
Sion,1950,46.818188,8.227511999999999,
Pampigny,1142,46.818188,8.227511999999999,
Allschwil,4123,47.5411636,7.533236499999999,
Schongau,6288,47.2632675,8.2735466,
Vicques,2824,47.35118000000001,7.423473099999999,
Gstaad,3780,46.4722047,7.289759900000001,
Wängi,9545,47.4969835,8.9661862,
Bonstetten,8906,47.3176744,8.4710539,
Seedorf,3267,47.0239748,7.3266996,
Steffisburg,3613,46.7734044,7.6160391,
Mels,8887,47.0437983,9.4240041,
Erlenbach,8703,47.3052713,8.603926099999999,
Oberiberg,8843,47.030662,8.759293999999999,
Wolfertswil,9116,47.3911364,9.178629599999999,
Homburg,8508,47.6322613,9.0091503,
Seon,5703,47.3506042,8.154067999999999,
Gossau,9200,47.4151524,9.248133600000001,
Yverdon-les-Bains,1400,46.818188,8.227511999999999,
Wauwil,6242,47.18212949999999,8.033870799999999,
Le Cerneux-Veusil,2345,47.2123237,7.003925600000001,
Le Cerneux-Veusil,2345,47.2123237,7.003925600000001,
Les Ponts-de-Martel,2316,46.9926719,6.7234913,
Wittnau,5064,47.4824671,7.9622572,
Schönengrund,9105,47.3276201,9.2318877,
Andelfingen,8450,47.5909521,8.678859,
Puidoux,1070,46.818188,8.227511999999999,
Carrouge,1084,46.818188,8.227511999999999,
Lohn-Ammannsegg,4573,47.1700441,7.5271691,
Le Prese,7746,46.28764169999999,10.0876371,
Wattwil,9630,47.2901615,9.0845857,
Grossaffoltern,3257,47.0705883,7.362277299999999,
Reinach,5734,47.2604383,8.1763195,
Raron,3942,46.3367598,7.804152599999998,
Baar,6340,47.2003879,8.526752799999999,
Schaffhausen,8200,47.7114176,8.626544899999999,
Zweisimmen,3770,46.5761908,7.4034662,
Muri,5630,47.2782305,8.3382955,
Zell,6144,47.139762,7.938244600000001,
Galmiz,3285,46.9572992,7.145652699999999,
Klingnau,5313,47.5898545,8.2597033,
Paspels,7417,46.7481488,9.442593700000002,
Cham,6330,47.200425,8.4602565,
Niederhasli,8155,47.4747169,8.481547899999999,
Domat / Ems,7013,46.8184137,9.455807799999999,
Steinach,9323,47.4985985,9.436729099999999,
Vuarrens,1418,46.818188,8.227511999999999,
Le Monr-sur-Lausanne,1052,46.818188,8.227511999999999,
Steinhuserberg,6114,47.0442717,8.0426395,
Engelburg,9032,47.444623,9.3412872,
Zollikofen,3052,46.9926405,7.456979099999999,
Baden,5400,46.818188,8.227511999999999,
Rüedisbach,3474,47.1164877,7.7055964,
Dulliken,4657,47.3454398,7.9479082,
Dürnten,8635,47.2800886,8.836721599999999,
Cresta (Avers),7447,46.4574928,9.5229094,
St.Gallen,9011,47.41196180000001,9.4078687,
Zuzwil,9524,47.4759087,9.1073638,
Zuzwil,9524,47.4759087,9.1073638,
Ebikon,6030,47.08164499999999,8.3407354,
Sins,5643,47.19909879999999,8.3783604,
Steckborn,8266,47.6616993,8.977273799999999,
Schlieren,8952,47.3983398,8.446563099999999,
Einsiedeln,8840,47.1109258,8.735636399999999,
Lamboing,2516,47.1230826,7.1521946,
Russikon,8332,47.3955327,8.777935900000001,
Trasadingen,8219,47.6692974,8.4266051,
Cimalmotto,6684,46.2687142,8.486097599999999,
Wald,8636,47.2832038,8.9231923,
Wohlen,5610,47.3508817,8.2870507,
Delémont,2800,47.3668919,7.3324722,
Les Moulins,1660,46.818188,8.227511999999999,
Porrentruy,2900,46.818188,8.227511999999999,
Steinhuserberg,6114,47.0442717,8.0426395,
Petit-Lancy,1213,46.1945732,6.1110751,
Echandens,1026,46.5371222,6.5369124,
Basel,4058,47.5656032,7.611773100000001,
Kerns,6064,46.9040003,8.2946543,
Praden,7063,46.8179928,9.577639099999999,
Wohlen b. Bern,3033,46.9736918,7.348957200000001,
Würenlos,5436,47.4439694,8.3628843,
Fanas,7215,47.0095626,9.685711399999999,
Aesch,8904,47.33783529999999,8.4315833,
Stans,6370,46.95191089999999,8.374485199999999,
Gossau,9200,47.4151524,9.248133600000001,
Altdorf,6460,46.9022037,8.6475262,
Murzelen,3034,46.9759147,7.314321100000001,
Olten,4601,46.818188,8.227511999999999,
Dottikon,5605,47.3762402,8.2430298,
Sirnach,8370,47.4642575,9.005042399999999,
Ursenbach,4937,47.1317801,7.7691923,
Saxon,1907,46.818188,8.227511999999999,
La Chaux-De-Fonds,2300,47.11767829999999,6.8405667,
Trachslau,8840,47.1109258,8.735636399999999,
Kesswil,8593,47.58552539999999,9.3133194,
Ottikon b. Kempthal,8307,47.42868439999999,8.6995151,
Lieli,6277,47.195681,8.2958498,
Gams,9473,47.2077199,9.432517599999999,
Seengen,5707,47.3270712,8.2076206,
Ernetschwil,8725,47.2451799,8.9998043,
Unterseen,3800,46.6871831,7.848015299999999,
Oberthal,3531,46.922051,7.688424299999999,
Brugg,5200,47.4824134,8.2072208,
Schwarzenbach,4953,47.1065107,7.827950899999999,
Gunzgen,4617,47.3111104,7.8393871,
Thayngen,8240,47.7447496,8.7107153,
Gwatt,3645,46.71234519999999,7.620188300000001,
Zuckenriet,9526,47.4886845,9.163965600000001,
Riedtwil,3475,47.1443331,7.692357899999999,
Niederwil,9203,47.4286738,9.203154099999999,
Mörschwil,9402,47.4697047,9.4270931,
Oberwil bei Büren,3298,47.1357446,7.414608199999999,
Turtmann,3946,46.818188,8.227511999999999,
Corcelles,2747,47.29672919999999,7.5043034,
Arth,6415,47.076418,8.5437967,
Braunau,9502,47.4990318,9.065437,
Ruswil,6017,47.08397739999999,8.1263259,
Donat,7433,46.6243833,9.3852359,
Wohlen,5610,47.3508817,8.2870507,
Lax,3994,46.3985143,8.0956077,
Gais,9056,47.3675181,9.4673559,
Mühledorf,3116,46.8148227,7.542035999999999,
Lobsigen,3268,47.0158386,7.301108999999999,
Oberbussnang,9565,47.5489855,9.0907244,
Sursee,6210,47.17714729999999,8.1043593,
Opfikon,8152,47.4289624,8.5653092,
Rehetobel,9038,47.4262023,9.474608,
Hirzel,8816,47.21952779999999,8.5991509,
Flumserberg,8896,47.097108,9.3129846,
Beromünster,6215,47.219381,8.200569999999999,
Vattiz,7146,46.7106708,9.132503999999999,
Linden,3673,46.84903689999999,7.6863534,
Neuenegg,3176,46.9087039,7.297048099999999,
Kreuzlingen,8280,47.6400624,9.1603602,
Gelterkinden,4460,47.4599679,7.8595619,
Büren an der Aare,3294,47.1393833,7.374698100000001,
Geltwil,5637,47.2303776,8.3458451,
Affoltern,3416,47.06603870000001,7.7274954,
Baar,6340,47.2003879,8.526752799999999,
Ried-Brig,3911,46.3070994,8.0229383,
Kerns,6064,46.9040003,8.2946543,
St. Ursen,1717,46.818188,8.227511999999999,
Kappel,4616,47.3221701,7.8574229,
Kappel,4616,47.3221701,7.8574229,
Elgg,8353,47.4948363,8.8671066,
Aesch bei Neftenbach,8412,47.5500604,8.663269,
Deisswil,3053,47.0217671,7.450329299999999,
Hittnau,8335,47.3694743,8.8279385,
Gimel,1188,46.52802459999999,6.2678695,
Russikon,8332,47.3955327,8.777935900000001,
Langnau,6262,47.22983809999999,7.948509700000001,
Fulenbach,4629,47.2843652,7.8349936,
La Roche,1634,46.6967683,7.138061599999999,
Uesslingen,8524,47.5864622,8.8342485,
Sarnen,6060,46.9038736,8.2289979,
Homburg,8508,47.6322613,9.0091503,
Liestal,4410,47.4889962,7.7232323,
Hergiswil b. Willisau,6133,47.0648206,7.959008,
Trachslau,8840,47.1109258,8.735636399999999,
Erlenbach,8703,47.3052713,8.603926099999999,
Gossau,9200,47.4151524,9.248133600000001,
Schwanden,8762,46.98465059999999,9.0964464,
Beromünster,6215,47.219381,8.200569999999999,
Hinwil,8340,47.2993227,8.8427233,
Gunzwil,6222,47.1921984,8.1686856,
Löhningen,8224,47.7071391,8.5514417,
Cremin,1526,46.818188,8.227511999999999,
Au,9434,47.4295975,9.6404297,
Molinis,7056,46.82146729999999,9.6521454,
Waltenschwil,5622,47.3329265,8.2969192,
Eschenz,8264,47.6329746,8.873453999999999,
Lütisburg-Station,9601,47.382695,9.0681987,
Deitingen,4543,47.2198713,7.6265451,
Wiezikon b. Sirnach,8372,47.4459199,8.9869105,
Greifensee,8606,47.36992,8.693687299999999,
Burgistein,3664,46.7883941,7.499885099999999,
Davos Dorf,7260,46.7757476,9.8997731,
Rengg,6162,46.9748961,8.124259499999999,
Bözen,5076,47.4961396,8.0839609,
Sursee,6210,47.17714729999999,8.1043593,
Teufen,9053,47.3927275,9.401474499999999,
Auw,5644,47.2170135,8.368566699999999,
Schachen,6105,47.0280423,8.133511799999999,
Le Prese,7746,46.28764169999999,10.0876371,
Ormalingen,4466,47.4710544,7.877688000000001,
Heiligenschwendi,3625,46.7544327,7.681351599999999,
Gy,1251,46.818188,8.227511999999999,
Dotzigen,3293,47.122821,7.349281299999999,
Beinwil am See,5712,47.26575949999999,8.2049532,
Schönried,3778,46.5219664,7.2678235,
CH-Neudorf,6025,47.1791998,8.2129935,
Eriz,3619,46.782231,7.8094744,
Schenkon,6214,47.1850966,8.130626,
Rüttenen,4522,47.24536819999999,7.5382485,
Waldkirch,9205,47.4613393,9.2879882,
Oberuzwil,9242,47.4279701,9.1196722,
Cernier,2053,46.818188,8.227511999999999,
Küsnacht,8700,47.3184279,8.5927209,
Aathal-Seegräben,8607,47.3442643,8.77122,
Vuarrens,1418,46.818188,8.227511999999999,
Menznau,6122,47.0738989,8.0390977,
Wädenswil,8820,47.2255535,8.6495094,
Enggistein,3077,46.9304589,7.5992916,
Ranflüh,3439,46.98904049999999,7.7450378,
Grüningen,8627,47.2759848,8.762288999999999,
Hüttlingen,8553,47.5751933,8.9786521,
Herbligen,3671,46.8197981,7.613793800000001,
Schinznach-Dorf,5107,47.4602684,8.137235800000001,
Rheinfelden,4310,47.5520509,7.812721,
Rheinfelden,4310,47.5520509,7.812721,
Fully,1926,46.818188,8.227511999999999,
Lütisburg,9604,47.39691269999999,9.1065939,
Guntalingen,8468,47.6316606,8.7621018,
Küblis,7240,46.9178837,9.7833466,
Birmenstorf,5413,47.4611479,8.246021299999999,
Birmenstorf,5413,47.4611479,8.246021299999999,
Buttisholz,6018,47.114231,8.0923935,
Jenaz,7233,46.8954813,9.701939999999999,
St. Ursen,1717,46.818188,8.227511999999999,
Thundorf,8512,47.5452593,8.9814925,
Rüttenen,4522,47.24536819999999,7.5382485,
Solothurn,4500,47.20677509999999,7.5280105,
Wahlen,4246,47.394982,7.506457999999999,
Sonterswil,8564,47.6168492,9.078491399999999,
Gossau,9200,47.4151524,9.248133600000001,
Lax,3994,46.3985143,8.0956077,
Lamboing,2516,47.1230826,7.1521946,
Lamboing,2516,47.1230826,7.1521946,
Kriens,6010,47.0223002,8.2813683,
Zug,6300,47.15582999999999,8.5314882,
Heitenried,1714,46.8305302,7.300363,
Bauma,8494,47.3648348,8.8876841,
Doppleschwand,6112,47.014662,8.0461732,
La Ferrière,2333,47.1476435,6.9120839,
Flums,8890,47.0925191,9.3390396,
Uetikon am See,8707,47.269647,8.6842566,
Kägiswil,6056,46.9191374,8.2543049,
Pratteln,4133,47.52046790000001,7.695735300000001,
Yverdon-les-bains,1400,46.818188,8.227511999999999,
Schüpfheim,6170,46.9431775,8.019995999999999,
Eschlikon,8360,47.4600973,8.9637335,
Schwyz,6430,47.0326445,8.6692757,
Vich,1267,46.818188,8.227511999999999,
Ennetmoos,6372,46.9405596,8.329259200000001,
Bisikon,8307,47.42868439999999,8.6995151,
Steinmaur,8162,47.4975846,8.4396233,
Beringen,8222,47.705337,8.575483799999999,
Meyrin,1217,46.2349075,6.074979099999999,
Maur,8124,47.3344719,8.673678299999999,
Roggwil,4914,47.2361376,7.8216909,
Wald,9044,47.4135686,9.507596999999999,
Oberegg,9413,47.4174975,9.5492752,
Märstetten,8560,47.5878496,9.069190299999999,
Untervaz,7204,46.9263513,9.5102575,
Anwil,4469,47.4542491,7.942283100000001,
Genf,1224,46.1976731,6.1872455,
Tafers,1712,46.818188,8.227511999999999,
Au,9434,47.4295975,9.6404297,
Uetikon,8707,47.269647,8.6842566,
Assens,1042,46.818188,8.227511999999999,
Grimisuat,1971,46.818188,8.227511999999999,
Einsiedeln,8840,47.1109258,8.735636399999999,
Avenches,1580,46.818188,8.227511999999999,
Müstair,7537,46.5610662,10.3390553,
Stalden,6063,46.8949708,8.149002099999999,
Entlebuch,6162,46.9748961,8.124259499999999,
Iselisberg,8524,47.5864622,8.8342485,
Sevelen,9475,47.1251828,9.478797199999999,
Pfyn,8505,47.6070377,8.9517001,
Biezwil,4585,47.1157248,7.4211917,
Poschiavo,7742,46.39825339999999,10.0966442,
Hofstatt,6154,47.083696,7.8987574,
Orvin,2534,47.15574460000001,7.1780636,
Uebeschi,3635,46.7389972,7.548272600000001,
Seewis Dorf,7212,47.0136232,9.637891699999999,
Bad Ragaz,7310,46.99376549999999,9.4655155,
Oberembrach,8425,47.4929661,8.6335874,
Le Lignon,1219,46.818188,8.227511999999999,
Spreitenbach,8957,47.4141202,8.3662195,
Malans,7208,46.994323,9.5760568,
Rieden,8739,47.23159219999999,9.0780576,
Eppenberg,5012,47.3702956,8.0150416,
Rosshäusern,3204,46.9293689,7.278932999999999,
Scheuren,2556,47.1224589,7.3167662,
Giswil,6074,46.828877,8.118184399999999,
Hüttlingen,8553,47.5751933,8.9786521,
Münchenstein,4142,47.51813110000001,7.620042300000001,
Burgdorf,3400,46.818188,8.227511999999999,
Altstätten,9450,47.3700789,9.5549856,
Martigny,1920,46.818188,8.227511999999999,
Inwil,6034,47.1287795,8.366640199999999,
Monthey,1870,46.818188,8.227511999999999,
Aeschi,3703,46.6156611,7.757983599999999,
Winterthur,8404,47.5234114,8.7531993,
Root,6037,47.109598,8.3940725,
Buochs,6374,46.9684622,8.415329,
Meyrin,1217,46.2349075,6.074979099999999,
St. Erhard,6212,47.1822578,8.0668541,
Provence,1428,32.5706201,-117.0920723,
Alikon / Sins,5643,47.19909879999999,8.3783604,
Werthenstein,6106,47.0497303,8.1038793,
Rothenburg,6023,47.1024566,8.2567703,
Zug,6300,47.15582999999999,8.5314882,
Kesswil,8593,47.58552539999999,9.3133194,
Schönenberg,8824,47.196726,8.6407173,
Stalden,3922,46.23281859999999,7.869854399999999,
Stalden,3922,46.23281859999999,7.869854399999999,
Büren zum Hof,3313,47.0974263,7.513861200000001,
Altstätten,9450,47.3700789,9.5549856,
Winden,9315,47.52385719999999,9.3705949,
Oberhofen,3653,46.7353271,7.6761901,
Birmensdorf,8903,47.3597495,8.4350703,
Benken,8717,47.1892867,8.991218,
Rheinfelden,4310,47.5520509,7.812721,
Rheinfelden,4310,47.5520509,7.812721,
Tramelan,2720,47.2180065,7.1231133,
Le Noirmont,2340,47.2100662,6.9331423,
Wislikofen,5463,47.5547483,8.3682055,
Matzendorf,4713,47.30830599999999,7.6264821,
Seewen,6423,47.0309883,8.626532599999999,
Le Cerneux-Veusil,2345,47.2123237,7.003925600000001,
Steinach,9323,47.4985985,9.436729099999999,
Villarlod,1695,46.818188,8.227511999999999,
Klosters Dorf,7252,46.9075406,9.902837900000002,
Nürensdorf,8309,47.4621796,8.6486513,
Dietikon,8953,47.4018479,8.399013799999999,
Ebersecken,6245,47.1790691,7.937291399999999,
Walterswil,5746,47.3271062,7.963791199999999,
Zignau,7167,46.7347635,9.013604299999999,
Hellbühl,6016,47.0726649,8.194188,
Genolier,1272,46.818188,8.227511999999999,
Sursee,6210,47.17714729999999,8.1043593,
Villaz-St-Pierre,1690,46.818188,8.227511999999999,
Kiesen,3629,46.811766,7.5881589,
Recherswil,4565,47.1602107,7.6016374,
Farden,7433,46.6243833,9.3852359,
Basel,4053,47.54061230000001,7.5975674,
Mörschwil,9402,47.4697047,9.4270931,
Visperterminen,3932,46.2602944,7.903023999999999,
Laax,7031,46.8140077,9.2719477,
Trübbach,9477,47.07754080000001,9.4904919,
Menzingen,6313,47.1758438,8.5919634,
Rickenbach,6221,47.2227566,8.1534441,
Engishofen,8586,47.5456562,9.2161258,
Mettmenstetten,8932,47.2437564,8.4626854,
Jonschwil,9243,47.42772,9.0918706,
Weiningen,8104,47.42159849999999,8.4322173,
Kiesen,3629,46.811766,7.5881589,
Ricketwil,8352,47.49947969999999,8.8071463,
Villmergen,5612,47.3446612,8.236875,
Rapperswil,3255,47.0638504,7.4104389,
Rüthi,9464,47.29429460000001,9.5170511,
Rüthi,9464,47.29429460000001,9.5170511,
Ebikon,6030,47.08164499999999,8.3407354,
Muttenz,4132,47.5236348,7.6485345,
Schmitten,7493,46.7015696,9.6844931,
Waldkirch,9205,47.4613393,9.2879882,
Bottmingen,4103,47.52087239999999,7.57879,
Gams,9473,47.2077199,9.432517599999999,
Li Curt,7745,46.3011983,10.0438912,
Risch (ZG),6343,47.1427744,8.4430747,
Jaun,1656,46.818188,8.227511999999999,
Dotzigen,3293,47.122821,7.349281299999999,
Rossrüti,9512,47.478784,9.071283099999999,
Fahrwangen,5615,47.2877225,8.2414609,
Münchenstein,4142,47.51813110000001,7.620042300000001,
Sempach,6204,47.14074189999999,8.201868,
Erlinsbach,5015,47.4009409,7.999605099999999,
Oberbüren,9245,47.4518136,9.161289199999999,
Diessbach,3264,47.10021589999999,7.358168999999999,
Köniz,3098,46.91087400000001,7.4148002,
Schüpfen,3054,47.030614,7.375456199999999,
Iffwil,3305,47.0638173,7.466611899999999,
Sementina,6514,46.1908849,8.966719099999999,
Meyrin,1217,46.2349075,6.074979099999999,
Ettiswil,6218,47.1462565,8.0207316,
Zielebach,4564,47.1617596,7.578323,
Weinfelden,8570,47.569994,9.1067558,
Wettingen,5430,47.4650388,8.344792,
Wolfwil,4628,47.2700883,7.792196300000001,
Zuchwil,4528,47.2044642,7.563005599999999,
Mötschwil,3324,47.0488621,7.5453082,
Dietikon,8953,47.4018479,8.399013799999999,
Thun-Allmendingen,3608,46.7407213,7.595570500000001,
Spreitenbach,8957,47.4141202,8.3662195,
Aeschi,4556,47.1781859,7.6628849,
Sent,7554,46.8131893,10.357203,
Unterentfelden,5035,47.37084309999999,8.042295,
Retschwil,6285,47.222562,8.2586694,
Uster,8610,47.3479211,8.723527599999999,
Saulcy,2873,47.308024,7.1752571,
Wil,8196,47.6110714,8.510228099999999,
Klingnau,5313,47.5898545,8.2597033,
Villars-Sainte-Croix,1029,35.4552222,-97.74415289999999,
Wettingen,5430,47.4650388,8.344792,
Oberegg,9413,47.4174975,9.5492752,
Winterthur,8404,47.5234114,8.7531993,
Winterthur,8404,47.5234114,8.7531993,
Winterthur,8404,47.5234114,8.7531993,
Rohrmatt,6132,47.0861038,7.987343199999999,
Erlenbach,3762,46.6640465,7.5429935,
Gontenschwil,5728,47.2629664,8.1409416,
Chavannes-de-Bogis,1279,46.818188,8.227511999999999,
Belp,3123,46.895252,7.5046295,
Biberist,4562,47.1859517,7.5462127,
Steinhausen,6312,47.1986689,8.4839055,
Ufhusen,6153,47.1037285,7.892416300000001,
Scheuren,2556,47.1224589,7.3167662,
Meilen,8706,47.28415680000001,8.6552506,
Bangerten b. Dieterswil,3256,47.0557112,7.440894,
Tann,8632,47.2669166,8.8478624,
Bibern,8242,47.77443359999999,8.6797167,
Seuzach,8472,47.5349127,8.7322083,
Lausanne,1000,46.818188,8.227511999999999,
Les Thioleyres,1607,46.818188,8.227511999999999,
Uznach,8730,47.2295522,8.979565299999999,
Bretzwil,4207,47.3953234,7.649900199999999,
Frutigen,3714,46.5992099,7.6424435,
Fully,1926,46.818188,8.227511999999999,
Malters,6102,47.03428479999999,8.1831137,
Schafisheim,5503,47.3774707,8.1428446,
Noflen,3116,46.8148227,7.542035999999999,
Aesch,6287,47.2583926,8.2389682,
Ried-Mörel,3986,46.3526497,8.027042,
Im Fang,1656,46.818188,8.227511999999999,
Recherswil,4565,47.1602107,7.6016374,
Donat,7433,46.6243833,9.3852359,
Cugy,1482,46.8068026,6.8991473,
Falera,7153,46.818806,9.2128547,
Sumiswald,3454,47.028436,7.744630199999999,
Sempach,6204,47.14074189999999,8.201868,
Nohl,8212,47.6832234,8.6056599,
Zuzwil,9524,47.4759087,9.1073638,
Kerns,6064,46.9040003,8.2946543,
Menziken,5737,47.2394831,8.194346699999999,
Balerna,6828,45.84178199999999,9.009471099999999,
Lommiswil,4514,47.23066009999999,7.463138900000001,
Morissen,7143,46.7341896,9.1733076,
Davos Dorf,7260,46.7757476,9.8997731,
Eclépens,1312,46.818188,8.227511999999999,
Renens,1020,46.53643779999999,6.5909099,
Müllheim,8555,47.6032456,8.9999158,
Basadingen,8254,47.6625646,8.747026,
Rances,1439,46.818188,8.227511999999999,
Pfyn,8505,47.6070377,8.9517001,
Wohlen b. Bern,3033,46.9736918,7.348957200000001,
Kleinbösingen,3213,46.9078925,7.1945314,
Reckingen,3998,46.4592672,8.2598737,
Steffisburg,3613,46.7734044,7.6160391,
Rain,6026,47.1365002,8.2606764,
Dietschwil,9533,47.4175617,9.033230999999999,
Müselbach,9602,47.403381,9.0563744,
Herrliberg,8704,47.2955821,8.6344146,
Necker,9126,47.3432806,9.1293018,
Hedingen,8908,47.2992865,8.4534407,
Oberriet,9463,47.320266,9.567072999999999,
Thayngen,8240,47.7447496,8.7107153,
Eriswil,4952,47.0668953,7.858390600000001,
Wuppenau,9514,47.4961569,9.1015365,
Hauptwil,9213,47.4813863,9.254336,
Müstair,7537,46.5610662,10.3390553,
Rennaz,1847,46.818188,8.227511999999999,
Diemtigen,3754,46.64598729999999,7.5643548,
Steinhausen,6312,47.1986689,8.4839055,
Küssnacht,6403,47.0738515,8.4466485,
Kirchberg,3422,47.08242329999999,7.592681699999999,
Zuoz,7524,46.5782784,9.983524899999999,
Samedan,7503,46.5507328,9.7970753,
Basel,4053,47.54061230000001,7.5975674,
Herdern,8535,47.60986680000001,8.9155559,
Pfäffikon,8808,47.1954521,8.7860397,
Pfäffikon,8808,47.1954521,8.7860397,
Rovray,1463,46.818188,8.227511999999999,
Attiswil,4536,47.2503721,7.610934299999999,
Cortaillod,2016,46.818188,8.227511999999999,
Neu St. Johann,9652,47.2400076,9.1880199,
Kriens,6010,47.0223002,8.2813683,
Günsberg,4524,47.2631299,7.566750799999999,
Matten i/s,3773,46.5145991,7.4570245,
Wisen,4634,47.3960399,7.892931699999999,
Diepoldsau,9444,47.382165,9.646025,
Ziegelbrücke,8866,47.1369139,9.0630186,
Aeschi bei Spiez,3703,46.6156611,7.757983599999999,
Deitingen,4543,47.2198713,7.6265451,
Hauenstein,4633,47.3686646,7.8613062,
Münsingen,3110,46.8722757,7.5572966,
Tägerwilen,8274,47.647322,9.1316841,
Basadingen,8254,47.6625646,8.747026,
Gohl,3553,46.9812891,7.8228805,
Wuppenau,9514,47.4961569,9.1015365,
Utzigen,3068,46.9733542,7.578328300000001,
Schönbühl,3322,47.0223166,7.5028673,
Seehof,2747,47.29672919999999,7.5043034,
Unterkulm,5726,47.3145302,8.1075635,
Amriswil,8580,47.5500718,9.292343299999999,
Herisau,9100,47.3823758,9.286793,
Winterthur,8405,47.4767259,8.781676599999999,
Müllheim,8555,47.6032456,8.9999158,
Tägerwilen,8274,47.647322,9.1316841,
Alberswil,6248,47.1479017,7.9972793,
Säriswil,3049,46.991434,7.3388638,
Lustdorf,8512,47.5452593,8.9814925,
Landiswil,3434,46.95159880000001,7.684611800000001,
Wald,8636,47.2832038,8.9231923,
Herbetswil,4715,47.2921003,7.5744759,
Schnottwil,3253,47.1075994,7.3954659,
Oppligen,3629,46.811766,7.5881589,
Heiden,9410,47.441412,9.5293867,
S. Carlo,7741,46.3502217,10.091699,
Herisau,9100,47.3823758,9.286793,
Münchringen,3303,47.0519193,7.498883799999999,
Büriswilen,9442,47.4246872,9.6107587,
Dietikon,8953,47.4018479,8.399013799999999,
Oberbalm,3096,46.86735239999999,7.4093145,
Bissegg,8514,47.5564231,9.0282404,
Haag SG,9469,47.2080268,9.4880812,
Wasterkingen,8195,47.5943658,8.468506699999999,
Zollbrück,3436,46.9748736,7.7737278,
Lumbrein,7148,46.818188,8.227511999999999,
Kägiswil,6056,46.9191374,8.2543049,
Cunter,7452,46.6086478,9.5914789,
Säriswil,3049,46.991434,7.3388638,
Nebikon LU,6244,47.1932598,7.9801423,
Bernex,1233,46.818188,8.227511999999999,
Othmarsingen,5504,47.4029436,8.2144859,
Trachslau,8840,47.1109258,8.735636399999999,
Alterswil,1715,46.818188,8.227511999999999,
Dreien,9612,47.3528081,9.0095269,
Rütihof,5406,47.4372804,8.2683749,
Sulz,5085,47.532246,8.0972936,
Ettiswil,6218,47.1462565,8.0207316,
Muolen,9313,47.5181777,9.3190716,
Laupersdorf,4712,47.3164003,7.652521500000001,
Kaltbrunn,8722,47.2161875,9.0242024,
Grabs,9472,47.1713913,9.3958216,
Sédeilles,1554,46.818188,8.227511999999999,
Ottoberg,8561,47.5885852,9.091079599999999,
Sulz,5085,47.532246,8.0972936,
Winterthur,8411,46.818188,8.227511999999999,
Küsnacht,8700,47.3184279,8.5927209,
Ruswil,6017,47.08397739999999,8.1263259,
Seewen,6423,47.0309883,8.626532599999999,
La Tour-de-Peilz,1814,46.818188,8.227511999999999,
Dotzigen,3293,47.122821,7.349281299999999,
Heimenhausen,3373,47.21516769999999,7.696684500000001,
Richenthal,6263,47.2087733,7.933639100000001,
L'Orient,1341,46.818188,8.227511999999999,
Avry,1754,46.7883757,7.0707704,
Hittnau,8335,47.3694743,8.8279385,
Würenlos,5436,47.4439694,8.3628843,
Madiswil,4934,47.1582636,7.812176999999999,
Turbenthal,8488,47.4288621,8.8893948,
Montlingen,9462,47.347833,9.5846767,
Villigen,5234,47.5342983,8.2070747,
Freidorf,9306,47.4854814,9.3858009,
Eschenbach,6274,47.1226199,8.316711699999999,
Liestal,4410,47.4889962,7.7232323,
Estavayer-le-Lac,1470,46.818188,8.227511999999999,
Knonau,8934,47.2222792,8.4637564,
Reinach,5734,47.2604383,8.1763195,
Romairon,1423,46.8607158,6.646222,
Schüpfen,3054,47.030614,7.375456199999999,
Winterthur,8400,47.485687,8.7292922,
Villigen,5234,47.5342983,8.2070747,
Lengnau,5426,47.5256823,8.3261442,
Erlach,3235,47.0407715,7.099313299999999,
Gränichen,5722,47.3487239,8.111316000000002,
Chur,7001,46.818188,8.227511999999999,
Säriswil,3049,46.991434,7.3388638,
Saas im Prättigau,7247,46.9169669,9.850702499999999,
Schinznach Dorf,5107,47.4602684,8.137235800000001,
Oberwangen,3173,46.9146033,7.357133299999999,
Unterwasser,9657,47.1931277,9.3108287,
Spiez,3700,46.6901725,7.6610777,
Boll,3067,46.951277,7.5429887,
Palézieux-Village,1607,46.818188,8.227511999999999,
Dürrenroth,3465,47.0813037,7.791030399999999,
Lussy-sur-Morges,1167,46.818188,8.227511999999999,
Scheunen,3305,47.0638173,7.466611899999999,
Schüpfheim,6170,46.9431775,8.019995999999999,
Meggen,6045,47.0502862,8.3675336,
Langenthal,4900,47.2140396,7.7857711,
Eischoll,3943,46.2866395,7.761415700000001,
Brunnen,6440,47.0031577,8.6060223,
Seedorf,3267,47.0239748,7.3266996,
Rumisberg,4539,47.268896,7.6278124,
Seon,5703,47.3506042,8.154067999999999,
Herisau,9100,47.3823758,9.286793,
Rosshäusern,3204,46.9293689,7.278932999999999,
Valchava,7535,46.5996682,10.3963014,
Rossrüti,9512,47.478784,9.071283099999999,
Niederbuchsiten,4626,47.2883757,7.776294799999999,
Hettenschwil,5317,47.5747602,8.1944804,
Gelterkinden,4460,47.4599679,7.8595619,
St.Antoni,1713,46.818188,8.227511999999999,
Muntelier,3286,46.9443579,7.1380209,
Willisau,6130,47.1208406,7.998617100000001,
Matran,1753,46.7853313,7.0909606,
St. Antoni,1713,46.818188,8.227511999999999,
Meggen,6045,47.0502862,8.3675336,
Hauptikon,8926,47.2235656,8.512538,
Zollikon,8702,47.3412216,8.5844266,
Wollerau,8832,47.1934879,8.7155642,
Hittnau,8335,47.3694743,8.8279385,
Gorgier,2023,46.818188,8.227511999999999,
Bützberg,4922,47.2023671,7.740851399999999,
Zwillikon,8909,47.2887811,8.4291134,
Rothenburg,6023,47.1024566,8.2567703,
Steinmaur,8162,47.4975846,8.4396233,
Steinerberg,6416,46.818188,8.227511999999999,
Möhlin,4313,47.5593182,7.8509216,
Mendrisio,6850,45.8729655,8.9782727,
Hofstatt,6154,47.083696,7.8987574,
Rothenthurm,6418,47.10495419999999,8.6853605,
Rheinau,8462,47.6232575,8.6119947,
Uster,8610,47.3479211,8.723527599999999,
Gümligen,3073,46.9336127,7.5147658,
Madiswil,4934,47.1582636,7.812176999999999,
Schangnau,6197,46.8276597,7.8607874,
Aeschi bei Spiez,3703,46.6156611,7.757983599999999,
Kaltbrunn,8722,47.2161875,9.0242024,
Sevelen,9475,47.1251828,9.478797199999999,
Therwil,4106,47.500021,7.5582458,
Fiesch,3984,46.4827768,8.0668078,
Buchberg,8454,47.5757961,8.5516404,
Affeltrangen,9556,47.531803,9.026558699999999,
Fehren,4232,47.3974032,7.5817155,
Gempenach,3215,46.9425842,7.185776000000001,
Bonstetten,8906,47.3176744,8.4710539,
Aigle,1860,46.818188,8.227511999999999,
Grabs,9472,47.1713913,9.3958216,
Schlatt Leuggern,5316,47.5853787,8.218839899999999,
Wattwil,9630,47.2901615,9.0845857,
Sivieriez,1678,46.818188,8.227511999999999,
Wolfhausen,8633,47.256182,8.7957507,
Ollon,1867,46.818188,8.227511999999999,
Ollon,1867,46.818188,8.227511999999999,
Lyss,3250,47.0735637,7.3159537,
Nürensdorf,8309,47.4621796,8.6486513,
Benken,8717,47.1892867,8.991218,
Eggersriet,9034,47.43948169999999,9.463542499999999,
Erlinsbach,5018,47.420277,8.005061099999999,
Altishofen,6246,47.1975095,7.9544123,
Romanel-sur-Morges,1122,46.818188,8.227511999999999,
Wolfertswil,9116,47.3911364,9.178629599999999,
St-Légier-La Chiésaz,1806,46.4961584,6.9044628,
Echallens,1040,46.818188,8.227511999999999,
Buttisholz,6018,47.114231,8.0923935,
Gunzwil,6222,47.1921984,8.1686856,
Watt,8105,47.4360745,8.469988599999999,
Sirnach,8370,47.4642575,9.005042399999999,
Renens,1020,46.53643779999999,6.5909099,
Alpnachstad,6053,46.96917819999999,8.2718593,
Rupperswil,5102,47.4014197,8.1324421,
Yvonand,1462,46.7875494,6.7328091,
Mettmenstetten,8932,47.2437564,8.4626854,
Haslen,9054,47.3676515,9.368072399999999,
Bünzen,5624,47.31850319999999,8.325951,
Jonen,8916,47.300598,8.4023513,
Buchillon,1164,46.818188,8.227511999999999,
Oberdorf,6370,46.95191089999999,8.374485199999999,
Obergurzelen,3663,46.7757953,7.5434028,
Fanas,7215,47.0095626,9.685711399999999,
Ried-Brig,3911,46.3070994,8.0229383,
St. Gallen,9015,47.4080948,9.3045072,
Aarwangen,4912,47.2304921,7.7604525,
Fislisbach,5442,47.436874,8.2909952,
Fulenbach,4629,47.2843652,7.8349936,
Basel,4052,47.5484185,7.610165400000001,
Curtilles,1521,46.818188,8.227511999999999,
Bussy,1541,46.818188,8.227511999999999,
Ruschein,7154,46.8626066,9.1542885,
Bäretswil,8344,47.3368834,8.8666853,
Luzern,6006,47.0493957,8.346261499999999,
Steffisburg,3613,46.7734044,7.6160391,
Sirnach,8370,47.4642575,9.005042399999999,
Bellwald,3997,46.4426193,8.155126899999999,
Udligenswil,6044,47.0895376,8.400167099999999,
Büren an der Aare,3294,47.1393833,7.374698100000001,
Ursenbach,4937,47.1317801,7.7691923,
Nesslau,9650,47.2081104,9.1868699,
Güttingen,8594,47.6003094,9.2840059,
Lommis,9506,47.5143952,8.9963499,
Corminboeuf,1720,46.818188,8.227511999999999,
Baldegg,6283,47.178446,8.2744039,
Gontenbad,9108,47.3135227,9.3443465,
Seewen,4206,47.4251475,7.645970299999999,
Neuendorf,4623,47.2964278,7.802422200000001,
Fällanden,8117,47.3718093,8.6363396,
St-Légier-La Chiésaz,1806,46.4961584,6.9044628,
Saanenmöser,3777,46.5190587,7.313343099999999,
Lanzenhausern,3148,46.8434208,7.3650479,
Rohrbach,4938,47.1197698,7.8015921,
Rohrbach,4938,47.1197698,7.8015921,
Yens,1169,46.52503,6.4090098,
Emmenbrücke,6020,47.0771818,8.2674067,
Hünenberg,6331,47.20392080000001,8.412978899999999,
Murzelen,3034,46.9759147,7.314321100000001,
Entlebuch,6162,46.9748961,8.124259499999999,
Entlebuch,6162,46.9748961,8.124259499999999,
Brunnen,6440,47.0031577,8.6060223,
Ebikon,6030,47.08164499999999,8.3407354,
Schüpfheim,6170,46.9431775,8.019995999999999,
Basadingen,8254,47.6625646,8.747026,
Zug,6300,47.15582999999999,8.5314882,
Wilen,9535,47.4447745,9.032686199999999,
Allmendingen,3112,46.916256,7.5189967,
Benzenschwil,5636,47.2456529,8.3634334,
Merishausen,8232,47.7679909,8.6006501,
Wermatswil,8615,47.3689124,8.7391518,
Rottenschwil,8919,47.315906,8.3614839,
Basel,4056,47.5705771,7.5740645,
Altstätten,9450,47.3700789,9.5549856,
Chandon,1773,46.818188,8.227511999999999,
Matran,1753,46.7853313,7.0909606,
Fischbach,6145,47.1518205,7.9057983,
Unteraegeri,6314,47.1226008,8.5818864,
Schenkon,6214,47.1850966,8.130626,
Le Landeron,2525,47.0599427,7.066049199999999,
Allschwil,4123,47.5411636,7.533236499999999,
Schweizersholz,9223,47.49806969999999,9.2010091,
Malters,6102,47.03428479999999,8.1831137,
Löhningen,8224,47.7071391,8.5514417,
Innerthal,8858,47.0823359,8.9148028,
Vernayaz,1904,46.818188,8.227511999999999,
Charrat,1906,46.818188,8.227511999999999,
Rain,6026,47.1365002,8.2606764,
Sempach-Station,6203,47.1198329,8.2198171,
Urdorf,8902,47.3896332,8.4254552,
Flums,8890,47.0925191,9.3390396,
Schnottwil,3253,47.1075994,7.3954659,
Weinfelden,8570,47.569994,9.1067558,
Boningen,4618,47.3050723,7.8556844,
Winterthur,8405,47.4767259,8.781676599999999,
Bonstetten,8906,47.3176744,8.4710539,
Gossau,9200,47.4151524,9.248133600000001,
Fischingen,8376,47.3986786,8.9596507,
Villars-le-Grand,1584,46.818188,8.227511999999999,
Rheinfelden,4310,47.5520509,7.812721,
Rheinfelden,4310,47.5520509,7.812721,
Affeltrangen,9556,47.531803,9.026558699999999,
Fanas,7215,47.0095626,9.685711399999999,
St.Gallen-Winkeln,9015,47.4080948,9.3045072,
Winterthur Reutlingen,8404,47.5234114,8.7531993,
Tamins,7015,46.8423435,9.4028679,
Aesch,4147,47.4712152,7.583496599999999,
Mönchaltorf,8617,47.308497,8.7235821,
Leytron,1912,46.818188,8.227511999999999,
Horgenberg,8815,47.2479787,8.5804862,
Oberegg,9413,47.4174975,9.5492752,
Jonschwil,9243,47.42772,9.0918706,
Kappel am Albis,8926,47.2235656,8.512538,
Berg,8572,47.579162,9.177825499999999,
Zürich,8005,47.3893214,8.5131587,
Ebnat-Kappel,9642,47.2522495,9.1275795,
Balgach,9436,47.4054637,9.6042275,
Knonau,8934,47.2222792,8.4637564,
Speicher,9042,47.4089697,9.4440431,
Turtmann,3946,46.2981741,7.697909999999999,
Aadorf,8355,47.4893862,8.905344099999999,
Niederneunforn,8525,47.592823,8.783914,
Thun,3608,46.7407213,7.595570500000001,
Thun,3608,46.7407213,7.595570500000001,
Freidorf,9306,47.4854814,9.3858009,
S. Antonino,6592,46.1484312,8.9858554,
Detligen,3036,46.9980831,7.2730819,
Tschugg,3233,47.0225938,7.0772321,
Neftenbach,8413,47.5307206,8.6573543,
Lyssach,3421,47.0657849,7.585278299999999,
Opfikon,8152,47.4289624,8.5653092,
Oberhallau,8216,47.7156066,8.471076499999999,
Vuisternens-en-Ogoz,1696,46.6999066,7.0581245,
Trubschachen,3555,46.9161829,7.846382499999999,
Sursee,6210,47.17714729999999,8.1043593,
Luven,7141,46.7522426,9.191246,
Sarn,7423,46.7168796,9.385581499999999,
Mitlödi,8756,47.0130513,9.078192999999999,
Plaffeien,1716,46.818188,8.227511999999999,
Rheinfelden,4310,47.5520509,7.812721,
Sarnen,6060,46.9038736,8.2289979,
Däniken,4658,47.3534546,7.9741975,
Dizy,1304,46.818188,8.227511999999999,
Flawil,9230,47.4103868,9.1848747,
Steffisburg,3613,46.7734044,7.6160391,
Neuheim,6345,47.2011982,8.581477699999999,
Braunau,9502,47.4990318,9.065437,
Alchenstorf,3473,47.1204052,7.647308799999999,
Puidoux,1070,46.818188,8.227511999999999,
Kallern,5625,47.3136422,8.291278199999999,
Buch bei Märwil,9562,47.5289398,9.0626742,
Zug,6300,47.15582999999999,8.5314882,
Zug,6300,47.15582999999999,8.5314882,
Buttisholz,6018,47.114231,8.0923935,
Zimmerwald,3086,46.8835199,7.460444999999999,
Giswil,6074,46.828877,8.118184399999999,
Hagenbuch,8523,47.5132138,8.8851623,
Kirchberg,3422,47.08242329999999,7.592681699999999,
Niederrohrdorf,5443,47.4215186,8.2986299,
Grandevent,1421,46.818188,8.227511999999999,
Degersheim,9113,47.36995830000001,9.1964005,
Benken,8717,47.1892867,8.991218,
Froideville,1055,46.818188,8.227511999999999,
Gossau,9200,47.4151524,9.248133600000001,
Winikon,6235,47.2302724,8.0475131,
Otelfingen,8112,47.4615504,8.3923945,
Sursee,6210,47.17714729999999,8.1043593,
Ruswil,6017,47.08397739999999,8.1263259,
Thörigen,3367,47.1630398,7.742035699999999,
Schnottwil,3253,47.1075994,7.3954659,
Wichtrach,3114,46.84201270000001,7.5727407,
Gais,9056,47.3675181,9.4673559,
Fleurier,2114,46.8934922,6.584643199999999,
Langenthal,4900,47.2140396,7.7857711,
Aeschi bei Spiez,3703,46.6156611,7.757983599999999,
Appenzell,9050,47.32678900000001,9.4228294,
Luzern,6006,47.0493957,8.346261499999999,
Furna,7232,46.9333514,9.6596705,
Tuggen,8856,47.20307570000001,8.941439899999999,
Liestal,4410,47.4889962,7.7232323,
Eichberg,9453,47.3459394,9.518951999999999,
Wangen b. Dübendorf,8602,47.4130184,8.6458592,
Seon,5703,47.3506042,8.154067999999999,
Muri,5630,47.2782305,8.3382955,
Disentis/Mustér,7180,46.7264799,8.8396253,
Esslingen,8133,47.2918838,8.7154242,
Diegten,4457,47.4140029,7.8107996,
Niederwangen,3172,46.9204976,7.3791793,
Krummenau,9643,47.2601658,9.1822847,
Corcelles-près-Payerne,1562,46.818188,8.227511999999999,
Subingen,4553,47.1979814,7.623639,
Hochdorf,6280,47.15401180000001,8.2898259,
Hochdorf,6280,47.15401180000001,8.2898259,
Ettiswil,6218,47.1462565,8.0207316,
Uzwil,9240,47.4354501,9.1376811,
Savognin,7460,46.5970662,9.5965179,
Laupersdorf,4712,47.3164003,7.652521500000001,
Spreitenbach,8957,47.4141202,8.3662195,
Meierskappel,6344,47.1157175,8.4440606,
Aesch,4147,47.4712152,7.583496599999999,
Chur,7000,46.84823,9.5084689,
Monthey,1870,46.818188,8.227511999999999,
Horn,9326,47.4944364,9.4570861,
Altnau,8595,47.6119373,9.2629667,
Rossrüti,9512,47.478784,9.071283099999999,
Waltensburg,7158,46.8102009,9.0768934,
Utzenstorf,3427,47.125834,7.5657815,
Unterwasser,9657,47.1931277,9.3108287,
Stoos,6433,46.9734358,8.6752966,
Unterstammheim,8476,47.6491791,8.7921751,
Attiswil,4536,47.2503721,7.610934299999999,
Escholzmatt,6182,46.9289069,7.944727100000001,
Siviriez,1678,46.818188,8.227511999999999,
Chessel,1846,46.818188,8.227511999999999,
Melide,6815,45.955903,8.944237099999999,
Fällanden,8117,47.3718093,8.6363396,
Frick,5070,47.5082066,8.0178304,
Homburg,8508,47.6322613,9.0091503,
Alberswil,6248,47.1479017,7.9972793,
Samstagern,8833,47.19402609999999,8.6762813,
Tägerwilen,8274,47.647322,9.1316841,
Bussigny,1030,46.818188,8.227511999999999,
Unterlunkhofen,8918,47.3268688,8.3798544,
Rümlang,8153,47.4504583,8.5298275,
Lienz Plona,9464,47.29429460000001,9.5170511,
Satigny,1242,46.818188,8.227511999999999,
Arconciel,1732,46.818188,8.227511999999999,
Ried-Mörel,3986,46.3526497,8.027042,
Busswil bei Melchnau,4917,47.1751116,7.8525961,
Grafenried,3308,47.0807767,7.506504699999999,
Rizenbach,3206,46.9426262,7.2237957,
Untersiggenthal,5417,47.510648,8.2609423,
Menznau,6122,47.0738989,8.0390977,
Gisikon,6038,47.1283648,8.405650399999999,
Oberarth,6414,47.0550712,8.534355999999999,
Balgach,9436,47.4054637,9.6042275,
Kottwil,6217,47.1620584,8.0401603,
Habschwanden,6166,46.9382378,8.0899652,
Esslingen,8133,47.2918838,8.7154242,
Basel,4058,47.5656032,7.611773100000001,
Andwil,9204,47.43244929999999,9.2785092,
Niederglatt,9240,47.4354501,9.1376811,
Brügglen,4582,47.1426673,7.4962408,
Oberscherli,3145,46.8858082,7.3877539,
Frauenfeld,8500,47.5624565,8.8883133,
Obernau,6012,47.0300664,8.2417184,
Lyssach,3421,47.0657849,7.585278299999999,
Oberentfelden,5036,47.3559405,8.0440911,
Bözen,5076,47.4961396,8.0839609,
Kägiswil,6056,46.9191374,8.2543049,
Gommiswald,8737,47.22842079999999,9.0250434,
Ruswil,6017,47.08397739999999,8.1263259,
Paspels,7417,46.7481488,9.442593700000002,
Ermensee,6294,47.22646,8.238727899999999,
Boussens,1034,46.818188,8.227511999999999,
Plan-Les-Ouates,1228,46.1655214,6.116018,
Edlibach,6313,47.1758438,8.5919634,
Vella,7144,46.7230265,9.160636499999999,
Lengnau,5426,47.5256823,8.3261442,
Yvorne,1853,46.3296831,6.9440762,
Hettiswil,3325,47.0262754,7.554068999999999,
Bergdietikon,8962,47.3860478,8.3791652,
Altdorf,6460,46.9022037,8.6475262,
Egolzwil,6243,47.1819903,8.0009062,
Sonvilier,2615,47.130022,6.960442599999999,
Wängi,9545,47.4969835,8.9661862,
Neukirch (Egnach),9315,47.52385719999999,9.3705949,
Schönenbuch,4124,47.53562549999999,7.5048048,
Kerns,6064,46.9040003,8.2946543,
Uhwiesen,8248,47.6708048,8.6387678,
Oetwil,8618,47.2691032,8.7236329,
Mühlau,5642,47.2353884,8.386068999999999,
Kägiswil,6056,46.9191374,8.2543049,
Schmitten,3185,46.85504479999999,7.248840500000001,
Scheid,7419,46.7784358,9.4668111,
Dizy,1304,46.818188,8.227511999999999,
Altstätten,9450,47.3700789,9.5549856,
Lyss,3250,47.0735637,7.3159537,
Kägiswil,6056,46.9191374,8.2543049,
Willisau,6130,47.1208406,7.998617100000001,
Balsthal,4710,47.3132496,7.6994293,
Schnaus,7130,46.7712522,9.197411599999999,
Collonges,1903,46.818188,8.227511999999999,
Bazenheid,9602,47.403381,9.0563744,
Benken,8717,47.1892867,8.991218,
Gränichen,5722,47.3487239,8.111316000000002,
Yverdon-les-Bains,1400,46.818188,8.227511999999999,
Eschenbach,6274,47.1226199,8.316711699999999,
Raperswilen,8558,47.63907,9.048458799999999,
Bonstetten,8906,47.3176744,8.4710539,
Bettwiesen,9553,47.4953702,9.0180271,
Lajoux,2718,47.2811887,7.1330711,
Edlibach,6313,47.1758438,8.5919634,
Le Noirmont,2340,47.2100662,6.9331423,
Rickenbach,6221,47.2227566,8.1534441,
Cottens,1741,47.4254273,9.3785621,
Meltingen,4233,47.3798843,7.585992899999999,
Bubikon,8608,47.2723166,8.8099052,
Steinmaur,8162,47.4975846,8.4396233,
Bätterkinden,3315,47.1377716,7.533422099999999,
Rüfenach,5235,47.5043994,8.2105556,
Otelfingen,8112,47.4615504,8.3923945,
Weggis,6353,47.03376189999999,8.458762,
Granges-prés-Marnad,1523,46.818188,8.227511999999999,
Rodersdorf,4118,47.4883299,7.4355308,
Hirzel,8816,47.21952779999999,8.5991509,
Schwyz,6430,47.0326445,8.6692757,
Buttisholz,6018,47.114231,8.0923935,
Penthaz,1303,46.5973003,6.542175599999999,
Schachen,6105,47.0280423,8.133511799999999,
Baar,6340,47.2003879,8.526752799999999,
Kölliken,5742,47.330842,8.015926,
Bretzwil,4207,47.3953234,7.649900199999999,
Ottoberg,8561,47.5885852,9.091079599999999,
Langenthal,4900,47.2140396,7.7857711,
Henggart,8444,47.5610128,8.6819537,
Château-d'Oex,1660,46.818188,8.227511999999999,
Rüttenen,4522,47.24536819999999,7.5382485,
Schötz,6247,47.1661745,7.9814981,
Buchberg,8454,47.5757961,8.5516404,
Müllheim,8555,47.6032456,8.9999158,
Eyholz-Visp,3930,46.2874952,7.8893635,
Säriswil,3049,46.991434,7.3388638,
Rothenthurm,6418,47.10495419999999,8.6853605,
Ocourt,2889,47.3539881,7.0686336,
Orzens,1413,46.818188,8.227511999999999,
Frauenfeld,8500,47.5624565,8.8883133,
Hagendorn,6332,47.2100425,8.4298939,
Rüttenen,4522,47.24536819999999,7.5382485,
Staffelbach,5053,47.280119,8.0376329,
Kerns,6064,46.9040003,8.2946543,
Limpach,3317,47.1023102,7.476735299999999,
Wildegg,5103,47.4162233,8.1827578,
Lömmenschwil,9308,47.4949419,9.361019899999999,
Buochs,6374,46.9684622,8.415329,
Ruppoldsried,3251,47.0875919,7.402051999999999,
Hörhausen,8507,47.635113,8.9729502,
Sempach,6204,47.14074189999999,8.201868,
Domat/Ems,7013,46.8184137,9.455807799999999,
Seewen,6423,47.0309883,8.626532599999999,
Schneisingen,5425,47.5196737,8.3607803,
Pratteln,4133,47.52046790000001,7.695735300000001,
Huttwil,4950,47.1061468,7.857353000000001,
Pensier,1783,46.818188,8.227511999999999,
Gränichen,5722,47.3487239,8.111316000000002,
Walzenhausen,9428,47.4459574,9.5930982,
Bächli,9633,47.3005308,9.1757408,
Meikirch,3045,47.0113851,7.370467400000001,
Rances,1439,46.818188,8.227511999999999,
Vétroz,1963,46.818188,8.227511999999999,
Samstagern,8833,47.19402609999999,8.6762813,
Pratteln,4133,47.52046790000001,7.695735300000001,
Reng,6162,46.9748961,8.124259499999999,
Lyss,3250,47.0735637,7.3159537,
Les Ponts-de-Martel,2316,46.9926719,6.7234913,
Ueberstorf,3182,46.8681291,7.321717899999999,
Rosshäusern,3204,46.9293689,7.278932999999999,
Homburg,8508,47.6322613,9.0091503,
Rodersdorf,4118,47.4883299,7.4355308,
Basel,4056,47.5705771,7.5740645,
Fislisbach,5442,47.436874,8.2909952,
Hinwil,8340,47.2993227,8.8427233,
Ropraz,1088,46.818188,8.227511999999999,
Moosseedorf,3302,47.01125460000001,7.485212499999999,
Frieswil,3035,46.9943922,7.2926684,
Sarnen,6060,46.9038736,8.2289979,
Knutwil,6213,47.19889329999999,8.0745829,
Alterswilen,8573,47.61008899999999,9.1630577,
Sevelen,9475,47.1251828,9.478797199999999,
Weesen,8872,47.14149,9.0980613,
Grenchen,2540,47.1966015,7.383175499999999,
Baden,5400,46.818188,8.227511999999999,
Obernau,6012,47.0300664,8.2417184,
Illnau,8308,47.4075705,8.7174687,
Wädenswil,8820,47.2255535,8.6495094,
Le Noirmont,2340,47.2100662,6.9331423,
Sevelen,9475,47.1251828,9.478797199999999,
Schönenberg,9215,47.5209859,9.1929932,
Neudorf,CH-6025,47.1791998,8.2129935,
Appenzell,9050,47.32678900000001,9.4228294,
Hofstetten,4114,47.4732561,7.5152288,
Selzach,2545,47.2121208,7.446418599999999,
Lichtensteig,9620,47.3216359,9.0916199,
Buch am Irchel,8414,47.5474927,8.631845499999999,
Hinterforst,9452,47.3550386,9.528211299999999,
Steinhausen,6312,47.1986689,8.4839055,
Würenlingen,5303,47.5308686,8.2546816,
Hagenbuch,8523,47.5132138,8.8851623,
Schwyz,6430,47.0326445,8.6692757,
Weite,9476,47.0987906,9.500691900000001,
Affeltrangen,9556,47.531803,9.026558699999999,
Kallern,5625,47.3136422,8.291278199999999,
Gland,1196,46.818188,8.227511999999999,
Wagerswil,8564,47.6168492,9.078491399999999,
Berikon,8965,47.3536029,8.3847302,
Tägerwilen,8274,47.647322,9.1316841,
Hagenbuch,8523,47.5132138,8.8851623,
Roche,1852,46.818188,8.227511999999999,
Unterramsern,4588,47.1149152,7.4711881,
Willisau,6130,47.1208406,7.998617100000001,
Niederwil,9203,47.4286738,9.203154099999999,
Châtonnaye,1553,46.7532183,6.9410744,
Gwatt,3645,46.71234519999999,7.620188300000001,
Cugy,1482,46.818188,8.227511999999999,
Schwyz,6430,47.0326445,8.6692757,
Langnau,3550,46.9349318,7.7864583,
Kriens,6010,47.0223002,8.2813683,
Azmoos,9478,47.0909084,9.418216,
Bettlach,2544,47.2039878,7.4206019,
Wettingen,5430,47.4650388,8.344792,
Basel,4056,47.5705771,7.5740645,
Lichtensteig,9620,47.3216359,9.0916199,
Aeugst,8914,47.276506,8.4951083,
Klingnau,5313,47.5898545,8.2597033,
Bazenheid,9602,47.403381,9.0563744,
Grandson,1422,32.5706112,-117.0919344,
Stalden,6063,46.8949708,8.149002099999999,
Wolhusen,6110,47.0618181,8.0714915,
Wilchingen,8217,47.6648801,8.4528505,
Brütten,8311,47.4700217,8.675507399999999,
Roggwil,4914,47.2361376,7.8216909,
Niederhasli,8155,47.4747169,8.481547899999999,
Steffisburg,3612,46.7792265,7.6381387,
Trubschachen,3555,46.9161829,7.846382499999999,
Rickenbach,6221,47.2227566,8.1534441,
Biberist,4562,47.1859517,7.5462127,
Esslingen,8133,47.2918838,8.7154242,
Wangen,8855,47.1967569,8.8960051,
Grafenried,3308,47.0807767,7.506504699999999,
Uffikon,6253,47.21044010000001,8.017634,
Vesin,1483,46.8184529,6.8672461,
Echallens,1040,46.818188,8.227511999999999,
Echallens,1040,46.818188,8.227511999999999,
Villeret,2613,47.1502579,7.029861299999999,
Tatroz,1617,46.536333,6.8797754,
Kirchlindach,3038,46.99878020000001,7.414235100000001,
Rickenbach,6221,47.2227566,8.1534441,
Moudon,1510,46.818188,8.227511999999999,
Alpnach Dorf,6055,46.949044,8.212256199999999,
Villarsel-le-Gibloux,1695,46.818188,8.227511999999999,
Altstätten,9450,47.3700789,9.5549856,
Steffisburg,3613,46.7734044,7.6160391,
Miécourt,2946,47.4361394,7.172092399999999,
Steinen,6422,47.0519276,8.6087668,
Winterberg,8312,47.4563615,8.692727,
Benzenschwil,5636,47.2456529,8.3634334,
Wittenbach,9300,47.4630655,9.3876654,
Steinmaur,8162,47.4975846,8.4396233,
Langenthal,4900,47.2140396,7.7857711,
Tägerwilen,8274,47.647322,9.1316841,
Turbach,3781,46.463439,7.3510557,
Adlikon,8452,47.5794485,8.6998866,
Amriswil,8580,47.5500718,9.292343299999999,
Zizers,7205,46.9335139,9.5708253,
Thun,3608,46.7407213,7.595570500000001,
Castione,6532,46.2281738,9.0437818,
Frauenfeld,8500,47.5624565,8.8883133,
Harenwilen,8553,47.5751933,8.9786521,
Manno,6928,46.0308188,8.9222013,
Wattenwil,3665,46.7641056,7.499330700000001,
Muraz (Collombey),1893,46.818188,8.227511999999999,
Schweizersholz,9223,47.49806969999999,9.2010091,
Niederscherli,3145,46.8858082,7.3877539,
Riazzino,6595,46.1650866,8.8964841,
Schwarzenburg,3150,46.8091666,7.329899500000001,
Puidoux,1070,46.818188,8.227511999999999,
St-Brais,2364,46.818188,8.227511999999999,
Corgemont,2606,47.18240549999999,7.1436021,
Engelburg,9032,47.444623,9.3412872,
Knonau,8934,47.2222792,8.4637564,
Ennetmoos,6372,46.9405596,8.329259200000001,
Horw,6048,47.0249599,8.3121008,
Ruswil,6017,47.08397739999999,8.1263259,
Untersiggenthal,5417,47.510648,8.2609423,
Dübendorf,8600,47.3955306,8.6161336,
Vérossaz,1891,46.818188,8.227511999999999,
Eschenbach,8733,47.24383419999999,8.9230079,
Ruswil,6017,47.08397739999999,8.1263259,
Gempen,4145,47.4735793,7.6590327,
Oberegg,9413,47.4174975,9.5492752,
Bonvillars,1427,46.818188,8.227511999999999,
Seon,5703,47.3506042,8.154067999999999,
Sumiswald,3454,47.028436,7.744630199999999,
Trüllikon,8466,47.6389086,8.6997237,
Grenchen,2540,47.1966015,7.383175499999999,
Oberwil,4104,47.5202001,7.551636799999999,
Seengen,5707,47.3270712,8.2076206,
Baldegg,6283,47.178446,8.2744039,
Bissegg,8514,47.5564231,9.0282404,
Bronschhofen,9500,47.4604542,9.0530887,
Kirchlindach,3038,46.99878020000001,7.414235100000001,
Monible,2715,47.267882,7.188734999999999,
Limpach,3317,47.1023102,7.476735299999999,
Kerns,6064,46.9040003,8.2946543,
Zug,6300,47.15582999999999,8.5314882,
Aarwangen,4912,47.2304921,7.7604525,
Madiswil,4934,47.1582636,7.812176999999999,
Baldegg,6283,47.178446,8.2744039,
Kulmerau,6234,47.2374115,8.0855523,
Vuarrens,1418,46.818188,8.227511999999999,
Aubonne,1170,46.818188,8.227511999999999,
Oberkulm,5727,47.2935638,8.1256447,
Oberegg,9413,47.4174975,9.5492752,
Delémont,2800,47.3668919,7.3324722,
Malters,6102,47.03428479999999,8.1831137,
Tägerschen,9554,47.5054951,9.0150898,
Treytorrens,1538,46.818188,8.227511999999999,
Eschlikon,8360,47.4600973,8.9637335,
Wernetshausen,8342,47.294371,8.8747631,
Rudolfingen,8465,47.6455813,8.6771721,
Monthey,1870,46.818188,8.227511999999999,
Oekingen,4566,47.1742749,7.6113397,
Le Cerneux-Veusil,2345,47.2123237,7.003925600000001,
Bannwil,4913,47.232873,7.725324599999999,
Birr,5242,47.4349868,8.214691499999999,
Müstair,7537,46.5610662,10.3390553,
Zweisimmen,3770,46.5761908,7.4034662,
Waldkirch,9205,47.4613393,9.2879882,
Schmerikon,8716,47.2297285,8.9460319,
Vals,7132,46.5573138,9.1342853,
Wolfhausen,8633,47.256182,8.7957507,
Kestenholz,4703,47.2803179,7.7501915,
Menzingen,6313,47.1758438,8.5919634,
Obergoldbach,3434,46.95159880000001,7.684611800000001,
Sins,5643,47.19909879999999,8.3783604,
Hagenwil bei Amriswil,8580,47.5500718,9.292343299999999,
Oberstammheim,8477,47.6288852,8.7981926,
Etzelkofen,3306,47.0848962,7.4810113,
Kulmerau,6234,47.2374115,8.0855523,
Oberglatt,8154,47.4817164,8.5202333,
Wilen-Gottshaus,9225,47.4912275,9.285418,
Moosseedorf,3302,47.01125460000001,7.485212499999999,
Gunzwil,6222,47.1921984,8.1686856,
Muri,5630,47.2782305,8.3382955,
Giswil,6074,46.828877,8.118184399999999,
Jonschwil,9243,47.42772,9.0918706,
Wohlen,5610,47.3508817,8.2870507,
Savigny,1073,46.818188,8.227511999999999,
Savigny,1073,46.818188,8.227511999999999,
Bannwil,4913,47.232873,7.725324599999999,
Stans,6370,46.95191089999999,8.374485199999999,
Gonten,9108,47.3135227,9.3443465,
Rodels,7415,46.7393124,9.4385579,
Pratteln,4133,47.52046790000001,7.695735300000001,
Thayngen,8240,47.7447496,8.7107153,
Hergiswil,6133,47.0648206,7.959008,
Trélex,1270,46.818188,8.227511999999999,
Belpberg,3124,46.8649821,7.5201195,
Grafenried,3308,47.0807767,7.506504699999999,
Buch,8263,47.7166849,8.7853786,
Bözberg,5225,47.5007578,8.157957,
Kägiswil,6056,46.9191374,8.2543049,
Wettswil,8907,47.3351994,8.467191,
Noréaz,1757,46.818188,8.227511999999999,
Sempach,6204,47.14074189999999,8.201868,
Messen,3254,47.09420110000001,7.4509812,
Hedingen,8908,47.2992865,8.4534407,
Wängi,9545,47.4969835,8.9661862,
Niederbipp,4704,47.2641852,7.698057399999999,
Flüeli-Ranft,6073,46.8748344,8.2593093,
Epauvillers,2885,47.3406953,7.1243859,
Ebnat-Kappel,9642,47.2522495,9.1275795,
Gossau,9200,47.4151524,9.248133600000001,
Menznau,6122,47.0738989,8.0390977,
Emmen,6032,47.0938162,8.308271999999999,
St. Ursen,1717,46.818188,8.227511999999999,
Oetwil a. d. Limmat,8955,47.4290572,8.397966,
Peseux,2034,46.818188,8.227511999999999,
Sissach,4450,47.4736973,7.8031928,
Sissach,4450,47.4736973,7.8031928,
Waltenschwil,5622,47.3329265,8.2969192,
Mörschwil,9402,47.4697047,9.4270931,
Aigle,1860,46.818188,8.227511999999999,
Waltenschwil,5622,47.3329265,8.2969192,
Lenzerheide,7078,46.7283044,9.5412767,
St-Légier-La Chiésaz,1806,46.4961584,6.9044628,
Fenkrieden,5645,47.1872966,8.371859599999999,
Knonau,8934,47.2222792,8.4637564,
Thun,3600,46.818188,8.227511999999999,
Bettwil,5618,47.2904038,8.2724122,
Gonten,9108,47.3135227,9.3443465,
Steinmaur,8162,47.4975846,8.4396233,
St.Ursanne,2882,47.3593361,7.140891099999999,
Berg,8572,47.579162,9.177825499999999,
Buttisholz,6018,47.114231,8.0923935,
Provence,1428,32.5706201,-117.0920723,
Ruswil,6017,47.08397739999999,8.1263259,
Hasle,6166,46.9382378,8.0899652,
Teufen,9053,47.3927275,9.401474499999999,
Sachseln,6072,46.8500287,8.231258799999999,
Engwilen,8564,47.6168492,9.078491399999999,
Wolfertswil,9116,47.3911364,9.178629599999999,
Dussnang,8374,47.4285271,8.9568145,
Buch,8263,47.7166849,8.7853786,
Schupfart,4325,47.51234849999999,7.9585724,
Wilihof,6236,47.2215961,8.066045899999999,
Kiesen,3629,46.811766,7.5881589,
Rüfenach,5235,47.5043994,8.2105556,
Andelfingen,8450,47.5909521,8.678859,
Oberwangen,3173,46.9146033,7.357133299999999,
Ettiswil,6218,47.1462565,8.0207316,
Pfäffikon ZH,8330,47.3722412,8.7921111,
Buch bei Märwil,9562,47.5289398,9.0626742,
Horn,9326,47.4944364,9.4570861,
Otelfingen,8112,47.4615504,8.3923945,
Erlach,3235,47.0407715,7.099313299999999,
Oberdiessbach,3672,46.8373954,7.6420254,
Lupfig,5242,47.4349868,8.214691499999999,
Moudon,1510,46.818188,8.227511999999999,
Luven,7141,46.7522426,9.191246,
Bülach,8180,47.5291632,8.5467393,
Erlinsbach,5015,47.4009409,7.999605099999999,
Neuheim,6345,47.2011982,8.581477699999999,
Wildensbuch,8465,47.6455813,8.6771721,
Mauensee,6216,47.1669948,8.0744959,
Hohenrain,6276,47.1811341,8.3218395,
Jegenstorf,3303,47.0519193,7.498883799999999,
Rickenbach,6221,47.2227566,8.1534441,
Niederwil,9203,47.4286738,9.203154099999999,
Erlach,3535,46.927716,7.7490136,
Schönholzerswilen,8577,47.5135259,9.1318351,
Sevelen,9475,47.1251828,9.478797199999999,
Wauwil,6242,47.18212949999999,8.033870799999999,
Seon,5703,47.3506042,8.154067999999999,
Mauren,8576,47.5683028,9.1588198,
Niederbüren,9246,47.4619009,9.220146699999999,
Bourrignon,2803,46.818188,8.227511999999999,
Wilihof,6236,47.2215961,8.066045899999999,
Widnau,9443,47.4024006,9.64049,
Buchs,8107,47.45803979999999,8.4400245,
Landquart,7302,46.9637196,9.590240099999999,
Bremgarten,5620,47.3579427,8.3254305,
Wädenswil,8820,47.2255535,8.6495094,
Rotkreuz,6343,47.1427744,8.4430747,
Rheinklingen,8259,47.656076,8.831321599999999,
Altikon,8479,47.5804992,8.783165499999999,
Dintikon,5606,47.3630416,8.2210603,
Malans,7208,46.994323,9.5760568,
Zürich,8055,47.3627973,8.4936631,
Jaun,1656,46.818188,8.227511999999999,
Posieux,1725,46.76107529999999,7.0960456,
Wittenbach,9300,47.4630655,9.3876654,
Thierrens,1410,46.818188,8.227511999999999,
Sigigen,6019,47.0568262,8.141764499999999,
Lenzburg,5600,47.3778731,8.1860746,
Herrenhof,8585,47.5849202,9.2293009,
Réchy,3966,46.2625791,7.5092826,
Le Pâquier,1661,46.818188,8.227511999999999,
Cossonay,1304,46.818188,8.227511999999999,
Appenzell,9050,47.32678900000001,9.4228294,
Tuggen,8856,47.20307570000001,8.941439899999999,
Fischingen,8376,47.3986786,8.9596507,
Emmenbrücke,6020,47.0771818,8.2674067,
Auw,5644,47.2170135,8.368566699999999,
Pailly,1416,32.5709437,-117.0924401,
Dussnang,8374,47.4285271,8.9568145,
Waltenschwil,5622,47.3329265,8.2969192,
Merenschwand,5634,47.2651337,8.38278,
Hildisrieden,6024,47.14866010000001,8.228173,
Weinfelden,8570,47.569994,9.1067558,
Uettligen,3043,46.99141729999999,7.377042599999999,
Sion,1950,46.818188,8.227511999999999,
Châtel-St.-Denis,1618,46.5298585,6.9069007,
Ebikon,6030,47.08164499999999,8.3407354,
Oensingen,4702,47.2923526,7.7176406,
Bettlach,2544,47.2039878,7.4206019,
Le Noirmont,2340,47.2100662,6.9331423,
Steckborn,8266,47.6616993,8.977273799999999,
Winterthur,8404,47.5234114,8.7531993,
Oschwand,3476,47.13494739999999,7.722492,
Fischenthal,8497,47.3322248,8.9264052,
Wohlenschwil,5512,47.4148688,8.254268999999999,
Winterthur,8404,47.5234114,8.7531993,
Tägertschi,3111,46.87256319999999,7.5897052,
Kiesen,3629,46.811766,7.5881589,
Effretikon,8307,47.42868439999999,8.6995151,
Grosswangen,6022,47.1367735,8.0509437,
Gunzwil,6222,47.1921984,8.1686856,
Lanzenhäusern,3148,46.8434208,7.3650479,
Waldkirch,9205,47.4613393,9.2879882,
St. Ursen,1717,46.818188,8.227511999999999,
Domat/Ems,7013,46.8184137,9.455807799999999,
Ecuvillens,1730,46.818188,8.227511999999999,
Villars-le-Grand,1584,46.818188,8.227511999999999,
Düdingen,3186,46.8422421,7.1925093,
Grosswangen,6022,47.1367735,8.0509437,
Dürrenroth,3456,47.0147322,7.7446408,
Härkingen,4624,47.3026642,7.819096600000001,
Vaulion,1325,46.818188,8.227511999999999,
Ebikon,6030,47.08164499999999,8.3407354,
Rheinfelden,4310,47.5520509,7.812721,
Romainmôtier,1323,46.818188,8.227511999999999,
Münchenbuchsee,3053,47.0217671,7.450329299999999,
Mühlethurnen,3127,46.8145192,7.509710999999999,
Luthern,6156,47.0488598,7.906916899999999,
Nussbaumen,8537,47.6164182,8.831277799999999,
Horw,6048,47.0249599,8.3121008,
Unterstammheim,8476,47.6491791,8.7921751,
Sachseln,6072,46.8500287,8.231258799999999,
Windisch,5210,47.4767224,8.217699,
Hessigkofen,4577,47.1390244,7.458312200000001,
Menzingen,6313,47.1758438,8.5919634,
Lengnau,5426,47.5256823,8.3261442,
Niederbüren,9246,47.4619009,9.220146699999999,
Rütihof,5406,47.4372804,8.2683749,
Aigle,1860,46.818188,8.227511999999999,
Jonschwil,9243,47.42772,9.0918706,
Liestal,4410,47.4889962,7.7232323,
Bachenbülach,8184,47.5019018,8.547677900000002,
Villars-Sainte-Croix,1029,35.4552222,-97.74415289999999,
Buttisholz,6018,47.114231,8.0923935,
Friltschen,9504,47.5340233,9.092096399999999,
Ebnet,6163,47.0217758,8.0839699,
Zug,6301,46.818188,8.227511999999999,
Buchs,8107,47.45803979999999,8.4400245,
St. Légier,1806,46.4961584,6.9044628,
Heiden,9410,47.441412,9.5293867,
Thusis,7430,46.68354129999999,9.4351604,
Jonen,8916,47.300598,8.4023513,
Eschenbach,6274,47.1226199,8.316711699999999,
Oberwil-Lieli,8966,47.3356381,8.3945634,
Waltenschwil,5622,47.3329265,8.2969192,
Nunningen,4208,47.3968935,7.6264019,
Enggistein,3077,46.9304589,7.5992916,
Neu St. Johann,9652,47.2400076,9.1880199,
Chur,7000,46.84823,9.5084689,
Niederbipp,4704,47.2641852,7.698057399999999,
Villars-Sainte-Croix,1029,35.4552222,-97.74415289999999,
Rain,6026,47.1365002,8.2606764,
Raron,3942,46.3367598,7.804152599999998,
Egg,8847,47.1617695,8.783147699999999,
Emmenbrücke,6020,47.0771818,8.2674067,
Alvaneu-Dorf,7492,46.7203163,9.636018499999999,
Charmoille,2947,47.4235044,7.2163615,
Merenschwand,5634,47.2651337,8.38278,
Oberriet,9463,47.320266,9.567072999999999,
Hasle b. Burgdorf,3415,47.0027027,7.6511386,
Henggart,8444,47.5610128,8.6819537,
Thierrens,1410,46.818188,8.227511999999999,
Lausanne,1018,46.818188,8.227511999999999,
Balterswil,8362,47.4523357,8.9366919,
Zielebach,4564,47.1617596,7.578323,
Dagmersellen,6252,47.214311,7.995047800000001,
Crans-près-Céligny,1299,46.364906,6.206759600000001,
Rorschach,9400,47.4751433,9.495678999999999,
Ossingen,8475,47.6150567,8.7200582,
Neukirch,9315,47.52385719999999,9.3705949,
Embrach,8424,47.51062049999999,8.5961496,
Hinwil,8340,47.2993227,8.8427233,
Hinwil,8340,47.2993227,8.8427233,
Hindelbank,3324,47.0488621,7.5453082,
Embrach,8424,47.51062049999999,8.5961496,
Les Monts de Pully,1068,46.818188,8.227511999999999,
Emmenbrücke,6020,47.0771818,8.2674067,
Henniez,1525,46.818188,8.227511999999999,
Trin Mulin,7016,46.8217899,9.326119799999999,
Meltingen,4233,47.3798843,7.585992899999999,
Bex,1880,46.818188,8.227511999999999,
Langrickenbach,8585,47.5849202,9.2293009,
Le Noirmont,2340,47.2100662,6.9331423,
Berken,3376,47.22141269999999,7.7132694,
Niederbüren,9246,47.4619009,9.220146699999999,
Aristau,5628,47.2861314,8.364799,
Steffisburg,3613,46.7734044,7.6160391,
Walliswil bei Wangen,3377,47.2282053,7.685328999999999,
Wilihof,6236,47.2215961,8.066045899999999,
Steinach,9323,47.4985985,9.436729099999999,
Muolen,9313,47.5181777,9.3190716,
Gossau,8625,47.30631289999999,8.7585464,
Menzingen,6313,47.1758438,8.5919634,
Landquart,7302,46.9637196,9.590240099999999,
Langendorf,4513,47.2246166,7.5179019,
Forel-Lavaux,1072,46.818188,8.227511999999999,
Sirnach,8370,47.4642575,9.005042399999999,
Brig-Glis,3902,46.3103096,7.977206400000001,
Jonschwil,9243,47.42772,9.0918706,
Pratteln,4133,47.52046790000001,7.695735300000001,
Mauensee,6216,47.1669948,8.0744959,
Schleitheim,8226,47.7513569,8.4909999,
Dottikon,5605,47.3762402,8.2430298,
Maienfeld,7304,47.0050365,9.5300158,
Triengen,6234,47.2374115,8.0855523,
Satigny,1242,46.818188,8.227511999999999,
Reichenburg,8864,47.1614527,8.970196099999999,
Neukirch-Egnach,9315,47.52385719999999,9.3705949,
Kleinwangen,6277,47.195681,8.2958498,
Winterthur,8404,47.5234114,8.7531993,
Rafz,8197,47.6083878,8.546168999999999,
Olten,4600,47.3487088,7.900779399999999,
Le Cerneux-Péquignot,2414,47.0152826,6.670827999999999,
Lyss,3250,47.0735637,7.3159537,
Mettmenstetten,8932,47.2437564,8.4626854,
Hinterforst,9452,47.3550386,9.528211299999999,
St. Ursen,1717,46.818188,8.227511999999999,
Ruswil,6017,47.08397739999999,8.1263259,
Fischingen,8376,47.3986786,8.9596507,
Unterseen,3800,46.6871831,7.848015299999999,
Willisau,6130,47.1208406,7.998617100000001,
Villigen,5234,47.5342983,8.2070747,
Schaffhausen,8207,47.7183868,8.6656234,
Ebikon,6030,47.08164499999999,8.3407354,
Baden-Dättwil,5405,47.4518024,8.2892952,
Einsiedeln,8840,47.1109258,8.735636399999999,
Rüeggisberg,3088,46.8304487,7.452386,
Näfels,8752,47.0853812,9.0008873,
Tuggen,8856,47.20307570000001,8.941439899999999,
Konolfingen,3510,46.8684368,7.6150686,
Hohenrain,6276,47.1811341,8.3218395,
Altbüron,6147,47.1919482,7.893083400000001,
Büsserach,4227,47.3926666,7.541642100000001,
Gunzwil,6222,47.1921984,8.1686856,
Gunzwil,6222,47.1921984,8.1686856,
Huttwil,4950,47.1061468,7.857353000000001,
Etoy,1163,46.4856009,6.4228406,
Beromünster,6215,47.219381,8.200569999999999,
Sempach,6204,47.14074189999999,8.201868,
Ramsei,3435,47.0009997,7.7127794,
Reitnau,5057,47.250371,8.0412113,
Missy,1565,46.818188,8.227511999999999,
Vevey,1800,46.818188,8.227511999999999,
Amlikon-Bissegg,8514,47.5564231,9.0282404,
Escholzmatt,6182,46.9289069,7.944727100000001,
Bütschwil,9606,47.36032609999999,9.0702514,
Fulenbach,4629,47.2843652,7.8349936,
Naters,3904,46.3386976,7.9851752,
Lengnau,5426,47.5256823,8.3261442,
Bossonnens,1615,46.818188,8.227511999999999,
Eschenbach,6274,47.1226199,8.316711699999999,
Oberriet,9463,47.320266,9.567072999999999,
Eich,6205,47.1603059,8.1685081,
Yvonand,1462,46.7875494,6.7328091,
Neuhaus,8732,47.239799,8.9431058,
Auw,5644,47.2170135,8.368566699999999,
Berolle,1149,46.818188,8.227511999999999,
Schaffhausen,8200,47.7114176,8.626544899999999,
Düdingen,3186,46.8422421,7.1925093,
Bex,1880,46.818188,8.227511999999999,
Grüsch,7214,46.9692138,9.6412028,
Sargans,7320,47.0540051,9.4488629,
Reichenburg,8864,47.1614527,8.970196099999999,
Rafz,8197,47.6083878,8.546168999999999,
Wauwil,6242,47.18212949999999,8.033870799999999,
Weinfelden,8570,47.569994,9.1067558,
Brig-Glis,3902,46.3103096,7.977206400000001,
Geuensee,6232,47.20518149999999,8.1243759,
Luzern,6015,47.0641228,8.278590699999999,
Olten,4601,46.818188,8.227511999999999,
Kestenholz,4703,47.2803179,7.7501915,
Küssnacht am Rigi,6403,47.0738515,8.4466485,
Füllinsdorf,4414,47.5106069,7.7321246,
Sigigen,6019,47.0568262,8.141764499999999,
Mendrisio,6850,45.8729655,8.9782727,
Zug,6300,47.15582999999999,8.5314882,
Lienz,9464,47.29429460000001,9.5170511,
Lienz,9464,47.29429460000001,9.5170511,
Boswil,5623,47.3000881,8.308459299999999,
Zunzgen,4455,47.4446465,7.795205299999999,
Sempach Station,6203,47.1198329,8.2198171,
Cortébert,2607,47.194225,7.1112725,
Zürich,8048,47.3860458,8.4793558,
Trimmis,7203,46.8865473,9.576373499999999,
Lengnau,5426,47.5256823,8.3261442,
Sattel,6417,47.079784,8.6293069,
Neukirch,9315,47.52385719999999,9.3705949,
Zweisimmen,3770,46.5761908,7.4034662,
Cronay,1406,46.818188,8.227511999999999,
Oberwil,4104,47.5202001,7.551636799999999,
Rickenbach,6221,47.2227566,8.1534441,
Hellbühl,6016,47.0726649,8.194188,
Münchenstein,4142,47.51813110000001,7.620042300000001,
Schüpfheim,6170,46.9431775,8.019995999999999,
Urtenen-Schönbühl,3322,47.0223166,7.5028673,
Arlesheim,4144,47.4953285,7.628910799999999,
Sevelen,9475,47.1251828,9.478797199999999,
Amlikon-Bissegg,8514,47.5564231,9.0282404,
Flawil,9230,47.4103868,9.1848747,
Bern,3019,46.9323251,7.347063,
Subingen,4553,47.1979814,7.623639,
Diepoldsau,9444,47.382165,9.646025,
Benken,8717,47.1892867,8.991218,
Untersiggenthal,5417,47.510648,8.2609423,
Altbüron,6147,47.1919482,7.893083400000001,
Diepoldsau,9444,47.382165,9.646025,
Seedorf,3267,47.0239748,7.3266996,
Eschenbach,6274,47.1226199,8.316711699999999,
Alpnach Dorf,6055,46.949044,8.212256199999999,
Autigny,1742,46.818188,8.227511999999999,
Winkel,8185,47.4887017,8.5589593,
Rhäzüns,7403,46.7843232,9.395788,
Yverdon,1400,46.818188,8.227511999999999,
Boncourt,2926,47.48580930000001,7.006681500000001,
Kirchberg,9533,47.4175617,9.033230999999999,
Carouge,1227,46.818188,8.227511999999999,
Kesswil,8593,47.58552539999999,9.3133194,
Langenthal,4901,46.818188,8.227511999999999,
Watt,8105,47.4360745,8.469988599999999,
Untervaz,7204,46.9263513,9.5102575,
Wattwil,9630,47.2901615,9.0845857,
Lamboing,2516,47.1230826,7.1521946,
Selzach,2545,47.2121208,7.446418599999999,
Les Breuleux,2345,47.2123237,7.003925600000001,
Widnau,9443,47.4024006,9.64049,
Widnau,9443,47.4024006,9.64049,
Braunau,9502,47.4990318,9.065437,
Bourrignon,2803,47.3914753,7.255676999999999,
Düdingen,3186,46.8422421,7.1925093,
Dottikon,5605,47.3762402,8.2430298,
Gümmenen,3205,46.9411674,7.2468286,
Walterswil,5746,47.3271062,7.963791199999999,
Gwatt,3645,46.71234519999999,7.620188300000001,
Rossens,1728,46.818188,8.227511999999999,
Amriswil,8580,47.5500718,9.292343299999999,
Biglen,3507,46.9259376,7.6304934,
Auw,5644,47.2170135,8.368566699999999,
Genolier,1272,46.818188,8.227511999999999,
Neuenkirch,6206,47.1014681,8.202509599999999,
Grossdietwil,6146,47.16306400000001,7.885055500000001,
Diessenhofen,8253,47.6837903,8.7289332,
Zug,6300,47.15582999999999,8.5314882,
Worb,3076,46.9305584,7.561035299999999,
Wattwil,9630,47.2901615,9.0845857,
Ammerswil,5600,47.3778731,8.1860746,
Schenkon,6214,47.1850966,8.130626,
Praratoud,1528,46.818188,8.227511999999999,
Landquart,7302,46.9637196,9.590240099999999,
Amlikon-Bissegg,8514,47.5564231,9.0282404,
Gossau,9200,47.4151524,9.248133600000001,
Märstetten,8560,47.5878496,9.069190299999999,
Chavornay,1373,46.818188,8.227511999999999,
Mauren,8576,47.5683028,9.1588198,
Unterbözberg,5224,46.818188,8.227511999999999,
Wangen,8855,47.1967569,8.8960051,
Erlinsbach,5018,47.420277,8.005061099999999,
Puidoux,1070,46.818188,8.227511999999999,
Wilen-Gottshaus,9225,47.4912275,9.285418,
Oberriet,9463,47.320266,9.567072999999999,
Weesen,8872,47.14149,9.0980613,
Effretikon,8307,47.42868439999999,8.6995151,
Ernetschwil,8725,47.2451799,8.9998043,
Balsthal,4710,47.3132496,7.6994293,
Gunzwil,6222,47.1921984,8.1686856,
Veltheim,5106,47.42956849999999,8.1526128,
Schaffhausen,8200,47.7114176,8.626544899999999,
Hohenrain,6276,47.1811341,8.3218395,
Kaltbrunn,8722,47.2161875,9.0242024,
Cournillens,1784,46.8654714,7.1238199,
Aetigkofen,4583,47.1319591,7.4727155,
Rüdtligen,3422,47.08242329999999,7.592681699999999,
Lyssach,3421,47.0657849,7.585278299999999,
Thun,3600,46.818188,8.227511999999999,
Busslingen,5453,47.4070684,8.3277415,
Oberburg b. Burgdorf,3414,47.0294342,7.616943099999999,
Lienz,9464,47.29429460000001,9.5170511,
Hausen am Albis,8915,47.2546056,8.5248932,
Fischbach-Göslikon,5525,47.3709809,8.3081426,
Gossau,9200,47.4151524,9.248133600000001,
Albligen,3183,46.84601,7.3247901,
Wünnewil,3184,46.87106929999999,7.275707499999999,
Liestal,4410,47.4889962,7.7232323,
Oberbüren,9245,47.4518136,9.161289199999999,
Sissach,4450,47.4736973,7.8031928,
Kottwil,6217,47.1620584,8.0401603,
Cham,6330,47.200425,8.4602565,
Niederbipp,4704,47.2641852,7.698057399999999,
Seewen,6423,47.0309883,8.626532599999999,
Grosswangen,6022,47.1367735,8.0509437,
Leibstadt,5325,47.5883706,8.1771356,
Tolochenaz,1131,46.818188,8.227511999999999,
Bösingen,3178,46.88358059999999,7.232165500000001,
Visp,3930,46.2874952,7.8893635,
Unterlunkhofen,8918,47.3268688,8.3798544,
Obermumpf,4324,47.5311606,7.936666400000001,
Neudorf,CH-6025,47.1791998,8.2129935,
Otelfingen,8112,47.4615504,8.3923945,
Bussigny-près-Lausanne,1030,46.818188,8.227511999999999,
Hünenberg,6331,47.20392080000001,8.412978899999999,
Estavannens,1665,46.5598703,7.127241799999999,
Sevgein,7127,46.75674619999999,9.2259878,
Sevgein,7127,46.75674619999999,9.2259878,
Uster,8610,47.3479211,8.723527599999999,
Sihlbrugg,6340,47.2003879,8.526752799999999,
Villars-le-Terroir,1040,46.818188,8.227511999999999,
Villars-le-Terroir,1040,46.818188,8.227511999999999,
Gelfingen,6284,47.2156126,8.286759199999999,
Granges-Près-Marnand,1524,46.818188,8.227511999999999,
Les Acacias,1227,46.818188,8.227511999999999,
Benken,8717,47.1892867,8.991218,
Henniez,1525,46.818188,8.227511999999999,
Ruswil,6017,47.08397739999999,8.1263259,
Steckborn,8266,47.6616993,8.977273799999999,
Niederglatt,8172,47.4931606,8.4992699,
Küssnacht am Rigi,6403,47.0738515,8.4466485,
Märstetten,8560,47.5878496,9.069190299999999,
Hohenrain,6276,47.1811341,8.3218395,
Grancia,6916,45.9691815,8.9278383,
Hüswil,6152,47.1295662,7.908548199999999,
Kägiswil,6056,46.9191374,8.2543049,
Bronschhofen,9552,47.4816466,9.0352172,
Wängi,9545,47.4969835,8.9661862,
Erlenbach,3762,46.6640465,7.5429935,
Opfershofen,8584,47.5615339,9.1813979,
Murist,1489,46.818188,8.227511999999999,
Ettingen,4107,47.4709326,7.5505014,
Maienfeld,7304,47.0050365,9.5300158,
Malters,6102,47.03428479999999,8.1831137,
Luzern,6005,47.0419512,8.3140814,
Wiedlisbach,4537,47.2480297,7.64602,
Bargen,8233,47.7936422,8.589948099999999,
Gals,3238,47.0317689,7.0473592,
Goldach,9403,47.4763286,9.4665609,
Grosswangen,6022,47.1367735,8.0509437,
Susten,3952,46.2907343,7.629350599999999,
Büsserach,4227,47.3926666,7.541642100000001,
Rohrbach,4938,47.1197698,7.8015921,
La Rippe,1278,46.818188,8.227511999999999,
Buttisholz,6018,47.114231,8.0923935,
Le Noirmont,2340,47.2100662,6.9331423,
Zezikon,9556,47.531803,9.026558699999999,
Mörschwil,9402,47.4697047,9.4270931,
Tägerwilen,8274,47.647322,9.1316841,
Hinwil,8340,47.2993227,8.8427233,
Remetschwil,5453,47.4070684,8.3277415,
Zizers,7205,46.9335139,9.5708253,
Basel,4052,47.5484185,7.610165400000001,
Dietikon,8953,47.4018479,8.399013799999999,
Lenggenwil,9525,47.4730205,9.1434593,
Dänikon,8114,47.4431086,8.4082107,
Lausanne,1007,46.516054,6.608998000000001,
Liestal,4410,47.4889962,7.7232323,
Klingnau,5313,47.5898545,8.2597033,
Satigny,1242,46.818188,8.227511999999999,
Merenschwand,5634,47.2651337,8.38278,
Turtmann,3946,46.2981741,7.697909999999999,
Wattwil,9630,47.2901615,9.0845857,
Knonau,8934,47.2222792,8.4637564,
Wiesendangen,8542,47.5206472,8.7891692,
Laupersdorf,4712,47.3164003,7.652521500000001,
Knutwil,6213,47.19889329999999,8.0745829,
Worb SBB,3076,46.9305584,7.561035299999999,
Hofstatt,6154,47.083696,7.8987574,
Wallisellen,8304,47.4166223,8.5981533,
Elsau,8352,47.49947969999999,8.8071463,
Beromünster,6215,47.219381,8.200569999999999,
Volketswil,8604,47.391014,8.675747699999999,
Herdern,8535,47.60986680000001,8.9155559,
Dagmersellen,6252,47.214311,7.995047800000001,
Buttisholz,6018,47.114231,8.0923935,
Uetendorf,3661,46.7735068,7.577952199999999,
Vaux-sur-Morges,1126,46.818188,8.227511999999999,
Ernetschwil,8725,47.2451799,8.9998043,
Altishofen,6246,47.1975095,7.9544123,
Bischofszell,9220,47.4963339,9.2530361,
Prez-vers-Noréaz,1746,46.818188,8.227511999999999,
Laupersdorf,4712,47.3164003,7.652521500000001,
Aarwangen,4912,47.2304921,7.7604525,
Selzach,2545,47.2121208,7.446418599999999,
Neuenkirch,6206,47.1014681,8.202509599999999,
Wattwil,9630,47.2901615,9.0845857,
Steg,3940,46.3536958,7.768114700000001,
Roggwil,9325,47.502591,9.3883765,
Merenschwand,5634,47.2651337,8.38278,
Roggwil,9325,47.502591,9.3883765,
Schleitheim,8226,47.7513569,8.4909999,
Cressier,2088,46.818188,8.227511999999999,
Langenthal,4900,47.2140396,7.7857711,
Langenthal,4900,47.2140396,7.7857711,
Essertines-sur-Yverdon,1417,46.818188,8.227511999999999,
Essertines-sur-Yverdon,1417,46.818188,8.227511999999999,
Agasul,8308,47.4075705,8.7174687,
Bonaduz,7402,46.7967526,9.3634378,
Deitingen,4543,47.2198713,7.6265451,
Birsfelden,4127,47.5520922,7.6291704,
Neudorf,CH-6025,47.1791998,8.2129935,
Kleinwangen,6277,47.195681,8.2958498,
Alpnach Dorf,6055,46.949044,8.212256199999999,
Thun,3604,46.7391866,7.6185958,
Domat/Ems,7013,46.8184137,9.455807799999999,
Bettwil,5618,47.2904038,8.2724122,
Appenzell,9050,47.32678900000001,9.4228294,
Zug,6300,47.15582999999999,8.5314882,
Payerne,1530,46.818188,8.227511999999999,
Dürrenroth,3465,47.0813037,7.791030399999999,
Wileroltigen,3207,46.9803255,7.245098199999999,
Reichenbach,3713,46.6211024,7.6775531,
Winden,9315,47.52385719999999,9.3705949,
Satigny,1242,46.818188,8.227511999999999,
Gossau,9201,46.818188,8.227511999999999,
Lustdorf,8512,47.5452593,8.9814925,
Knonau,8934,47.2222792,8.4637564,
Thun,3600,46.818188,8.227511999999999,
Sommentier,1688,46.818188,8.227511999999999,
Uetendorf,3661,46.7735068,7.577952199999999,
Ittigen,3063,46.9824346,7.4776246,
Valangin,2042,46.818188,8.227511999999999,
Salavaux,1585,46.818188,8.227511999999999,
Martigny,1920,46.818188,8.227511999999999,
Noréaz,1757,46.818188,8.227511999999999,
Saignelegier,2350,47.2489725,7.0190267,
Niederbipp,4704,47.2641852,7.698057399999999,
Ruswil,6017,47.08397739999999,8.1263259,
Gondiswil,4955,47.1446233,7.8680093,
Konolfingen,3510,46.818188,8.227511999999999,
Studen,2557,47.1109721,7.304974,
Deitingen,4543,47.2198713,7.6265451,
Rossens,1728,46.818188,8.227511999999999,
Walperswil,3272,47.05057,7.2160578,
Benken,8717,47.1892867,8.991218,
Muttenz,4132,47.5236348,7.6485345,
Gwatt,3645,46.71234519999999,7.620188300000001,
Dietlikon,8305,47.4227353,8.615258899999999,
Gollion,1124,46.818188,8.227511999999999,
Sarnen,6060,46.9038736,8.2289979,
Münchenbuchsee,3053,47.0217671,7.450329299999999,
Hünenberg,6331,47.20392080000001,8.412978899999999,
Buchs,9470,47.16972879999999,9.4752513,
Rifferswil,8911,47.2467522,8.498305799999999,
Porrentruy,2900,46.818188,8.227511999999999,
Charmoille,2947,47.4235044,7.2163615,
Wängi,9545,47.4969835,8.9661862,
Chur,7000,46.84823,9.5084689,
Sursee,6210,47.17714729999999,8.1043593,
Horn,9326,47.4944364,9.4570861,
Waldstatt,9104,47.35352959999999,9.277331799999999,
Schleitheim,8226,47.7513569,8.4909999,
Donatyre,1582,46.8735158,7.062041799999999,
Semsales,1623,46.818188,8.227511999999999,
Busswil b. Büren,3292,47.0994094,7.321120299999999,
Kägiswil,6056,46.9191374,8.2543049,
Hittnau,8335,47.3694743,8.8279385,
Heerbrugg,9435,47.4122146,9.62673,
Herrliberg,8704,47.2955821,8.6344146,
Attikon,8544,47.536003,8.7985449,
Chavornay,1373,46.818188,8.227511999999999,
Gümmenen,3205,46.9411674,7.2468286,
Zürich,8048,47.3860458,8.4793558,
Olten,4600,47.3487088,7.900779399999999,
Vilters,7324,47.0243717,9.451234099999999,
Le Mont-sur-Lausanne,1052,46.818188,8.227511999999999,
Le Mont-sur-Lausanne,1052,46.818188,8.227511999999999,
Vernier,1214,46.2153264,6.0819838,
Andwil,8586,47.5456562,9.2161258,
Birmensdorf,8903,47.3597495,8.4350703,
Niedergösgen,5013,47.3727746,7.9796306,
St.Margrethen,9430,47.4503633,9.628829099999999,
Etzelkofen,3306,47.0848962,7.4810113,
Düdingen,3186,46.8422421,7.1925093,
Eschlikon,8360,47.4600973,8.9637335,
Egliswil,5704,47.3480654,8.1895463,
Vinzel,1184,46.818188,8.227511999999999,
Altbüron,6147,47.1919482,7.893083400000001,
Palézieux-Village,1607,46.818188,8.227511999999999,
Ecublens,1024,46.818188,8.227511999999999,
Obergerlafingen,4564,47.1617596,7.578323,
Montfaucon,2875,47.2855129,7.0633997,
Illhart,8556,47.6003865,9.0360949,
Stans,6370,46.95191089999999,8.374485199999999,
Trimmis,7203,46.8865473,9.576373499999999,
Vuisternens-en-Ogoz,1696,46.6999066,7.0581245,
Colombey-Muraz,1893,46.818188,8.227511999999999,
Kirchberg,3422,47.08242329999999,7.592681699999999,
Ecublens,1024,46.818188,8.227511999999999,
Neuendorf,4623,47.2964278,7.802422200000001,
Knonau,8934,47.2222792,8.4637564,
Büron,6233,47.21470009999999,8.094083699999999,
Ramsei,3435,47.0009997,7.7127794,
Huttwil,4950,47.1061468,7.857353000000001,
Sursee,6210,47.17714729999999,8.1043593,
Estavayer-le-Gibloux,1695,46.818188,8.227511999999999,
Gossau,9200,47.4151524,9.248133600000001,
Thônex,1226,46.1964722,6.209378999999999,
Agiez,1352,46.818188,8.227511999999999,
Rohrbach,4938,47.1197698,7.8015921,
Belmont-s-Lausanne,1092,46.818188,8.227511999999999,
Wängi,9545,47.4969835,8.9661862,
Champagne,1424,46.818188,8.227511999999999,
Givisiez,1762,46.8148649,7.1244891,
Alpnach Dorf,6055,46.949044,8.212256199999999,
Tägertschi,3111,46.87256319999999,7.5897052,
Sion,1950,46.818188,8.227511999999999,
Emmenmatt,3543,46.946264,7.727473299999999,
Aarberg,3270,47.0461703,7.2853974,
Luzern,6002,46.818188,8.227511999999999,
Hasle-Rüegsau,3415,47.0027027,7.6511386,
Gossau,9200,47.4151524,9.248133600000001,
Langenthal,4900,47.2140396,7.7857711,
Wangen an der Aare,3380,47.2345991,7.663238499999999,
Baar,6340,47.2003879,8.526752799999999,
Härkingen,4621,46.818188,8.227511999999999,
Zeglingen,4495,47.4171869,7.907841299999999,
Basel,4005,47.5598993,7.592881999999999,
Meyrin,1217,46.2349075,6.074979099999999,
Wittenbach,9300,47.4630655,9.3876654,
Gwatt,3645,46.71234519999999,7.620188300000001,
Kirchberg,9533,47.4175617,9.033230999999999,
Niederbipp,4704,47.2641852,7.698057399999999,
Maienfeld,7302,46.9637196,9.590240099999999,
Dielsdorf,8157,47.4764856,8.4577034,
Frauenfeld,8500,47.5624565,8.8883133,
Sachseln,6072,46.8500287,8.231258799999999,
Müstair,7537,46.5610662,10.3390553,
Nottwil,6207,47.1257257,8.137588,
Domat/Ems,7013,46.8184137,9.455807799999999,
Le Lignon,1219,46.818188,8.227511999999999,
Emmenbrücke,6020,47.0771818,8.2674067,
Hohentannen,9216,47.5163837,9.2193455,
Grabs,9472,47.1713913,9.3958216,
Luzern,6005,47.0419512,8.3140814,
Schötz,6247,47.1661745,7.9814981,
Erlen,8586,47.5456562,9.2161258,
Spreitenbach,8957,47.4141202,8.3662195,
Ruswil,6017,47.08397739999999,8.1263259,
Zizers,7205,46.9335139,9.5708253,
St-Légier-La Chiésaz,1806,46.4961584,6.9044628,
Romanshorn,8590,47.5644239,9.3591783,
Orbe,1350,46.818188,8.227511999999999,
Homburg,8508,47.6322613,9.0091503,
Landquart,7302,46.9637196,9.590240099999999,
Delémont,2800,47.3668919,7.3324722,
Hatswil,8580,47.5500718,9.292343299999999,
Frauenfeld,8500,47.5624565,8.8883133,
Münchenstein,4142,47.51813110000001,7.620042300000001,
Sempach,6204,47.14074189999999,8.201868,
Fontaines,2046,46.818188,8.227511999999999,
Avenches,1580,46.818188,8.227511999999999,
Ebnat-Kappel,9642,47.2522495,9.1275795,
Rothenburg,6023,47.1024566,8.2567703,
Stansstad,6362,46.9762413,8.3427323,
Stansstad,6362,46.9762413,8.3427323,
Sierre,3960,46.29166499999999,7.5429327,
Nyon,1260,46.3805092,6.2298735,
Hemishofen,8261,47.6873283,8.844168999999999,
Tägerig,5522,47.398234,8.2797013,
Belmont,1432,46.7449318,6.6307297,
Rohrbach,4938,47.1197698,7.8015921,
Rohrbach,4938,47.1197698,7.8015921,
Ufhusen,6153,47.1037285,7.892416300000001,
Vaulruz,1627,46.6192679,6.9891242,
Oberwil,4104,47.5202001,7.551636799999999,
Härkingen,4624,47.3026642,7.819096600000001,
Etoy,1163,46.4856009,6.4228406,
Wildegg,5103,47.4162233,8.1827578,
Illhart,8556,47.6003865,9.0360949,
Stabio,6855,45.8476502,8.935106099999999,
Wittnau,5064,47.4824671,7.9622572,
Luthern,6156,47.0488598,7.906916899999999,
Pratteln,4133,47.52046790000001,7.695735300000001,
Villmergen,5612,47.3446612,8.236875,
Mex,1031,46.818188,8.227511999999999,
Saxon,1907,46.818188,8.227511999999999,
Wangen bei Olten,4612,47.3511464,7.865451399999999,
Châtel-St-Denis,1618,46.5298585,6.9069007,
Muri,5630,47.2782305,8.3382955,
Allaman,1165,46.818188,8.227511999999999,
Urdorf,8902,47.3896332,8.4254552,
Spreitenbach,8957,47.4141202,8.3662195,
Schüpbach,3535,46.927716,7.7490136,
Saxon,1907,46.818188,8.227511999999999,
Horw,6048,47.0249599,8.3121008,
Stans,6371,46.818188,8.227511999999999,
Neuendorf,4623,47.2964278,7.802422200000001,
Hergiswil,6133,47.0648206,7.959008,
Chur,7000,46.84823,9.5084689,
Amlikon-Bissegg,8514,47.5564231,9.0282404,
Wattwil,9630,47.2901615,9.0845857,
Wolfwil,4628,47.2700883,7.792196300000001,
Daillens,1310,46.818188,8.227511999999999,
Wil,9500,47.4604542,9.0530887,
Rüdtligen,3422,47.08242329999999,7.592681699999999,
Domdidier,1564,46.818188,8.227511999999999,
Payerne,1530,46.818188,8.227511999999999,
Zürich Mülligen,8952,47.3983398,8.446563099999999,
Rothenburg,6023,47.1024566,8.2567703,
Bioggio,6934,46.0125238,8.910569899999999,
Worb,3076,46.9305584,7.561035299999999,
Vernier,1214,46.2153264,6.0819838,
Alle,2942,47.4293583,7.1229551,
Basel,4057,47.574259,7.5930664,
Evionnaz,1902,46.818188,8.227511999999999,
Rheinfelden,4310,47.5520509,7.812721,
Biel,2504,47.1543372,7.2778057,
Landquart,7302,46.9637196,9.590240099999999,
Ecublens,1024,46.818188,8.227511999999999,
Frauenfeld,8500,47.5624565,8.8883133,
Neuendorf,4623,47.2964278,7.802422200000001,
Yvonand,1462,46.7875494,6.7328091,
Kaiseraugst,4303,47.5366751,7.748261800000001,
Neuendorf,4623,47.2964278,7.802422200000001,
Zuchwil,4528,47.2044642,7.563005599999999,
Onnens,1425,46.818188,8.227511999999999,
